{"type":"FeatureCollection","features":[{"type":"Feature","properties":{"id":"hallwilersee-ag","c":"AG","p":"mixed","q":"derived","k":"lake"},"geometry":{"type":"Polygon","coordinates":[[[8.20159,47.31874],[8.20188,47.31918],[8.20223,47.31931],[8.20318,47.31897],[8.20393,47.31901],[8.20541,47.3185],[8.20715,47.31754],[8.20771,47.31747],[8.20825,47.31756],[8.20913,47.31729],[8.21364,47.3133],[8.21482,47.31166],[8.21657,47.30855],[8.21737,47.30663],[8.21739,47.30595],[8.21788,47.30535],[8.21721,47.3032],[8.21746,47.30274],[8.21851,47.302],[8.21999,47.29667],[8.22058,47.29566],[8.21938,47.29499],[8.2189,47.29485],[8.21931,47.29459],[8.21937,47.29406],[8.21974,47.29372],[8.22095,47.29339],[8.22134,47.29304],[8.22215,47.29035],[8.22493,47.2845],[8.225,47.28392],[8.22635,47.28197],[8.22666,47.28102],[8.22745,47.27946],[8.22769,47.27928],[8.22803,47.27781],[8.22835,47.27747],[8.22863,47.27632],[8.22864,47.27554],[8.22787,47.27338],[8.22835,47.27285],[8.21983,47.25234],[8.21804,47.25561],[8.21789,47.25597],[8.21814,47.25652],[8.21773,47.25742],[8.21752,47.25761],[8.21704,47.25773],[8.2165,47.25846],[8.21595,47.25969],[8.21461,47.26127],[8.21449,47.26186],[8.21397,47.26238],[8.2136,47.26347],[8.21265,47.26489],[8.21253,47.26545],[8.21226,47.26572],[8.21224,47.26657],[8.21154,47.26895],[8.2117,47.26926],[8.2109,47.26945],[8.21042,47.27008],[8.2097,47.27063],[8.20965,47.271],[8.20921,47.27138],[8.20903,47.27278],[8.20854,47.27386],[8.20861,47.27425],[8.20761,47.27498],[8.20665,47.27652],[8.20584,47.27939],[8.20617,47.28016],[8.20554,47.28123],[8.20512,47.28161],[8.20495,47.28352],[8.20452,47.28421],[8.20413,47.28539],[8.2043,47.28605],[8.20335,47.28677],[8.20305,47.28717],[8.20295,47.28848],[8.20264,47.28884],[8.20243,47.29016],[8.20293,47.29109],[8.20261,47.29135],[8.20253,47.2919],[8.20188,47.29239],[8.20184,47.29506],[8.20154,47.29602],[8.20162,47.29659],[8.20111,47.29738],[8.20112,47.29832],[8.20005,47.30194],[8.19862,47.30451],[8.19837,47.30528],[8.19912,47.306],[8.19856,47.30713],[8.1983,47.30906],[8.19842,47.30973],[8.19933,47.31048],[8.19966,47.31181],[8.19957,47.31285],[8.19992,47.31329],[8.20042,47.3136],[8.19959,47.31427],[8.19983,47.31459],[8.19966,47.31529],[8.20022,47.31581],[8.20095,47.31592],[8.20191,47.31651],[8.20258,47.31664],[8.20283,47.31689],[8.20305,47.31759],[8.20282,47.31778],[8.20194,47.31788],[8.20159,47.31874]]]}},{"type":"Feature","properties":{"id":"klingnauer-stausee-ag","c":"AG","p":"pacht","q":"derived","k":"lake"},"geometry":{"type":"Polygon","coordinates":[[[8.22352,47.59343],[8.22488,47.59429],[8.2252,47.5942],[8.22599,47.59472],[8.22632,47.59463],[8.22701,47.59476],[8.22797,47.59438],[8.23018,47.59218],[8.23195,47.58963],[8.23266,47.58889],[8.25215,47.57475],[8.25323,47.57379],[8.25159,47.57306],[8.24962,47.57461],[8.24668,47.57652],[8.24608,47.57718],[8.24542,47.57751],[8.24506,47.5775],[8.24502,47.57738],[8.24568,47.57714],[8.24611,47.5768],[8.24596,47.57623],[8.24563,47.57618],[8.24536,47.57643],[8.24472,47.5766],[8.24424,47.57624],[8.24375,47.57627],[8.24359,47.57597],[8.24418,47.57579],[8.24438,47.57581],[8.2444,47.57603],[8.24458,47.57602],[8.24481,47.57586],[8.24616,47.57572],[8.24633,47.57566],[8.2463,47.57535],[8.24716,47.57504],[8.24714,47.57489],[8.24596,47.57535],[8.24112,47.57629],[8.23895,47.5772],[8.23753,47.57833],[8.23604,47.58034],[8.23522,47.58076],[8.23234,47.58433],[8.2293,47.58673],[8.22749,47.58838],[8.22535,47.58999],[8.22342,47.59173],[8.22377,47.59212],[8.22352,47.59343]],[[8.24308,47.57915],[8.24063,47.58105],[8.24035,47.58107],[8.24106,47.58051],[8.24151,47.57977],[8.2408,47.57984],[8.24062,47.57972],[8.24066,47.57958],[8.24098,47.57939],[8.24242,47.57913],[8.24256,47.57897],[8.2428,47.57798],[8.24233,47.5777],[8.24228,47.57748],[8.24279,47.57748],[8.24294,47.57777],[8.24309,47.5777],[8.24307,47.57745],[8.24254,47.57728],[8.24243,47.57712],[8.24266,47.57681],[8.24297,47.57671],[8.24309,47.57645],[8.24324,47.57643],[8.24402,47.57715],[8.24435,47.57778],[8.24317,47.57862],[8.24299,47.57891],[8.24308,47.57915]],[[8.2408,47.57866],[8.24125,47.57912],[8.24067,47.57894],[8.24083,47.57923],[8.23963,47.57986],[8.23943,47.57986],[8.23953,47.57955],[8.24045,47.57896],[8.24016,47.57887],[8.24021,47.57869],[8.24035,47.5786],[8.2408,47.57866]],[[8.24366,47.57657],[8.24432,47.57678],[8.24433,47.57693],[8.24483,47.57679],[8.24487,47.57766],[8.24457,47.57773],[8.24442,47.57765],[8.24427,47.57706],[8.24366,47.57657]],[[8.24192,47.57808],[8.24137,47.57834],[8.24114,47.5783],[8.24164,47.5779],[8.24192,47.57808]],[[8.24237,47.57839],[8.2422,47.57815],[8.24231,47.57807],[8.24266,47.57812],[8.24266,47.57825],[8.24237,47.57839]]]}},{"type":"Feature","properties":{"id":"wissenbach-ag","c":"AG","p":"pacht","q":"derived","k":"river"},"geometry":{"type":"LineString","coordinates":[[8.3263,47.22151],[8.32741,47.22295],[8.33148,47.2246],[8.33203,47.22528],[8.33252,47.2273],[8.33256,47.22789],[8.33223,47.22839],[8.33648,47.23141],[8.33783,47.23181],[8.34091,47.23194],[8.34337,47.23243],[8.34523,47.23197],[8.35015,47.23262],[8.35109,47.23296],[8.35127,47.2333],[8.35102,47.23389],[8.35235,47.23581],[8.35299,47.23616],[8.35287,47.23709],[8.35383,47.23977],[8.35334,47.24013],[8.35376,47.24083],[8.3535,47.24119],[8.35388,47.24184],[8.35377,47.24225],[8.35411,47.24244],[8.35394,47.24304],[8.35518,47.24467],[8.35614,47.24521],[8.35747,47.24551],[8.35824,47.24605],[8.35859,47.24606],[8.35893,47.2463],[8.35883,47.24662],[8.35968,47.24683],[8.3597,47.24709],[8.36021,47.24731],[8.3611,47.2474],[8.36145,47.24709],[8.36298,47.24736],[8.36365,47.24726],[8.36466,47.24775],[8.36504,47.24838],[8.3654,47.24842],[8.36453,47.24902],[8.36418,47.24954],[8.36434,47.25053],[8.36408,47.2508],[8.36444,47.25122],[8.36503,47.25138],[8.36472,47.25173],[8.36352,47.2519],[8.36388,47.25216],[8.36362,47.25236],[8.36379,47.25268],[8.36353,47.25289],[8.36354,47.25329],[8.36421,47.25467],[8.3645,47.25489],[8.3658,47.25504],[8.36731,47.25744],[8.3684,47.25803],[8.36919,47.25806],[8.36967,47.25828],[8.37017,47.25881],[8.37014,47.25916],[8.3709,47.25981],[8.37148,47.26002],[8.37462,47.25969],[8.3757,47.25983],[8.37799,47.26052],[8.3828,47.26298],[8.38332,47.26398],[8.38311,47.26669],[8.38358,47.26753],[8.38631,47.27003],[8.38891,47.27115],[8.3937,47.27577],[8.39413,47.27648],[8.39404,47.27698]]}},{"type":"Feature","properties":{"id":"arnerbach-ag","c":"AG","p":"pacht","q":"derived","k":"river"},"geometry":{"type":"LineString","coordinates":[[8.42091,47.31902],[8.41907,47.31878],[8.41672,47.31793],[8.41368,47.31736],[8.41274,47.31674],[8.41199,47.31678],[8.41132,47.31623],[8.41074,47.31625],[8.40999,47.31598],[8.40802,47.31584],[8.40708,47.31632],[8.40599,47.31609],[8.40379,47.31656],[8.40323,47.31616],[8.40267,47.31615],[8.40172,47.31553],[8.40082,47.3156],[8.40045,47.31543],[8.39993,47.31586],[8.3996,47.31581],[8.39913,47.3161],[8.39878,47.31599],[8.39855,47.31631],[8.39806,47.31646],[8.39806,47.3167],[8.39745,47.31708],[8.39642,47.31871],[8.39473,47.31958],[8.3922,47.3198],[8.39072,47.31969],[8.38862,47.32007],[8.38781,47.31997],[8.38744,47.321],[8.38616,47.32115],[8.38565,47.32106],[8.38434,47.32153],[8.38316,47.32133],[8.38308,47.32114],[8.38249,47.32097],[8.38208,47.32045],[8.38108,47.32041],[8.38094,47.31935],[8.37933,47.31877],[8.37675,47.31897],[8.37377,47.31892]]}},{"type":"Feature","properties":{"id":"stoeckenbach-ag","c":"AG","p":"pacht","q":"derived","k":"river"},"geometry":{"type":"LineString","coordinates":[[8.37293,47.16828],[8.37351,47.16855],[8.37396,47.16851],[8.37433,47.16891],[8.37513,47.16881],[8.37585,47.1695],[8.37664,47.16975],[8.37693,47.17098],[8.37722,47.17136],[8.37749,47.17133],[8.37733,47.17165],[8.37809,47.17281],[8.38243,47.17339],[8.38299,47.17371],[8.38302,47.17397],[8.38465,47.17446],[8.38626,47.17444],[8.38736,47.17469],[8.3876,47.17447],[8.38786,47.1746],[8.38954,47.17429],[8.39092,47.17377],[8.39104,47.17345],[8.39194,47.17322],[8.39299,47.17327],[8.39328,47.17287],[8.39468,47.17233],[8.395,47.1718],[8.39667,47.17095],[8.39953,47.1712],[8.40022,47.17208],[8.40102,47.1722],[8.40215,47.17201],[8.40325,47.1722],[8.40361,47.17259]]}},{"type":"Feature","properties":{"id":"littenbach-ag","c":"AG","p":"pacht","q":"derived","k":"river"},"geometry":{"type":"MultiLineString","coordinates":[[[8.28166,47.51792],[8.28119,47.5179],[8.28003,47.51825],[8.27955,47.51867],[8.2786,47.51874],[8.27715,47.51928],[8.27581,47.51946],[8.27455,47.52001],[8.27432,47.52072],[8.27374,47.52132],[8.27398,47.5249],[8.27543,47.52653],[8.27917,47.52883],[8.28073,47.53055],[8.28298,47.53222],[8.2847,47.53323],[8.28722,47.5354],[8.28814,47.53601],[8.28993,47.53605],[8.29122,47.53669]],[[8.28313,47.51756],[8.28212,47.51789]]]}},{"type":"Feature","properties":{"id":"gipsbach-ag","c":"AG","p":"pacht","q":"derived","k":"river"},"geometry":{"type":"LineString","coordinates":[[8.35444,47.48421],[8.35343,47.48432],[8.35271,47.48491],[8.35088,47.4856],[8.34971,47.48653],[8.34949,47.48729],[8.34809,47.48865],[8.34422,47.49037],[8.34393,47.49073],[8.34308,47.49392],[8.3426,47.49436],[8.34202,47.49579],[8.34135,47.49635],[8.34557,47.50037],[8.3471,47.50248],[8.34742,47.5034],[8.34697,47.50545],[8.34715,47.50589]]}},{"type":"Feature","properties":{"id":"sembach-ag","c":"AG","p":"pacht","q":"derived","k":"river"},"geometry":{"type":"MultiLineString","coordinates":[[[8.33378,47.21375],[8.33324,47.21589],[8.33365,47.21762],[8.33323,47.21868],[8.33334,47.2191],[8.33389,47.21945],[8.33543,47.21983],[8.33713,47.2199],[8.33865,47.22069],[8.33925,47.22075],[8.33987,47.22105],[8.34095,47.22108],[8.34165,47.22137],[8.34303,47.22152],[8.34724,47.22105],[8.34981,47.22138],[8.35161,47.22114],[8.3524,47.2206],[8.3549,47.2202],[8.3553,47.21986],[8.35663,47.21993],[8.35766,47.21965],[8.35806,47.21975],[8.35927,47.21916],[8.35964,47.21875],[8.36071,47.21839],[8.36387,47.21903],[8.36536,47.21911],[8.36757,47.22011],[8.36867,47.22033],[8.36946,47.22039],[8.36978,47.22013],[8.37065,47.22001],[8.37133,47.22064],[8.37184,47.22079],[8.37302,47.22078],[8.3737,47.22023],[8.3751,47.21989],[8.3795,47.22022],[8.38176,47.22168],[8.38239,47.22313],[8.38231,47.22385],[8.38272,47.22442],[8.38331,47.22459],[8.38321,47.2255],[8.38419,47.22568],[8.38472,47.22615],[8.38507,47.22609],[8.38556,47.2267],[8.38483,47.22799]],[[8.38483,47.22799],[8.38502,47.22816]],[[8.38483,47.22799],[8.38539,47.22883],[8.38596,47.22886]],[[8.38576,47.22871],[8.38596,47.22886]],[[8.38596,47.22886],[8.38672,47.22939],[8.38728,47.22926],[8.38871,47.22949],[8.3891,47.22903],[8.38957,47.22896],[8.39038,47.22851],[8.39214,47.22812],[8.39461,47.22835]]]}},{"type":"Feature","properties":{"id":"mariahaldenbach-ag","c":"AG","p":"pacht","q":"derived","k":"river"},"geometry":{"type":"LineString","coordinates":[[8.32648,47.21108],[8.32686,47.21083],[8.32893,47.21048],[8.33184,47.20945],[8.33302,47.2092],[8.33432,47.20918],[8.33599,47.20836],[8.33818,47.20951],[8.33931,47.20965],[8.34084,47.21011],[8.34381,47.21296],[8.34467,47.21321],[8.34502,47.21354],[8.34621,47.21347],[8.34663,47.21374],[8.34762,47.21393],[8.34854,47.21384],[8.34944,47.21435],[8.35067,47.21464],[8.35113,47.21449],[8.35135,47.21468],[8.35229,47.21467],[8.35413,47.21519],[8.35676,47.21458],[8.35689,47.2142],[8.35751,47.21387],[8.35802,47.21408],[8.35883,47.21411],[8.35998,47.21362],[8.36056,47.21362],[8.36124,47.21283],[8.36159,47.21137],[8.36244,47.21084]]}},{"type":"Feature","properties":{"id":"magdener-bach-ag","c":"AG","p":"pacht","q":"derived","k":"river"},"geometry":{"type":"LineString","coordinates":[[7.81003,47.52926],[7.80958,47.52961],[7.80872,47.52955],[7.8077,47.52975],[7.80688,47.53054],[7.80552,47.5314],[7.80454,47.53169],[7.80382,47.53337],[7.80388,47.53522],[7.80358,47.53628],[7.80118,47.53807],[7.7992,47.54006],[7.79954,47.54147],[7.79927,47.54361],[7.79694,47.54568],[7.79794,47.54634],[7.79796,47.5473],[7.79868,47.54744],[7.79896,47.54913],[7.79778,47.55125],[7.79689,47.55143],[7.79722,47.5521],[7.7957,47.55235],[7.79446,47.55306],[7.79535,47.55373],[7.79613,47.55501],[7.7954,47.55647]]}},{"type":"Feature","properties":{"id":"reppisch-ag","c":"AG","p":"pacht","q":"derived","k":"river"},"geometry":{"type":"MultiLineString","coordinates":[[[8.39516,47.38653],[8.39489,47.38749],[8.39402,47.38858],[8.3939,47.38987],[8.39487,47.39009],[8.39444,47.39071]],[[8.39501,47.38111],[8.39542,47.38174],[8.39489,47.38336],[8.39502,47.38474]],[[8.3955,47.39145],[8.39588,47.39171],[8.39641,47.39263]],[[8.39939,47.37479],[8.39839,47.37389],[8.39794,47.37382],[8.39701,47.37482],[8.39606,47.3754],[8.39663,47.37599],[8.39666,47.37664]]]}},{"type":"Feature","properties":{"id":"muehletych-ag","c":"AG","p":"pacht","q":"derived","k":"river"},"geometry":{"type":"MultiLineString","coordinates":[[[7.89999,47.3205],[7.89886,47.32022]],[[7.92932,47.29781],[7.92917,47.29866],[7.92815,47.29933],[7.92721,47.30053],[7.92678,47.30167],[7.92599,47.30246],[7.92448,47.30532],[7.92388,47.30564],[7.9221,47.30824],[7.91965,47.31097],[7.91646,47.31225],[7.91445,47.31265],[7.91269,47.31421],[7.90947,47.31539],[7.90929,47.3158],[7.90554,47.31811],[7.90487,47.31807],[7.90347,47.31894],[7.90272,47.31914],[7.90254,47.31946],[7.90097,47.32019],[7.90091,47.32045],[7.90028,47.32059],[7.89999,47.3205]],[[7.9002,47.32039],[7.89999,47.3205]]]}},{"type":"Feature","properties":{"id":"dorfbach-oftringen-ag","c":"AG","p":"pacht","q":"derived","k":"river"},"geometry":{"type":"LineString","coordinates":[[7.966,47.32146],[7.96029,47.32053],[7.95856,47.31986],[7.95737,47.31983],[7.95566,47.3192],[7.95541,47.3194],[7.94891,47.31738],[7.94606,47.31621],[7.94577,47.31594],[7.9438,47.31573],[7.94296,47.31543],[7.94244,47.31555],[7.9418,47.31608],[7.93949,47.31626],[7.93713,47.31596],[7.9363,47.31653],[7.93296,47.31621],[7.93128,47.31658],[7.93023,47.3166],[7.92927,47.31635],[7.92729,47.31743],[7.92459,47.31815],[7.92388,47.31892],[7.92341,47.31907],[7.92144,47.31944],[7.91827,47.31948],[7.9151,47.32024],[7.91127,47.32035],[7.90947,47.32012],[7.90887,47.32044],[7.90743,47.31952],[7.90681,47.31775],[7.90637,47.31754]]}},{"type":"Feature","properties":{"id":"talbach-ag","c":"AG","p":"pacht","q":"derived","k":"river"},"geometry":{"type":"LineString","coordinates":[[8.07221,47.43694],[8.07533,47.43673],[8.07746,47.43615],[8.07807,47.43581],[8.07991,47.43565],[8.08101,47.43532],[8.08564,47.43556],[8.08677,47.43575],[8.08912,47.43652],[8.08954,47.43638],[8.09147,47.43664],[8.09445,47.43649],[8.09651,47.43613],[8.09721,47.43575],[8.09908,47.43562],[8.10017,47.43617],[8.1012,47.43615],[8.10233,47.43652],[8.10327,47.43708],[8.10467,47.43726],[8.10689,47.43795],[8.10799,47.43853],[8.10856,47.43909],[8.11131,47.43914],[8.11328,47.44],[8.11461,47.44021],[8.11618,47.44022],[8.11685,47.44048],[8.11782,47.4403],[8.11883,47.44067],[8.11978,47.44052],[8.12007,47.44086],[8.12151,47.44098],[8.1219,47.44141],[8.12371,47.44174],[8.12422,47.44209],[8.12678,47.44207],[8.12709,47.44242],[8.1284,47.44213],[8.12924,47.44154],[8.13028,47.44181],[8.13126,47.44262],[8.13248,47.44211],[8.1338,47.44233],[8.13544,47.44307],[8.13762,47.44471],[8.13819,47.44467],[8.13866,47.44495],[8.13926,47.4448],[8.13972,47.44508],[8.14059,47.44491],[8.14125,47.44537],[8.1436,47.44567],[8.14414,47.4462],[8.1463,47.4456],[8.14805,47.44601],[8.14966,47.44782],[8.15013,47.44965],[8.15093,47.45026],[8.15217,47.45081],[8.16097,47.45147]]}},{"type":"Feature","properties":{"id":"dorfbach-ag","c":"AG","p":"pacht","q":"derived","k":"river"},"geometry":{"type":"LineString","coordinates":[[8.24969,47.28494],[8.24921,47.28521],[8.24931,47.28644],[8.24908,47.28742],[8.24885,47.28752],[8.2492,47.28787],[8.24867,47.2894],[8.24889,47.28973],[8.24823,47.29006],[8.24762,47.29089],[8.24767,47.29129],[8.24711,47.29163],[8.2472,47.29203],[8.24683,47.29218],[8.24609,47.29199],[8.24549,47.29233],[8.24488,47.29225],[8.24375,47.29249],[8.24288,47.29332],[8.24122,47.29395],[8.24136,47.29477],[8.24119,47.29485],[8.24047,47.29476],[8.2402,47.29442],[8.23727,47.29423],[8.23589,47.29445],[8.23519,47.29387],[8.23426,47.29366],[8.23386,47.29399],[8.23294,47.29369],[8.23092,47.29382],[8.22714,47.29322],[8.2259,47.29383],[8.22498,47.29381],[8.22397,47.29432],[8.22377,47.29462],[8.22343,47.29445],[8.22119,47.29448],[8.21981,47.29469]]}},{"type":"Feature","properties":{"id":"wissenbach-ag-2","c":"AG","p":"pacht","q":"derived","k":"river"},"geometry":{"type":"LineString","coordinates":[[8.29867,47.26949],[8.30061,47.27175],[8.3007,47.27223],[8.30207,47.2733],[8.30288,47.27461],[8.30366,47.27525],[8.3047,47.27561],[8.30496,47.27615],[8.30551,47.27648],[8.30691,47.27668],[8.30897,47.27748],[8.30873,47.27823],[8.30894,47.27855],[8.30872,47.27869],[8.309,47.27925],[8.30875,47.27958],[8.30881,47.28008],[8.3085,47.28041],[8.30861,47.28077],[8.30673,47.28143],[8.30645,47.28207],[8.30601,47.28243],[8.30574,47.28341],[8.30659,47.28423],[8.30702,47.28534],[8.30661,47.2882],[8.30611,47.2892],[8.30695,47.29046],[8.30675,47.29083],[8.30724,47.29143],[8.3072,47.29192],[8.30798,47.29224],[8.30773,47.29276],[8.30809,47.29308],[8.30787,47.29341],[8.30791,47.2943],[8.30703,47.29474],[8.30639,47.29594],[8.30708,47.29626],[8.30731,47.2967],[8.30828,47.29735],[8.30817,47.29775],[8.30842,47.29824],[8.3094,47.29858],[8.31009,47.29854],[8.31058,47.2987],[8.31155,47.29991],[8.31414,47.30165],[8.31495,47.30189],[8.3162,47.30185],[8.31864,47.30288],[8.32142,47.30483],[8.32245,47.30589],[8.32356,47.30624],[8.32517,47.30724]]}},{"type":"Feature","properties":{"id":"soerikerbach-ag","c":"AG","p":"pacht","q":"derived","k":"river"},"geometry":{"type":"LineString","coordinates":[[8.31805,47.24464],[8.31797,47.24542],[8.31833,47.24587],[8.31975,47.24667],[8.32026,47.2474],[8.32096,47.24778],[8.32101,47.24834],[8.32247,47.24945],[8.32224,47.25013],[8.32175,47.25047],[8.32093,47.2521],[8.31997,47.25337],[8.32018,47.2542],[8.31952,47.25487],[8.31992,47.25602],[8.32044,47.25622],[8.32039,47.25676],[8.32129,47.25702],[8.32209,47.25798],[8.32329,47.25879],[8.3239,47.25877],[8.32508,47.25946],[8.32598,47.25952],[8.32716,47.26036],[8.32747,47.26034],[8.32752,47.26064],[8.32825,47.26112],[8.32798,47.2614],[8.32813,47.26255],[8.32936,47.26346],[8.32953,47.26408],[8.32959,47.2652],[8.32922,47.26596],[8.32899,47.26754],[8.32988,47.26874],[8.33176,47.2699],[8.33291,47.27021],[8.33349,47.27017],[8.334,47.27076],[8.33476,47.27108],[8.33554,47.27102],[8.33615,47.27142],[8.33674,47.27153],[8.33678,47.27209],[8.3364,47.27285],[8.33413,47.27479],[8.33337,47.27638],[8.33353,47.27703],[8.33484,47.27747],[8.33752,47.27794],[8.33958,47.27868],[8.34073,47.27889],[8.34154,47.28016]]}},{"type":"Feature","properties":{"id":"dorfbach-ag-2","c":"AG","p":"pacht","q":"derived","k":"river"},"geometry":{"type":"LineString","coordinates":[[8.15697,47.31618],[8.1577,47.31736],[8.1571,47.31779],[8.15651,47.31884],[8.15555,47.31947],[8.15447,47.32071],[8.15394,47.32111],[8.15271,47.32155],[8.14902,47.32166],[8.1473,47.32145],[8.1464,47.32192],[8.14363,47.32236],[8.14236,47.32234],[8.13986,47.32297],[8.13872,47.32309],[8.13768,47.3231],[8.13732,47.32287],[8.13661,47.32299],[8.13562,47.32267],[8.1342,47.3232],[8.13322,47.32334],[8.13125,47.32418],[8.12978,47.32443],[8.12947,47.32461],[8.12926,47.3252],[8.12816,47.32603],[8.12475,47.32668],[8.12016,47.32824],[8.11957,47.32824],[8.1174,47.32876],[8.11708,47.32905],[8.11569,47.32938],[8.11428,47.33045],[8.11226,47.33081],[8.11099,47.33141]]}},{"type":"Feature","properties":{"id":"hinterwilerbach-ag","c":"AG","p":"pacht","q":"derived","k":"river"},"geometry":{"type":"MultiLineString","coordinates":[[[7.98715,47.30507],[7.98979,47.30467],[7.99059,47.30427],[7.99056,47.30385],[7.99185,47.30358],[7.99748,47.30441],[8.00013,47.30552]],[[8.00062,47.30574],[8.0023,47.30608],[8.00414,47.30618],[8.00523,47.30584],[8.0055,47.30539],[8.00636,47.30488],[8.00737,47.3047],[8.00871,47.30471],[8.00891,47.30493],[8.00962,47.3051],[8.01094,47.30446],[8.01125,47.30463],[8.0137,47.30477],[8.01478,47.30441],[8.01637,47.30474],[8.01655,47.30447],[8.0173,47.30445],[8.01892,47.30482],[8.02202,47.30633],[8.0229,47.3064],[8.0234,47.30668],[8.02556,47.30664]]]}},{"type":"Feature","properties":{"id":"ruederchen-ag","c":"AG","p":"pacht","q":"derived","k":"river"},"geometry":{"type":"MultiLineString","coordinates":[[[8.12217,47.25043],[8.12278,47.25107],[8.12327,47.25124],[8.12357,47.25208],[8.12338,47.25327],[8.12289,47.25347],[8.12121,47.25547],[8.12065,47.25556],[8.12038,47.25581],[8.12038,47.25629],[8.11967,47.25709],[8.11976,47.25768],[8.11884,47.25826],[8.11846,47.25876],[8.11615,47.25983],[8.11472,47.26001],[8.11412,47.26031],[8.11324,47.26032],[8.11138,47.26083],[8.11038,47.26132],[8.10996,47.26118],[8.108,47.26179],[8.10667,47.26332],[8.1067,47.26376],[8.10617,47.26437],[8.1063,47.26492],[8.10605,47.26589],[8.10488,47.2668],[8.10497,47.26791],[8.10459,47.26868],[8.10525,47.26883],[8.10548,47.26915],[8.10525,47.26995],[8.10757,47.2715],[8.10817,47.27221],[8.10812,47.27258],[8.1086,47.27361],[8.10958,47.27442],[8.10999,47.27556],[8.1106,47.27643],[8.11019,47.27692],[8.11022,47.27773],[8.10963,47.27839],[8.10788,47.27938],[8.10533,47.28151],[8.10421,47.28166],[8.10368,47.2821],[8.10231,47.28255],[8.10116,47.28358],[8.09836,47.28457],[8.09884,47.2856],[8.09845,47.28576],[8.09796,47.28559],[8.09747,47.28567],[8.09537,47.2869],[8.09374,47.2875],[8.09137,47.28975],[8.08941,47.29054],[8.08803,47.29089],[8.08642,47.29162],[8.08562,47.29137],[8.08337,47.29219],[8.08241,47.29222],[8.08144,47.29249],[8.08079,47.29234],[8.08006,47.29246],[8.07902,47.29301],[8.07904,47.29357],[8.07815,47.294],[8.07752,47.2947],[8.07542,47.29541],[8.07361,47.29645],[8.07061,47.29779],[8.06988,47.29864],[8.0693,47.29862],[8.06819,47.29948],[8.06653,47.29992],[8.06468,47.30122],[8.06406,47.30114],[8.06317,47.30185],[8.0628,47.30249],[8.06158,47.30305],[8.05953,47.30366],[8.05767,47.30335],[8.05646,47.30373],[8.0546,47.30357],[8.05223,47.30365],[8.04806,47.3031]],[[8.11041,47.24427],[8.11285,47.24584],[8.1129,47.24634],[8.11331,47.24668],[8.11276,47.24763],[8.11387,47.24867],[8.11611,47.24913],[8.11741,47.24993],[8.12016,47.25034],[8.12184,47.25019]],[[8.12194,47.25026],[8.12211,47.2504]]]}},{"type":"Feature","properties":{"id":"dorfbach-ag-3","c":"AG","p":"pacht","q":"derived","k":"river"},"geometry":{"type":"LineString","coordinates":[[8.12496,47.3708],[8.127,47.37104],[8.12785,47.3727],[8.12435,47.37443],[8.12437,47.37472],[8.12401,47.375],[8.12423,47.37568],[8.12342,47.37617],[8.12169,47.3804],[8.12341,47.38287],[8.12349,47.38665],[8.12391,47.38786],[8.1238,47.38871],[8.1245,47.38998],[8.1255,47.39053],[8.12758,47.39093],[8.12884,47.39286],[8.12967,47.39324],[8.13007,47.39547],[8.12959,47.39743],[8.13014,47.39761],[8.13006,47.39933],[8.12891,47.40296],[8.12964,47.40446],[8.12917,47.405],[8.12768,47.40884]]}},{"type":"Feature","properties":{"id":"erzbach-ag","c":"AG","p":"pacht","q":"derived","k":"river"},"geometry":{"type":"MultiLineString","coordinates":[[[8.01186,47.42083],[8.00535,47.41911],[8.00384,47.41938],[8.00145,47.41922],[7.9999,47.41941],[7.99786,47.41941],[7.99704,47.4192],[7.99551,47.41915],[7.99508,47.41885],[7.99367,47.41843],[7.99295,47.41786],[7.99113,47.41706],[7.98964,47.41482],[7.98955,47.41419]],[[7.99066,47.41191],[7.99134,47.41135]],[[8.00738,47.40612],[8.00766,47.40542]],[[8.01044,47.40051],[8.01011,47.39991],[8.01039,47.3989],[8.01017,47.39836],[8.01035,47.39777],[8.00998,47.39751],[8.01006,47.397],[8.0098,47.39661],[8.00999,47.39628],[8.00979,47.39573],[8.01002,47.39538],[8.01132,47.39489],[8.0138,47.39438],[8.01462,47.39479],[8.01575,47.39504],[8.01695,47.39496],[8.02006,47.39401]]]}},{"type":"Feature","properties":{"id":"pfaffnerrn-ag","c":"AG","p":"pacht","q":"derived","k":"river"},"geometry":{"type":"LineString","coordinates":[[7.89415,47.24252],[7.89417,47.2434],[7.89285,47.24471],[7.89294,47.24507],[7.89361,47.24572],[7.89528,47.24587],[7.89484,47.24649],[7.89572,47.24708],[7.89555,47.24798],[7.89518,47.24837],[7.8957,47.2488],[7.89569,47.24931],[7.89501,47.25051],[7.8946,47.25036],[7.8941,47.25059],[7.8935,47.25297],[7.8923,47.25483],[7.89231,47.25541],[7.89317,47.25615],[7.89339,47.25671],[7.89205,47.25745],[7.89161,47.25792],[7.89187,47.25839],[7.89191,47.25899],[7.89169,47.25929],[7.89192,47.25976],[7.89151,47.26046],[7.8918,47.26106],[7.89175,47.26236],[7.89204,47.26347],[7.89247,47.26384],[7.89368,47.26409],[7.89412,47.26477],[7.89416,47.26534],[7.89565,47.26583],[7.89575,47.26617],[7.89713,47.26712],[7.8972,47.26758],[7.89805,47.26863],[7.89788,47.26923],[7.89834,47.26993],[7.8981,47.27103],[7.89857,47.27146],[7.90011,47.27197],[7.89979,47.27303],[7.90006,47.27358],[7.90141,47.27421],[7.90223,47.275],[7.90233,47.27621],[7.90286,47.27679],[7.90266,47.27778],[7.90291,47.27925],[7.90431,47.28078],[7.90617,47.28164],[7.90647,47.28235],[7.90759,47.28287],[7.90788,47.28329],[7.90801,47.28378],[7.90778,47.2846],[7.90697,47.28494],[7.90681,47.28621],[7.90729,47.28657],[7.90852,47.28881],[7.90779,47.28962],[7.90765,47.29015],[7.90867,47.29251],[7.90824,47.29298],[7.90586,47.29344],[7.90423,47.29483],[7.90378,47.2957],[7.90232,47.2961],[7.90165,47.29677],[7.89929,47.29793],[7.89918,47.29854],[7.90002,47.29896],[7.90036,47.29953],[7.89984,47.3007],[7.89985,47.30153],[7.89843,47.30354],[7.89846,47.30435],[7.89822,47.30488],[7.89383,47.30753],[7.89422,47.31014],[7.89362,47.31098],[7.89234,47.31162],[7.89192,47.31247],[7.89085,47.31264]]}},{"type":"Feature","properties":{"id":"wilibach-ag","c":"AG","p":"pacht","q":"derived","k":"river"},"geometry":{"type":"LineString","coordinates":[[7.92548,47.24468],[7.92514,47.24512],[7.9255,47.24682],[7.92475,47.24799],[7.92279,47.24934],[7.91926,47.25067],[7.91888,47.25146],[7.91901,47.25316],[7.91715,47.25438],[7.91658,47.25454],[7.90915,47.25469],[7.90681,47.25521],[7.9028,47.25691],[7.90078,47.25891],[7.90093,47.26201],[7.90066,47.26288],[7.89946,47.26449],[7.89806,47.26528],[7.89756,47.26608],[7.89651,47.26663]]}},{"type":"Feature","properties":{"id":"muelibach-ag","c":"AG","p":"pacht","q":"derived","k":"river"},"geometry":{"type":"LineString","coordinates":[[8.31201,47.42094],[8.31036,47.42134],[8.30858,47.42209],[8.30663,47.4236],[8.30636,47.42424],[8.30488,47.42473],[8.30357,47.42543],[8.30331,47.42577],[8.30124,47.42613],[8.30096,47.42557],[8.29822,47.42555],[8.29638,47.42597],[8.29515,47.42534],[8.29468,47.42446],[8.29199,47.42392],[8.29104,47.42404],[8.28766,47.4262],[8.28773,47.42655],[8.2853,47.42695],[8.28425,47.42739],[8.28393,47.42722],[8.28267,47.42785],[8.28098,47.42794],[8.27977,47.42858],[8.27981,47.42884],[8.27942,47.4289],[8.27717,47.42838],[8.27478,47.42834],[8.27093,47.4265],[8.26992,47.42538],[8.26844,47.42242]]}},{"type":"Feature","properties":{"id":"reuss-kanal-ag","c":"AG","p":"pacht","q":"derived","k":"river"},"geometry":{"type":"MultiLineString","coordinates":[[[8.39341,47.27767],[8.37352,47.29822],[8.37302,47.2992],[8.37278,47.30188],[8.37283,47.30261],[8.37336,47.30363]],[[8.37367,47.30372],[8.37466,47.30376]],[[8.39461,47.22835],[8.39587,47.23154],[8.39528,47.23481],[8.39544,47.237],[8.39591,47.23806],[8.39673,47.23894],[8.39736,47.24007],[8.39851,47.2426],[8.4009,47.24439],[8.40754,47.2446],[8.40805,47.24507],[8.40841,47.24606],[8.40767,47.24919],[8.40701,47.25023],[8.40368,47.25227],[8.40246,47.25324],[8.40109,47.25378],[8.40042,47.25465],[8.40012,47.25562],[8.40026,47.25652],[8.40203,47.25922],[8.40222,47.26009],[8.40196,47.26075],[8.40023,47.26303],[8.39946,47.26552],[8.39938,47.26714],[8.40011,47.26935],[8.4001,47.27035],[8.39954,47.27143],[8.39369,47.27741]]]}},{"type":"Feature","properties":{"id":"suessbach-ag","c":"AG","p":"pacht","q":"derived","k":"river"},"geometry":{"type":"LineString","coordinates":[[8.18604,47.44865],[8.18853,47.44941],[8.19151,47.44995],[8.19822,47.44862],[8.20572,47.44928],[8.20684,47.4495],[8.20816,47.45004],[8.20808,47.45083],[8.20845,47.45116],[8.21164,47.45151],[8.2136,47.45237],[8.20966,47.45987],[8.20916,47.46175],[8.20961,47.46392],[8.20949,47.4655],[8.21003,47.46858],[8.20965,47.47],[8.20861,47.4719],[8.21042,47.4725],[8.21122,47.47302],[8.21155,47.473],[8.21181,47.47349],[8.21157,47.4745],[8.21186,47.47476],[8.21107,47.47579],[8.21038,47.47597],[8.20964,47.47679],[8.20748,47.47836],[8.20686,47.47914],[8.20667,47.47994],[8.20494,47.48227],[8.20457,47.48233],[8.20339,47.48317],[8.20168,47.48304],[8.20026,47.48398],[8.2003,47.48433]]}},{"type":"Feature","properties":{"id":"dorfbach-ag-4","c":"AG","p":"pacht","q":"derived","k":"river"},"geometry":{"type":"LineString","coordinates":[[8.13787,47.47465],[8.14144,47.47429],[8.14262,47.47398],[8.1437,47.4743],[8.14551,47.47426],[8.14637,47.47483],[8.1478,47.4751],[8.14827,47.47566],[8.14909,47.47599],[8.15104,47.4763],[8.15324,47.47615],[8.15399,47.4759],[8.15387,47.47521],[8.15481,47.47432],[8.15569,47.47247],[8.15896,47.47134],[8.16025,47.4715],[8.16032,47.4712],[8.16204,47.47025],[8.16502,47.46943],[8.16818,47.46952],[8.17048,47.46928]]}},{"type":"Feature","properties":{"id":"aabach-ag","c":"AG","p":"pacht","q":"derived","k":"river"},"geometry":{"type":"LineString","coordinates":[[8.01735,47.4279],[8.01723,47.42667],[8.01785,47.42612],[8.01916,47.42555],[8.02448,47.42523],[8.02527,47.42562],[8.03031,47.42657],[8.03354,47.42595],[8.03537,47.42589],[8.03623,47.42429],[8.03698,47.42359],[8.03696,47.42333],[8.03735,47.42309],[8.03837,47.4216],[8.03994,47.42081],[8.04121,47.41966],[8.04331,47.41845],[8.04618,47.41468],[8.04751,47.41464],[8.04831,47.41433],[8.04874,47.41358]]}},{"type":"Feature","properties":{"id":"giessen-ag","c":"AG","p":"pacht","q":"derived","k":"river"},"geometry":{"type":"LineString","coordinates":[[8.08997,47.40896],[8.09123,47.40839],[8.09371,47.40829],[8.09668,47.40919],[8.09777,47.40984],[8.09974,47.41028],[8.10172,47.41123],[8.1046,47.41126],[8.10668,47.4099],[8.1076,47.40952],[8.11043,47.40932],[8.11415,47.40944],[8.12239,47.40697],[8.12324,47.40692],[8.12443,47.40728],[8.12597,47.40818],[8.12688,47.40829],[8.12754,47.40888],[8.1284,47.40921],[8.13298,47.40858],[8.13454,47.40874],[8.13601,47.4092],[8.13678,47.40952],[8.13738,47.41007],[8.13793,47.41136],[8.1392,47.41284]]}},{"type":"Feature","properties":{"id":"rhein-ag","c":"AG","p":"mixed","q":"derived","k":"river"},"geometry":{"type":"MultiLineString","coordinates":[[[7.73781,47.54315],[7.73294,47.54277],[7.72868,47.54265],[7.72119,47.54203]],[[7.79479,47.55717],[7.79321,47.55671],[7.78811,47.55464],[7.78115,47.55295]],[[7.83757,47.58314],[7.83547,47.58424],[7.83374,47.5858],[7.83007,47.5872],[7.82738,47.58773],[7.82369,47.58799],[7.82156,47.5879],[7.81957,47.58733],[7.81793,47.58587],[7.81524,47.58145],[7.81389,47.57839],[7.81234,47.57147]],[[7.87061,47.58872],[7.8669,47.58866]],[[7.88592,47.58857],[7.88303,47.58867]],[[7.89339,47.58684],[7.89121,47.58778]],[[7.90795,47.5567],[7.90722,47.55863],[7.90718,47.56094],[7.90792,47.56238],[7.91081,47.56563],[7.91138,47.56729],[7.91143,47.56866],[7.91098,47.57053],[7.9099,47.57242],[7.90626,47.57754],[7.90327,47.58073]],[[7.96755,47.55645],[7.96123,47.55821],[7.95908,47.55807],[7.95512,47.55644],[7.95226,47.55431],[7.95162,47.55144],[7.95191,47.54944],[7.95135,47.54817],[7.95032,47.54765],[7.94934,47.54605],[7.9476,47.54465],[7.94626,47.54415],[7.94454,47.54398]],[[8.0391,47.55333],[8.03401,47.55263]],[[8.09341,47.55912],[8.09064,47.55791],[8.08953,47.55763],[8.08756,47.55751]],[[8.10066,47.56464],[8.09864,47.56178],[8.09599,47.56022],[8.09432,47.55951]],[[8.1369,47.58424],[8.13579,47.58363],[8.13342,47.58328],[8.12983,47.58377],[8.1285,47.58336],[8.1265,47.58327],[8.12369,47.58336],[8.12004,47.58384],[8.11663,47.58398]],[[8.16931,47.59737],[8.16897,47.59731],[8.16611,47.59458]],[[8.17297,47.60043],[8.16967,47.59757]],[[8.19595,47.61802],[8.19546,47.61778],[8.19218,47.61427],[8.18924,47.61037]],[[8.22406,47.60713],[8.22345,47.60838],[8.22229,47.61338],[8.22069,47.61716],[8.21775,47.61871],[8.21332,47.62025],[8.20964,47.62097],[8.20378,47.6211],[8.19891,47.6195]],[[8.23995,47.61293],[8.23891,47.61297],[8.23791,47.61271],[8.23664,47.61188],[8.23474,47.60983],[8.23164,47.60704],[8.23016,47.60597],[8.22886,47.60546],[8.22789,47.60533],[8.22638,47.60552]],[[8.2625,47.61133],[8.26095,47.61423],[8.25966,47.61494],[8.25807,47.61527]],[[8.2974,47.60583],[8.2966,47.6066],[8.29298,47.60867],[8.28726,47.61067],[8.28215,47.61152],[8.27723,47.61172]],[[8.35142,47.57065],[8.34676,47.57088],[8.34105,47.57048],[8.33887,47.57018],[8.33083,47.57082],[8.32821,47.57129],[8.32615,47.57203]],[[8.36059,47.56978],[8.35432,47.57044]],[[8.37839,47.56693],[8.377,47.5673]],[[8.39143,47.57442],[8.38973,47.57318],[8.38838,47.57182],[8.38571,47.56697],[8.38437,47.56592],[8.3827,47.56566],[8.38212,47.56582]]]}},{"type":"Feature","properties":{"id":"woelflinswiler-bach-ag","c":"AG","p":"pacht","q":"derived","k":"river"},"geometry":{"type":"LineString","coordinates":[[7.99115,47.4319],[7.99377,47.43295],[7.99431,47.43352],[7.99417,47.43398],[7.99504,47.43446],[7.99558,47.43531],[7.99538,47.43588],[7.99704,47.43675],[7.99921,47.4386],[7.99971,47.43878],[8.00178,47.43894],[8.00289,47.44019],[8.00351,47.44041],[8.00399,47.44123],[8.00345,47.44213],[8.00356,47.4428],[8.00428,47.4435],[8.00538,47.44395],[8.00549,47.44518],[8.00613,47.44622],[8.00616,47.44675],[8.00687,47.44757],[8.00528,47.45265],[8.00308,47.4542],[8.00258,47.4542],[8.0022,47.45449],[8.00173,47.45522],[8.00161,47.45596],[8.00066,47.45714],[8.00058,47.45796],[8.00013,47.45871],[7.99653,47.46292],[7.99624,47.46402],[7.9955,47.46453],[7.99481,47.46466],[7.99467,47.46509],[7.99367,47.46551],[7.99373,47.46593],[7.99348,47.46609],[7.99362,47.46658],[7.99271,47.46727],[7.99249,47.46791],[7.9916,47.46817],[7.99184,47.46853],[7.99142,47.4689],[7.99124,47.47015],[7.99027,47.47081],[7.99025,47.47145],[7.98976,47.47185],[7.98989,47.47212],[7.99074,47.47234],[7.99061,47.47298],[7.99023,47.47344],[7.99016,47.47483],[7.99047,47.47571],[7.99029,47.47591],[7.99037,47.47634],[7.99074,47.47642],[7.99109,47.47688],[7.99075,47.47722],[7.99112,47.4775],[7.99104,47.47815],[7.99138,47.47862],[7.99134,47.4793],[7.99184,47.48054],[7.99106,47.48187],[7.9902,47.48271],[7.99065,47.48392],[7.99112,47.48409],[7.99125,47.48533],[7.99107,47.48549],[7.99043,47.4854],[7.99055,47.48571],[7.99023,47.48619]]}},{"type":"Feature","properties":{"id":"kaisterbach-ag","c":"AG","p":"pacht","q":"derived","k":"river"},"geometry":{"type":"LineString","coordinates":[[8.07701,47.51432],[8.07411,47.51477],[8.07255,47.51568],[8.07086,47.51579],[8.07014,47.51561],[8.06918,47.51564],[8.0634,47.51752],[8.0618,47.51771],[8.06092,47.51806],[8.0584,47.51818],[8.05596,47.51926],[8.05504,47.51985],[8.05438,47.52061],[8.05279,47.52157],[8.05294,47.52167],[8.05175,47.52423],[8.05197,47.52446],[8.05183,47.52499],[8.05109,47.52622],[8.05107,47.52687],[8.04981,47.52789],[8.05008,47.52836],[8.05006,47.52922],[8.04943,47.52933],[8.04877,47.53006],[8.04856,47.53101],[8.04878,47.53129],[8.04734,47.53314],[8.0452,47.53421],[8.04548,47.53472],[8.04508,47.53515],[8.04521,47.53598],[8.04484,47.53701],[8.04535,47.53786],[8.0453,47.53844],[8.04464,47.53884],[8.0439,47.53884],[8.04208,47.54027],[8.04173,47.54116],[8.0421,47.5415],[8.04165,47.54191],[8.04128,47.54278],[8.04063,47.54345],[8.03973,47.54357],[8.03928,47.54388],[8.03921,47.54418],[8.03965,47.54477],[8.03901,47.54544],[8.03987,47.54595],[8.0397,47.54629],[8.03923,47.54636],[8.03923,47.54679],[8.03855,47.54734],[8.0385,47.5478],[8.03817,47.54789],[8.0386,47.5492],[8.03748,47.54947],[8.03672,47.54913],[8.03547,47.54906],[8.03477,47.54938],[8.0347,47.55027],[8.03549,47.55078],[8.03587,47.55165],[8.03561,47.55187]]}},{"type":"Feature","properties":{"id":"effingerbach-ag","c":"AG","p":"pacht","q":"derived","k":"river"},"geometry":{"type":"LineString","coordinates":[[8.12315,47.4991],[8.12093,47.49509],[8.12066,47.49397],[8.11972,47.49382],[8.11926,47.49328],[8.11826,47.49292],[8.1175,47.49312],[8.11676,47.49269],[8.11575,47.49254],[8.11471,47.49202],[8.11365,47.49098],[8.11115,47.49023],[8.10843,47.48976],[8.10512,47.48943],[8.10423,47.48957],[8.1023,47.48941],[8.10074,47.48957],[8.09892,47.48951],[8.09796,47.48987],[8.09806,47.49028],[8.09637,47.4903],[8.09472,47.49068],[8.09112,47.49234],[8.08957,47.49263],[8.08826,47.49372],[8.08412,47.49454],[8.08399,47.49428],[8.08248,47.49404],[8.08114,47.49428],[8.08021,47.4941]]}},{"type":"Feature","properties":{"id":"sulzer-bach-ag","c":"AG","p":"pacht","q":"derived","k":"river"},"geometry":{"type":"LineString","coordinates":[[8.1223,47.5161],[8.12065,47.51716],[8.11936,47.51747],[8.11796,47.51926],[8.1169,47.52],[8.11387,47.52017],[8.11116,47.51978],[8.11042,47.51989],[8.10937,47.51971],[8.10814,47.52014],[8.10753,47.51985],[8.10539,47.52037],[8.10478,47.52079],[8.10294,47.5214],[8.102,47.52222],[8.10079,47.52287],[8.0991,47.52506],[8.09719,47.52663],[8.09654,47.52774],[8.09599,47.52821],[8.0958,47.52932],[8.09496,47.53063],[8.09489,47.53155],[8.09444,47.53199],[8.09546,47.53427],[8.09616,47.53458],[8.09592,47.53501],[8.09679,47.5358],[8.09676,47.53637],[8.09715,47.53637],[8.09771,47.53671],[8.09761,47.53707],[8.09794,47.53743],[8.0988,47.53764],[8.09915,47.53851],[8.09704,47.54309],[8.09741,47.54384],[8.09677,47.54493],[8.09615,47.54527],[8.09561,47.54513],[8.09525,47.54482],[8.09439,47.54503],[8.09348,47.54639],[8.09267,47.54662],[8.09196,47.54713],[8.09064,47.54868],[8.08971,47.5494],[8.08942,47.55011],[8.08883,47.55039],[8.08878,47.55078],[8.08957,47.55097],[8.08962,47.55141],[8.08933,47.55145],[8.0892,47.55192],[8.08979,47.5525],[8.08995,47.55372],[8.08988,47.55401],[8.08939,47.55404],[8.0896,47.55499],[8.08898,47.55534],[8.08885,47.55598],[8.0882,47.55675]]}},{"type":"Feature","properties":{"id":"mettauer-bach-ag","c":"AG","p":"pacht","q":"derived","k":"river"},"geometry":{"type":"LineString","coordinates":[[8.13837,47.53067],[8.1376,47.53172],[8.13787,47.53187],[8.13771,47.53288],[8.13726,47.53296],[8.13721,47.53321],[8.13757,47.5347],[8.13719,47.53817],[8.13636,47.53975],[8.13567,47.54012],[8.13541,47.54075],[8.13453,47.54172],[8.13493,47.54236],[8.13394,47.54306],[8.13396,47.54427],[8.13363,47.54466],[8.13307,47.54489],[8.13314,47.54527],[8.13253,47.54604],[8.13254,47.54657],[8.13307,47.54728],[8.13275,47.54779],[8.13366,47.54858],[8.13344,47.54939],[8.13305,47.54983],[8.13352,47.55023],[8.13271,47.55057],[8.13296,47.55117],[8.13286,47.5519],[8.13342,47.55219],[8.13371,47.55282],[8.13425,47.55311],[8.13425,47.55388],[8.13464,47.55461],[8.13421,47.55512],[8.13462,47.55569],[8.13409,47.55674],[8.13442,47.55761],[8.13334,47.55854],[8.13321,47.56016]]}},{"type":"Feature","properties":{"id":"chruezlibach-ag","c":"AG","p":"pacht","q":"derived","k":"river"},"geometry":{"type":"LineString","coordinates":[[8.35216,47.54006],[8.34965,47.54243],[8.35044,47.54327],[8.35133,47.54339],[8.35232,47.54388],[8.35504,47.5459],[8.35531,47.54686],[8.35468,47.54809],[8.35403,47.54876],[8.35033,47.55033],[8.34863,47.55064],[8.34671,47.55139],[8.34485,47.55164],[8.34352,47.55203],[8.34331,47.55223],[8.34081,47.55239],[8.33977,47.55303],[8.33821,47.55324],[8.33558,47.55393],[8.33407,47.5538],[8.33294,47.55443],[8.33099,47.55495],[8.32886,47.55505],[8.32773,47.55534],[8.32591,47.55697],[8.32523,47.55733],[8.32501,47.5579],[8.32458,47.55801],[8.32438,47.55845],[8.32373,47.55883],[8.32382,47.55914],[8.32307,47.55992],[8.32246,47.56009],[8.32141,47.56135],[8.3211,47.56142],[8.32109,47.56175],[8.32073,47.56205],[8.32095,47.56236],[8.32057,47.56317],[8.32076,47.56376],[8.32023,47.56447],[8.32063,47.56677],[8.32021,47.56724],[8.32037,47.56814],[8.32181,47.56953],[8.3219,47.57017],[8.32273,47.57041],[8.32349,47.57035],[8.32418,47.57088],[8.32569,47.57157]]}},{"type":"Feature","properties":{"id":"gottesgraben-ag","c":"AG","p":"pacht","q":"derived","k":"river"},"geometry":{"type":"MultiLineString","coordinates":[[[8.33702,47.46665],[8.33657,47.46665],[8.33621,47.46635],[8.33396,47.46656],[8.33303,47.46696],[8.33111,47.46725],[8.32914,47.46688],[8.32674,47.46736],[8.32312,47.46871],[8.32055,47.46934],[8.32005,47.46917],[8.31795,47.46733],[8.31779,47.46647],[8.31674,47.46506],[8.30924,47.46401]],[[8.33929,47.46675],[8.33746,47.46666]],[[8.36423,47.47016],[8.36162,47.46955],[8.36033,47.46968],[8.35927,47.46953],[8.35814,47.46994],[8.35525,47.46934],[8.35522,47.4692],[8.35108,47.4691],[8.35048,47.46892],[8.35029,47.46834],[8.34996,47.46819],[8.34628,47.46818],[8.34331,47.46756],[8.34277,47.4678],[8.34131,47.46771],[8.34071,47.46718],[8.33952,47.46675]]]}},{"type":"Feature","properties":{"id":"dorfbach-spreitenbach-ag","c":"AG","p":"pacht","q":"derived","k":"river"},"geometry":{"type":"LineString","coordinates":[[8.35449,47.40412],[8.35449,47.40472],[8.35398,47.40556],[8.35378,47.40829],[8.35485,47.41098],[8.35571,47.41164],[8.35613,47.41231],[8.35665,47.4141],[8.35654,47.41472],[8.35689,47.41495],[8.35685,47.41559],[8.35768,47.41667],[8.35829,47.41699],[8.35886,47.41704],[8.35929,47.41741],[8.36141,47.41796],[8.36295,47.41775],[8.36679,47.41814],[8.36852,47.41785],[8.37024,47.41785],[8.3719,47.41729],[8.37332,47.41713],[8.37568,47.41778],[8.37684,47.4184],[8.37804,47.41862],[8.38007,47.41962],[8.38067,47.41936],[8.38135,47.4195],[8.38487,47.41778],[8.38926,47.41942],[8.39021,47.42028],[8.39015,47.42273],[8.38888,47.42429],[8.38875,47.42547],[8.388,47.42646],[8.3875,47.4277]]}},{"type":"Feature","properties":{"id":"guntenbach-ag","c":"AG","p":"pacht","q":"derived","k":"river"},"geometry":{"type":"MultiLineString","coordinates":[[[8.18543,47.55351],[8.18579,47.55426],[8.18652,47.55484],[8.18767,47.55538],[8.19175,47.55662],[8.1921,47.558],[8.19172,47.55843],[8.18992,47.55923],[8.18903,47.5599],[8.18976,47.56102],[8.19039,47.56095],[8.19191,47.56307],[8.19461,47.56443],[8.19609,47.5645],[8.19691,47.5649],[8.19752,47.56499],[8.19837,47.56561],[8.19891,47.56555],[8.19964,47.56603],[8.19989,47.56735],[8.19941,47.56766],[8.19964,47.56838],[8.19922,47.56942],[8.19923,47.57063],[8.19941,47.57108],[8.19999,47.57157],[8.19943,47.57272],[8.19985,47.57357],[8.19985,47.57446],[8.20019,47.57482],[8.19917,47.57598],[8.19967,47.57711],[8.20109,47.5781],[8.20222,47.57835],[8.20289,47.57897],[8.20403,47.57934],[8.20854,47.57986],[8.20935,47.57953],[8.21068,47.57949],[8.21109,47.57919],[8.21166,47.5791],[8.21373,47.57921]],[[8.21424,47.57948],[8.21456,47.57959],[8.21873,47.57908],[8.22043,47.58135],[8.22246,47.58326],[8.22601,47.58458],[8.22927,47.58553],[8.2295,47.58576],[8.22934,47.58616]]]}},{"type":"Feature","properties":{"id":"limmat-ag","c":"AG","p":"mixed","q":"derived","k":"river"},"geometry":{"type":"MultiLineString","coordinates":[[[8.2414,47.50156],[8.23741,47.50455],[8.23559,47.50545],[8.23453,47.50621]],[[8.23728,47.50198],[8.23624,47.50202]],[[8.24193,47.49685],[8.23982,47.49875],[8.23873,47.50099],[8.23728,47.50198]],[[8.2414,47.50156],[8.23984,47.50183],[8.23728,47.50198]],[[8.24193,47.49685],[8.2433,47.49955],[8.24273,47.50097],[8.2414,47.50156]],[[8.37459,47.43207],[8.37446,47.43301],[8.37369,47.43425],[8.3719,47.43493],[8.36996,47.43485],[8.36652,47.43274],[8.36305,47.43223],[8.36178,47.4324],[8.35699,47.43469],[8.35487,47.43503],[8.35254,47.43503],[8.34874,47.43654],[8.34661,47.43701],[8.34173,47.43958],[8.3356,47.4457],[8.33458,47.44809],[8.33397,47.4512],[8.32803,47.45714],[8.32439,47.45762],[8.32146,47.45678],[8.31751,47.4551],[8.31405,47.45399],[8.31272,47.45412],[8.31194,47.45467],[8.31175,47.45572],[8.31459,47.45797],[8.31462,47.45861],[8.31397,47.45931],[8.3103,47.46021],[8.30912,47.46161],[8.30878,47.4629],[8.30899,47.46407],[8.30805,47.46709],[8.3087,47.4683],[8.31002,47.46979],[8.3108,47.47127],[8.30987,47.47587],[8.31064,47.4769],[8.31285,47.47856],[8.31451,47.48039],[8.31478,47.48079],[8.31472,47.48124],[8.31416,47.48165],[8.31246,47.48193],[8.30997,47.48192],[8.30756,47.48228],[8.30178,47.48227],[8.30084,47.48262],[8.29937,47.48388],[8.29737,47.48466],[8.29444,47.4851],[8.29243,47.48489],[8.29045,47.48444],[8.28871,47.48441],[8.28435,47.48548],[8.28226,47.48551],[8.28039,47.485],[8.27895,47.48379],[8.27801,47.48337],[8.27652,47.48305],[8.27186,47.48351],[8.27087,47.48395],[8.27033,47.48556],[8.27029,47.48718],[8.26948,47.48806],[8.26769,47.48848],[8.26468,47.48841],[8.26293,47.4889],[8.25912,47.49054],[8.25757,47.49173],[8.25677,47.49384],[8.25711,47.49573],[8.25696,47.49662],[8.25645,47.49694],[8.2553,47.49703],[8.25386,47.49682],[8.25092,47.49512],[8.24903,47.4944],[8.24768,47.49411],[8.24567,47.49399],[8.24381,47.49442],[8.24236,47.4952],[8.24171,47.49651],[8.24193,47.49685]]]}},{"type":"Feature","properties":{"id":"stadtbach-ag","c":"AG","p":"pacht","q":"derived","k":"river"},"geometry":{"type":"LineString","coordinates":[[8.21362,47.34316],[8.21313,47.34359],[8.2129,47.34426],[8.21219,47.34469],[8.21141,47.34673],[8.21057,47.34742],[8.2099,47.34951],[8.20864,47.3506],[8.20758,47.35108],[8.20633,47.35127],[8.20501,47.35124],[8.20443,47.35142],[8.20367,47.35194],[8.20355,47.35265],[8.20284,47.35331],[8.20098,47.35463],[8.20074,47.35461],[8.19967,47.35568],[8.19904,47.35772],[8.19863,47.35814],[8.19926,47.36002],[8.1975,47.36432],[8.19802,47.36542],[8.19836,47.36547],[8.19883,47.36635],[8.19821,47.36837],[8.19762,47.36874],[8.19709,47.3688],[8.19687,47.36945],[8.19381,47.36914],[8.19125,47.37005],[8.188,47.37378],[8.1853,47.37546],[8.1817,47.37879],[8.18042,47.37902],[8.18019,47.37986],[8.17951,47.37985],[8.17853,47.38034],[8.17908,47.38176],[8.1769,47.38261],[8.17578,47.38286]]}},{"type":"Feature","properties":{"id":"aare-ag","c":"AG","p":"mixed","q":"derived","k":"river"},"geometry":{"type":"MultiLineString","coordinates":[[[7.83331,47.26798],[7.84237,47.27493],[7.84376,47.27698]],[[7.84431,47.27933],[7.84451,47.28101],[7.84495,47.28214],[7.84615,47.2834]],[[7.84898,47.28786],[7.85144,47.28979],[7.85275,47.29129],[7.85365,47.29269],[7.85457,47.29551],[7.85833,47.30061],[7.8599,47.3047],[7.86042,47.30544],[7.8621,47.30678]],[[7.87541,47.31196],[7.87969,47.31171]],[[7.89024,47.31276],[7.89097,47.31511]],[[7.89703,47.32184],[7.89629,47.32304],[7.89609,47.32457],[7.89705,47.32796],[7.90307,47.33547],[7.90444,47.33683],[7.9071,47.33868],[7.908,47.33958],[7.90831,47.34063],[7.90787,47.34166]],[[7.8983,47.32008],[7.89817,47.32023]],[[8.02746,47.39321],[8.03111,47.39313],[8.03483,47.39335],[8.0383,47.39413],[8.0398,47.39505],[8.04885,47.3964],[8.05002,47.39684],[8.05204,47.39821],[8.05337,47.39963],[8.05539,47.40309],[8.05667,47.40421],[8.05863,47.40481],[8.06263,47.40459],[8.06426,47.40496],[8.06553,47.4058],[8.06701,47.40892],[8.07102,47.41041],[8.07271,47.41068],[8.07415,47.41063],[8.07565,47.41052],[8.07888,47.40994],[8.08127,47.41024],[8.08427,47.41163],[8.08525,47.41189],[8.09647,47.41221],[8.10612,47.41225],[8.11139,47.41171],[8.11527,47.41087],[8.11916,47.4106],[8.12483,47.41077],[8.12952,47.41149],[8.13133,47.41206],[8.13565,47.41268],[8.13834,47.41266],[8.14289,47.41359],[8.14585,47.41393],[8.14687,47.41448],[8.14968,47.41459],[8.15691,47.41556],[8.15952,47.41638],[8.16112,47.41742],[8.16233,47.41911],[8.16295,47.42086],[8.16247,47.42425],[8.16263,47.42858],[8.1621,47.43121],[8.16204,47.43312],[8.16264,47.43454],[8.16546,47.43929],[8.16584,47.44166],[8.16584,47.44232],[8.16431,47.44504],[8.16374,47.44827],[8.16311,47.45008],[8.16352,47.45108],[8.16369,47.45416],[8.16335,47.45647],[8.16273,47.45809],[8.16231,47.46123],[8.16271,47.46246],[8.16358,47.46354],[8.16511,47.46474],[8.16605,47.46512],[8.16695,47.46585],[8.17412,47.4674],[8.17598,47.46796],[8.17924,47.46973],[8.18043,47.4712],[8.18147,47.47155],[8.18356,47.47189],[8.18907,47.47103],[8.1904,47.47136],[8.19206,47.47248],[8.19299,47.47519],[8.19371,47.47646],[8.19366,47.47754],[8.19239,47.48138],[8.19303,47.48224],[8.19379,47.48266],[8.19878,47.48389],[8.19983,47.48456],[8.20135,47.48516],[8.20502,47.48616],[8.2098,47.48586],[8.21413,47.48509],[8.21967,47.4848],[8.22379,47.48559],[8.22789,47.48704],[8.23261,47.48957],[8.23628,47.49229],[8.23743,47.49365],[8.23726,47.49584],[8.23667,47.49763],[8.23487,47.49913],[8.23455,47.50091],[8.23531,47.50294],[8.23447,47.50462],[8.23459,47.50789],[8.23298,47.51253],[8.23353,47.51731],[8.23253,47.52099],[8.22979,47.52526],[8.22756,47.52944],[8.22486,47.53674],[8.22508,47.53781],[8.22655,47.53984],[8.22958,47.54203],[8.23077,47.54347],[8.23085,47.54425],[8.22933,47.54708],[8.22644,47.54925],[8.22553,47.55059],[8.22506,47.55252],[8.226,47.55429],[8.22872,47.55705],[8.23221,47.55824],[8.24765,47.56027],[8.24967,47.56103],[8.25148,47.56208],[8.25283,47.56428],[8.25387,47.56724],[8.25408,47.5692],[8.25388,47.57112],[8.2533,47.57239],[8.25264,47.57308]],[[8.2241,47.59431],[8.22117,47.59705],[8.22082,47.59817],[8.22135,47.60016],[8.22406,47.60713]]]}},{"type":"Feature","properties":{"id":"reuss-ag","c":"AG","p":"mixed","q":"derived","k":"river"},"geometry":{"type":"MultiLineString","coordinates":[[[8.34588,47.34344],[8.34535,47.34664],[8.34497,47.34761],[8.34406,47.34879],[8.34202,47.34991],[8.3386,47.35034],[8.3353,47.3514],[8.33402,47.35211],[8.33313,47.35348],[8.33318,47.35466],[8.3336,47.35545],[8.33481,47.35633],[8.33574,47.35661],[8.33782,47.35656],[8.34,47.35599],[8.34171,47.35508],[8.34384,47.35292],[8.34478,47.3525],[8.34561,47.35248],[8.34612,47.35272],[8.34679,47.35332],[8.34707,47.35441],[8.3469,47.35523],[8.34501,47.3588],[8.34289,47.36149],[8.3395,47.36362],[8.33588,47.36491],[8.33491,47.36565],[8.33441,47.36709],[8.33539,47.3701],[8.33512,47.37152],[8.33468,47.37182],[8.3336,47.37209],[8.33254,47.37204],[8.33112,47.37159],[8.33036,47.37085],[8.32994,47.36837],[8.32861,47.36763],[8.32724,47.36743],[8.32641,47.36752],[8.32509,47.36795],[8.3244,47.36889],[8.32453,47.37234],[8.32488,47.37312],[8.32544,47.3736],[8.32775,47.37477],[8.32852,47.37538],[8.32875,47.37636],[8.32786,47.37737],[8.32631,47.37759],[8.31892,47.37528],[8.31757,47.37501],[8.31457,47.37499],[8.31206,47.37531],[8.30997,47.37576],[8.30746,47.3767],[8.30649,47.37753],[8.30558,47.37939],[8.306,47.38079],[8.3077,47.38296],[8.30799,47.38375],[8.30717,47.38565],[8.30741,47.38676],[8.30719,47.38847],[8.30728,47.39182],[8.30697,47.39324],[8.30654,47.39376],[8.30538,47.39411],[8.3007,47.39409],[8.29894,47.39479],[8.29822,47.39575],[8.29787,47.39785],[8.29635,47.39899],[8.29375,47.39996],[8.29125,47.40114],[8.29013,47.40207],[8.28689,47.40543],[8.28656,47.40605],[8.28622,47.40798],[8.28562,47.40892],[8.27839,47.41464],[8.2767,47.41734],[8.27596,47.41807],[8.27122,47.42072],[8.26857,47.42195],[8.26646,47.42238],[8.26396,47.42206],[8.26274,47.42223],[8.26244,47.4227],[8.26251,47.42476],[8.26194,47.42579],[8.26164,47.42808],[8.26061,47.42934],[8.25839,47.43008],[8.25553,47.43056],[8.25337,47.43064],[8.25116,47.43028],[8.24995,47.43028],[8.24912,47.43053],[8.24848,47.43103],[8.24781,47.43211],[8.24783,47.43283],[8.24926,47.43627],[8.24868,47.43868],[8.24944,47.43982],[8.25285,47.44146],[8.25488,47.44333],[8.25606,47.44541],[8.25655,47.44738],[8.25761,47.44894],[8.25724,47.45024],[8.25157,47.45548],[8.24873,47.45686],[8.24658,47.45828],[8.24213,47.45941],[8.23892,47.45952],[8.23216,47.45883],[8.22797,47.45917],[8.22693,47.46013],[8.22727,47.46101],[8.23088,47.46261],[8.23302,47.46558],[8.2328,47.46752],[8.23203,47.46864],[8.23318,47.47116],[8.23292,47.4726],[8.23158,47.47377],[8.22912,47.47662],[8.22733,47.4779],[8.22456,47.47913],[8.22423,47.48009],[8.22474,47.48069],[8.22604,47.48111],[8.22776,47.48105],[8.2309,47.4803],[8.23245,47.48019],[8.23365,47.48067],[8.23577,47.48374],[8.2401,47.48694],[8.24027,47.48772],[8.2397,47.48896],[8.23806,47.49042],[8.23771,47.49114],[8.23743,47.49365]],[[8.40051,47.2743],[8.39867,47.27526],[8.39592,47.27711],[8.39485,47.2782],[8.39417,47.27946],[8.39292,47.2837],[8.39204,47.28579],[8.38996,47.2887],[8.38567,47.29269],[8.38339,47.29423],[8.37837,47.29677],[8.37673,47.29804],[8.37588,47.29913],[8.37497,47.30306],[8.37596,47.30823],[8.37745,47.31218],[8.37752,47.3133],[8.37676,47.31468],[8.37368,47.31795],[8.3733,47.31905]],[[8.40143,47.26831],[8.4024,47.27103],[8.40219,47.27301]],[[8.40218,47.20153],[8.40141,47.20604],[8.40045,47.20876]],[[8.40099,47.21302],[8.40087,47.21522],[8.40035,47.21606],[8.3974,47.21847],[8.39661,47.21954],[8.39497,47.22509],[8.39496,47.22678],[8.39634,47.22948],[8.39806,47.23138],[8.4021,47.23418],[8.40472,47.23575],[8.40605,47.23705],[8.40643,47.23789],[8.40677,47.24078],[8.40735,47.24163],[8.41012,47.24437],[8.41091,47.24561],[8.41092,47.24705],[8.41021,47.24822]],[[8.41452,47.16673],[8.41163,47.17367],[8.41103,47.17436],[8.40935,47.17542],[8.40258,47.17671]],[[8.40524,47.13751],[8.40917,47.13871],[8.41224,47.14059]],[[8.41535,47.16201],[8.41525,47.1644]]]}},{"type":"Feature","properties":{"id":"violenbach-ag","c":"AG","p":"pacht","q":"derived","k":"river"},"geometry":{"type":"MultiLineString","coordinates":[[[7.73349,47.53195],[7.7336,47.53241],[7.73305,47.5328],[7.73253,47.53264],[7.73159,47.53278],[7.73093,47.53249],[7.73054,47.53262],[7.72992,47.53244],[7.72859,47.53326],[7.72713,47.53299],[7.72656,47.53348],[7.72589,47.53353],[7.72555,47.534],[7.72577,47.53424],[7.72573,47.53505],[7.72478,47.53543],[7.72445,47.5363],[7.72362,47.53672],[7.72302,47.53677],[7.72236,47.53598],[7.72137,47.53609],[7.72108,47.53589],[7.72093,47.53531],[7.72033,47.53538],[7.7202,47.53596],[7.71952,47.53621],[7.71882,47.53606]],[[7.75499,47.52537],[7.75395,47.52543],[7.75259,47.52579],[7.75077,47.52554],[7.74995,47.52519]],[[7.78915,47.51067],[7.78769,47.51379],[7.78782,47.51411],[7.7902,47.51606],[7.79021,47.51674],[7.78979,47.51773],[7.79013,47.51865],[7.78997,47.51897],[7.78643,47.52059],[7.78513,47.52057],[7.78418,47.52028],[7.7829,47.52023],[7.78195,47.52058],[7.78198,47.52078],[7.78132,47.52106],[7.78015,47.52125],[7.77827,47.5219],[7.77451,47.52264],[7.77198,47.52334],[7.76979,47.52355]]]}},{"type":"Feature","properties":{"id":"bruggbach-ag","c":"AG","p":"pacht","q":"derived","k":"river"},"geometry":{"type":"MultiLineString","coordinates":[[[7.95947,47.45493],[7.96004,47.45506],[7.96101,47.45564],[7.96099,47.45594],[7.96062,47.45619],[7.96058,47.45779],[7.96303,47.45971],[7.96361,47.45979],[7.96425,47.45962]],[[7.96856,47.46283],[7.96893,47.46281],[7.97028,47.464],[7.97112,47.46527],[7.97048,47.4655],[7.97068,47.46668],[7.96983,47.46781],[7.96992,47.4686],[7.96925,47.46977],[7.96968,47.47093],[7.96945,47.47167],[7.96878,47.4721],[7.96826,47.47352],[7.96798,47.47371],[7.96794,47.47429],[7.96847,47.47427],[7.96867,47.47461],[7.96854,47.47569],[7.96905,47.47594],[7.96957,47.47596],[7.9697,47.47631],[7.97044,47.47666],[7.97056,47.47713],[7.97199,47.47751],[7.97262,47.47803],[7.97441,47.47861],[7.97443,47.47918],[7.97501,47.47926],[7.97667,47.48022],[7.97773,47.48041],[7.98207,47.48235],[7.98291,47.48308],[7.98346,47.48303],[7.98395,47.48351],[7.98464,47.48367],[7.9848,47.48413],[7.98563,47.4841],[7.98619,47.48451],[7.98714,47.48457],[7.9885,47.48494],[7.98873,47.48555],[7.98936,47.48566],[7.98979,47.4861],[7.99075,47.48638],[7.99099,47.48667],[7.99094,47.48717],[7.99154,47.48785],[7.99298,47.48814],[7.9947,47.48922],[7.99648,47.49087],[7.99658,47.49211],[7.99752,47.49247],[7.99836,47.4934],[7.99899,47.49347],[8.00105,47.4943],[8.00204,47.49408],[8.00374,47.49436],[8.00379,47.49484],[8.00418,47.49529],[8.00406,47.49611],[8.00443,47.49644],[8.00557,47.49666],[8.00583,47.49693],[8.00581,47.49778],[8.00691,47.49848],[8.00642,47.49932],[8.00568,47.49943],[8.005,47.50059],[8.0052,47.50123],[8.00595,47.50162],[8.00645,47.50235],[8.00842,47.50293],[8.00926,47.50378],[8.00935,47.50437],[8.01106,47.5044],[8.01184,47.50482],[8.01314,47.50455],[8.01361,47.50461],[8.0161,47.50556],[8.01676,47.50666],[8.01826,47.50726],[8.01922,47.50728],[8.01997,47.50808],[8.0204,47.50996]]]}},{"type":"Feature","properties":{"id":"sisslen-ag","c":"AG","p":"pacht","q":"derived","k":"river"},"geometry":{"type":"LineString","coordinates":[[8.11047,47.45456],[8.1076,47.45558],[8.1071,47.45682],[8.10721,47.45732],[8.10683,47.45766],[8.10709,47.45903],[8.10739,47.45936],[8.10719,47.46066],[8.10677,47.46141],[8.10583,47.46215],[8.1054,47.46322],[8.105,47.46341],[8.10519,47.46385],[8.10478,47.46491],[8.10484,47.46535],[8.10357,47.4668],[8.10374,47.46746],[8.10416,47.46792],[8.10349,47.46937],[8.10431,47.47054],[8.1045,47.47122],[8.10538,47.47186],[8.1053,47.47253],[8.10436,47.47322],[8.10181,47.47582],[8.10097,47.47771],[8.09828,47.47955],[8.09886,47.48002],[8.09779,47.4814],[8.09756,47.4815],[8.0969,47.48123],[8.09599,47.48146],[8.09501,47.48267],[8.09265,47.48379],[8.09111,47.48503],[8.08936,47.48583],[8.08907,47.48691],[8.08752,47.48754],[8.08595,47.48858],[8.08476,47.48884],[8.08457,47.48916],[8.0839,47.48934],[8.08343,47.49008],[8.08274,47.49019],[8.08203,47.49102],[8.08155,47.49204],[8.08119,47.49231],[8.08112,47.49307],[8.08076,47.49359],[8.07979,47.49451],[8.07777,47.49585],[8.07754,47.49686],[8.07558,47.4979],[8.07344,47.49877],[8.07287,47.49886],[8.07106,47.49846],[8.07002,47.49859],[8.06904,47.49823],[8.06807,47.49899],[8.06755,47.499],[8.06719,47.49857],[8.06646,47.4987],[8.0659,47.49893],[8.06566,47.49935],[8.06506,47.49965],[8.06397,47.50078],[8.06138,47.50197],[8.0585,47.50287],[8.05576,47.50337],[8.05312,47.50351],[8.05018,47.50341],[8.04191,47.50235],[8.03842,47.5022],[8.03785,47.5031],[8.03789,47.50371],[8.0376,47.50393],[8.03561,47.50424],[8.03335,47.50383],[8.02776,47.50692],[8.02406,47.50765],[8.02165,47.50851],[8.0204,47.50996],[8.02031,47.51097],[8.01867,47.51311],[8.01871,47.5139],[8.01935,47.51476],[8.0192,47.5156],[8.01726,47.51776],[8.01544,47.51862],[8.01463,47.51977],[8.01268,47.5214],[8.00909,47.52161],[8.00756,47.52221],[8.00476,47.525],[8.00314,47.52583],[8.00246,47.5264],[8.00218,47.5274],[8.00252,47.52871],[8.00207,47.52939],[7.99563,47.53247],[7.99191,47.53562],[7.98752,47.53884],[7.98741,47.53929],[7.98792,47.53949],[7.99066,47.53914],[7.99117,47.53948],[7.99142,47.54008],[7.99097,47.5423],[7.98932,47.5431],[7.98889,47.54363],[7.98885,47.54405],[7.98944,47.5448],[7.98949,47.5452],[7.98809,47.54629],[7.98775,47.54699],[7.98799,47.54801],[7.98976,47.54961],[7.98974,47.55027],[7.98912,47.55073],[7.9874,47.55095],[7.98513,47.55043],[7.98464,47.55057],[7.98424,47.55281],[7.98356,47.55336],[7.98184,47.55407],[7.98054,47.55526]]}},{"type":"Feature","properties":{"id":"etzgerbach-ag","c":"AG","p":"pacht","q":"derived","k":"river"},"geometry":{"type":"LineString","coordinates":[[8.18291,47.5363],[8.18153,47.53654],[8.17995,47.5363],[8.17761,47.53647],[8.17448,47.53623],[8.17315,47.53704],[8.17253,47.53787],[8.17117,47.53873],[8.17131,47.53905],[8.17056,47.54055],[8.16917,47.54172],[8.16896,47.54252],[8.16683,47.5444],[8.16647,47.54523],[8.1652,47.54575],[8.16423,47.54647],[8.16227,47.54676],[8.16161,47.54703],[8.16119,47.54773],[8.1604,47.54818],[8.16008,47.5487],[8.16014,47.54918],[8.15884,47.55066],[8.15709,47.55163],[8.15648,47.55293],[8.15595,47.55291],[8.15652,47.55339],[8.15582,47.55428],[8.1557,47.55522],[8.15532,47.55548],[8.15483,47.55661],[8.15386,47.55746],[8.15385,47.55818],[8.1534,47.55868],[8.15309,47.56001],[8.15149,47.56037],[8.15069,47.56078],[8.15018,47.56131],[8.1495,47.56142],[8.14759,47.56131],[8.14734,47.56064],[8.14591,47.56076],[8.14467,47.56123],[8.14373,47.56134],[8.14201,47.561],[8.14095,47.56113],[8.13925,47.56093],[8.13428,47.56124],[8.1336,47.56099],[8.13321,47.56016],[8.13203,47.56055],[8.13104,47.56062],[8.12879,47.56162],[8.12757,47.56255],[8.12629,47.56275],[8.12523,47.56409],[8.12405,47.56414],[8.12301,47.56446],[8.12139,47.56603],[8.12056,47.56613],[8.11931,47.56539],[8.119,47.56584],[8.11807,47.56626],[8.1176,47.56601],[8.11695,47.56613],[8.1162,47.56677],[8.11512,47.56663],[8.11452,47.56675],[8.11403,47.56762],[8.11271,47.56805],[8.1126,47.56844],[8.11036,47.569],[8.1102,47.56923],[8.11054,47.56967],[8.11052,47.57014],[8.10983,47.57031],[8.10743,47.57156],[8.10705,47.57226],[8.10647,47.57209],[8.10542,47.57214],[8.10471,47.57184],[8.10367,47.57187]]}},{"type":"Feature","properties":{"id":"koellikerbach-ag","c":"AG","p":"pacht","q":"derived","k":"river"},"geometry":{"type":"LineString","coordinates":[[7.98671,47.32324],[7.98952,47.32281],[7.99269,47.32269],[8.0004,47.32349],[8.00487,47.32314],[8.00881,47.32361],[8.00909,47.32316],[8.01036,47.32303],[8.01052,47.32333],[8.0117,47.32347],[8.01376,47.32312],[8.01953,47.32391],[8.02125,47.32444],[8.0241,47.326],[8.02526,47.32862],[8.02568,47.33173],[8.02441,47.3334],[8.02385,47.33885],[8.02581,47.34046],[8.02579,47.34151],[8.02651,47.34431],[8.02847,47.34883],[8.03041,47.35166]]}},{"type":"Feature","properties":{"id":"suhre-ag","c":"AG","p":"pacht","q":"derived","k":"river"},"geometry":{"type":"LineString","coordinates":[[8.05839,47.25107],[8.05717,47.25267],[8.05624,47.25726],[8.05383,47.26238],[8.0517,47.2648],[8.05099,47.26625],[8.04901,47.2729],[8.04749,47.27682],[8.04728,47.27826],[8.0456,47.27985],[8.04529,47.28121],[8.04553,47.28417],[8.04588,47.28458],[8.04696,47.28814],[8.0466,47.28945],[8.04527,47.29045],[8.04452,47.29143],[8.04557,47.29355],[8.04777,47.29464],[8.04885,47.29554],[8.04919,47.29623],[8.04844,47.29765],[8.0483,47.29845],[8.0484,47.30157],[8.04884,47.30199],[8.04885,47.3024],[8.04839,47.3026],[8.04806,47.3031],[8.04732,47.30303],[8.04679,47.30353],[8.04707,47.30428],[8.04782,47.30494],[8.04787,47.30575],[8.04886,47.30668],[8.04913,47.30743],[8.04887,47.30802],[8.04805,47.30877],[8.0477,47.31033],[8.04732,47.31037],[8.0474,47.31108],[8.04712,47.31185],[8.04753,47.31288],[8.04681,47.31321],[8.04663,47.31378],[8.04619,47.31407],[8.04728,47.31469],[8.04786,47.31572],[8.0488,47.31667],[8.04861,47.31722],[8.04802,47.31783],[8.04808,47.3183],[8.05032,47.32013],[8.05058,47.32056],[8.0512,47.32085],[8.05188,47.32187],[8.05177,47.32291],[8.05217,47.32311],[8.0522,47.32347],[8.05304,47.32438],[8.05363,47.32462],[8.05394,47.32586],[8.05469,47.32612],[8.05494,47.32639],[8.05522,47.32873],[8.05474,47.33017],[8.05526,47.33051],[8.05533,47.33105],[8.05499,47.33315],[8.05424,47.33343],[8.054,47.33403],[8.05353,47.33443],[8.05243,47.33472],[8.05197,47.33546],[8.05192,47.33623],[8.05134,47.33708],[8.05043,47.33757],[8.04983,47.33942],[8.04986,47.34054],[8.04948,47.34163],[8.0492,47.34219],[8.04875,47.34228],[8.04837,47.34346],[8.04729,47.34501],[8.04681,47.34675],[8.04686,47.35001],[8.046,47.35187],[8.04609,47.35328],[8.04587,47.35386],[8.04643,47.35507],[8.04624,47.35559],[8.04644,47.35685],[8.04573,47.35908],[8.04622,47.36029],[8.04724,47.36095],[8.05099,47.36501],[8.05278,47.36606],[8.05419,47.36646],[8.06074,47.36728],[8.06377,47.36898],[8.06509,47.36947],[8.07171,47.37043],[8.07921,47.372],[8.08021,47.37283],[8.08212,47.37393],[8.08248,47.37511],[8.08344,47.37609],[8.08363,47.37683],[8.08332,47.37748],[8.08327,47.37913],[8.08418,47.38045],[8.08205,47.38098],[8.08131,47.38174],[8.0811,47.38233],[8.08135,47.38417],[8.08012,47.38726],[8.07946,47.38809],[8.07851,47.38856],[8.0762,47.38847],[8.07559,47.38891],[8.07531,47.38972],[8.07562,47.39185],[8.07546,47.39427],[8.07298,47.3969],[8.07098,47.39814],[8.06977,47.40022],[8.06665,47.40248],[8.0661,47.40603],[8.06587,47.40633]]}},{"type":"Feature","properties":{"id":"wigger-ag","c":"AG","p":"pacht","q":"derived","k":"river"},"geometry":{"type":"LineString","coordinates":[[7.95571,47.25061],[7.95602,47.25207],[7.95548,47.25398],[7.95374,47.25691],[7.95137,47.25977],[7.95102,47.26185],[7.9506,47.26277],[7.94865,47.26493],[7.94723,47.26781],[7.94113,47.27402],[7.93914,47.27672],[7.93665,47.28136],[7.93522,47.2834],[7.93359,47.28756],[7.93252,47.28912],[7.93076,47.29084],[7.93052,47.29174],[7.93051,47.29606],[7.92911,47.29807],[7.92605,47.29987],[7.92431,47.30121],[7.92203,47.30258],[7.91888,47.30588],[7.91739,47.30622],[7.91168,47.30626],[7.90952,47.30683],[7.9082,47.3074],[7.90537,47.30921],[7.89859,47.3118],[7.89683,47.31224],[7.8953,47.31333],[7.89545,47.3144],[7.89521,47.31477],[7.89463,47.31509],[7.89259,47.31546],[7.89197,47.31591]]}},{"type":"Feature","properties":{"id":"moehlinbach-ag","c":"AG","p":"pacht","q":"derived","k":"river"},"geometry":{"type":"LineString","coordinates":[[7.90452,47.48635],[7.90539,47.48614],[7.90617,47.48621],[7.90826,47.48697],[7.90894,47.4877],[7.911,47.48841],[7.91346,47.48967],[7.91391,47.49028],[7.91598,47.49079],[7.91746,47.49183],[7.91753,47.4921],[7.91798,47.49227],[7.91852,47.49319],[7.91922,47.49356],[7.92011,47.49386],[7.92397,47.4944],[7.92881,47.49607],[7.93029,47.49685],[7.93092,47.49734],[7.93205,47.49887],[7.93174,47.50013],[7.93215,47.50115],[7.93176,47.50179],[7.93071,47.50198],[7.92951,47.50259],[7.92872,47.50345],[7.92884,47.50455],[7.92791,47.50491],[7.92712,47.50588],[7.92585,47.5065],[7.92472,47.50817],[7.92459,47.50874],[7.92359,47.5092],[7.92335,47.50958],[7.92353,47.51001],[7.92127,47.51153],[7.91988,47.51211],[7.91842,47.51351],[7.91802,47.51434],[7.91674,47.51548],[7.91462,47.51682],[7.91368,47.51796],[7.91301,47.51816],[7.91155,47.51945],[7.91099,47.51954],[7.90939,47.52026],[7.90708,47.52047],[7.90638,47.52118],[7.9054,47.52151],[7.90484,47.52204],[7.90324,47.5224],[7.90276,47.52323],[7.90137,47.52389],[7.90075,47.52454],[7.8987,47.52514],[7.89653,47.52611],[7.89413,47.52692],[7.89312,47.52778],[7.89272,47.52842],[7.89215,47.53043],[7.89118,47.53065],[7.89062,47.53149],[7.88977,47.53172],[7.88915,47.53212],[7.88795,47.53237],[7.88759,47.53272],[7.88605,47.53285],[7.88525,47.53345],[7.88454,47.53364],[7.88347,47.53382],[7.88174,47.5336],[7.88032,47.53493],[7.87958,47.53508],[7.87971,47.53551],[7.87935,47.53593],[7.87689,47.53665],[7.87597,47.53728],[7.87457,47.53874],[7.87452,47.53924],[7.87368,47.53951],[7.87246,47.54048],[7.87138,47.5424],[7.86868,47.54435],[7.86721,47.5463],[7.86664,47.54671],[7.86602,47.54658],[7.86546,47.54708],[7.86491,47.54702],[7.86448,47.5472],[7.86458,47.54797],[7.86386,47.5484],[7.86405,47.54876],[7.86379,47.54906],[7.86151,47.54967],[7.86116,47.54946],[7.86046,47.5494],[7.85907,47.54989],[7.85729,47.55018],[7.85629,47.55016],[7.8562,47.55034],[7.85526,47.5506],[7.85391,47.55139],[7.85384,47.55158],[7.85423,47.55196],[7.85184,47.55306],[7.84985,47.55372],[7.84939,47.55446],[7.84748,47.55503],[7.84699,47.55589],[7.8444,47.55747],[7.84377,47.55763],[7.84329,47.55832],[7.84346,47.55884],[7.8432,47.55944],[7.84111,47.5609],[7.84014,47.56333],[7.83973,47.56385],[7.83893,47.56427],[7.83862,47.56501],[7.83865,47.56591],[7.83933,47.56712],[7.83896,47.56929],[7.8392,47.57342],[7.83858,47.57633],[7.83809,47.57747],[7.83744,47.58146]]}},{"type":"Feature","properties":{"id":"staffeleggbach-ag","c":"AG","p":"pacht","q":"derived","k":"river"},"geometry":{"type":"LineString","coordinates":[[8.05925,47.43685],[8.05675,47.43791],[8.05697,47.43876],[8.05664,47.43947],[8.05661,47.44037],[8.05595,47.44085],[8.0561,47.44253],[8.05592,47.44321],[8.05488,47.44427],[8.05359,47.4449],[8.054,47.44539],[8.05348,47.44633],[8.05343,47.44739],[8.05237,47.44802],[8.05089,47.44998],[8.05091,47.45019],[8.05163,47.45034],[8.05223,47.45102],[8.05291,47.45109],[8.0528,47.45129],[8.05367,47.45217],[8.05364,47.45298],[8.05401,47.45384],[8.05308,47.45464],[8.05178,47.45506],[8.05095,47.45607],[8.04905,47.45706],[8.04849,47.45819],[8.04856,47.45837],[8.04947,47.45864],[8.0499,47.45929],[8.0497,47.45986],[8.04929,47.46019],[8.04855,47.46028],[8.0483,47.46054],[8.04842,47.46131],[8.04902,47.46224],[8.04983,47.46251],[8.05019,47.46288],[8.05067,47.46391],[8.052,47.46547],[8.05196,47.46598],[8.0524,47.46676],[8.05282,47.46707],[8.05391,47.46907],[8.0543,47.46936],[8.05373,47.46994],[8.05316,47.47125],[8.0525,47.47157],[8.05202,47.4721],[8.05038,47.47441],[8.05033,47.47519],[8.05107,47.47581],[8.05112,47.4761],[8.05125,47.47778],[8.05089,47.47894],[8.0514,47.4795],[8.05148,47.48018],[8.05214,47.4808],[8.0513,47.48166],[8.05147,47.48204],[8.05128,47.48234],[8.05006,47.4831],[8.04991,47.48361],[8.04956,47.48379],[8.04867,47.48368],[8.04807,47.48431],[8.04719,47.48451],[8.04728,47.48494],[8.04679,47.48529],[8.04628,47.48533],[8.04562,47.48509],[8.04508,47.48565],[8.04337,47.48626],[8.0418,47.48797],[8.0408,47.48841],[8.04078,47.48913],[8.03888,47.48937],[8.03878,47.49073],[8.03908,47.49129],[8.03874,47.49207],[8.03905,47.49231],[8.0396,47.49361],[8.04107,47.49363],[8.04116,47.49447],[8.04101,47.4949],[8.0398,47.49587],[8.0393,47.49845],[8.03744,47.49936],[8.03728,47.49996],[8.03749,47.50051],[8.03803,47.50092],[8.03823,47.50236]]}},{"type":"Feature","properties":{"id":"uerke-ag","c":"AG","p":"pacht","q":"derived","k":"river"},"geometry":{"type":"MultiLineString","coordinates":[[[8.00399,47.275],[8.00423,47.27647],[8.00553,47.27806],[8.00538,47.27903],[8.00551,47.2801],[8.00587,47.28076],[8.00565,47.28146],[8.00591,47.28356],[8.00668,47.28494],[8.0085,47.28711],[8.00907,47.28754],[8.01016,47.28794],[8.01077,47.28908],[8.01222,47.28973],[8.01471,47.29163],[8.01611,47.29415],[8.01665,47.29447],[8.01732,47.29588],[8.01788,47.2962],[8.0185,47.29704],[8.01894,47.29833],[8.01998,47.29903],[8.0205,47.29899],[8.0214,47.2994],[8.02204,47.30025],[8.02182,47.30056],[8.02203,47.30078],[8.02194,47.30132],[8.02221,47.30134],[8.02274,47.30215],[8.02395,47.30279],[8.02462,47.30391],[8.02564,47.30695],[8.02551,47.30767],[8.02628,47.30837],[8.02705,47.30956],[8.02645,47.31128],[8.02527,47.31232],[8.02498,47.31467],[8.02255,47.31616],[8.02248,47.31649],[8.02287,47.31757],[8.02603,47.32102],[8.03135,47.32297],[8.03173,47.32498],[8.03143,47.32705],[8.03174,47.32954],[8.03004,47.33125],[8.0297,47.33263],[8.03013,47.33337],[8.02985,47.33496],[8.03124,47.33666],[8.03243,47.33967],[8.03238,47.34089],[8.03354,47.34253],[8.03405,47.34437],[8.03581,47.34595],[8.03661,47.34755],[8.03085,47.351],[8.03041,47.35166],[8.03286,47.35405],[8.03473,47.35547],[8.04646,47.36343],[8.04778,47.36414],[8.05096,47.36506]],[[8.0059,47.2688],[8.00528,47.26928],[8.00538,47.26984],[8.00445,47.27201],[8.00433,47.27258],[8.00493,47.27338],[8.00477,47.27372],[8.00493,47.27413],[8.00455,47.27453]],[[8.0165,47.25849],[8.01686,47.25885],[8.01683,47.25933],[8.01519,47.26046],[8.01478,47.26103]],[[8.01578,47.24417],[8.01574,47.24604],[8.01609,47.24647],[8.01576,47.24771],[8.01694,47.25011]]]}},{"type":"Feature","properties":{"id":"wyna-ag","c":"AG","p":"pacht","q":"derived","k":"river"},"geometry":{"type":"MultiLineString","coordinates":[[[8.17062,47.26182],[8.16797,47.26683],[8.15087,47.27861],[8.15102,47.28327],[8.1508,47.28355],[8.14834,47.28453],[8.14662,47.28451],[8.14345,47.28559],[8.14294,47.28613],[8.14392,47.28731],[8.14357,47.28771],[8.14024,47.28747],[8.13878,47.28852],[8.13762,47.28788],[8.13722,47.28787],[8.13561,47.28818],[8.1348,47.28877],[8.13354,47.28852],[8.13331,47.28903],[8.13262,47.28927],[8.13067,47.28915],[8.13,47.28945],[8.1294,47.29012],[8.12855,47.28966],[8.12804,47.29012],[8.12782,47.29089],[8.12654,47.29216],[8.12638,47.29262],[8.12579,47.29255],[8.12465,47.29382],[8.12345,47.2944],[8.12341,47.29501],[8.12424,47.29533],[8.12434,47.29553],[8.12433,47.29586],[8.12355,47.2968],[8.12223,47.29695],[8.12165,47.29725],[8.12087,47.29707],[8.11975,47.29819],[8.11829,47.29841],[8.11757,47.29877],[8.11731,47.29995],[8.11698,47.30039],[8.11539,47.30089],[8.11493,47.30144],[8.1141,47.30168],[8.11393,47.30228],[8.11414,47.30281],[8.11332,47.3035],[8.1138,47.30405],[8.11375,47.3043],[8.11262,47.30496],[8.11127,47.30529],[8.11161,47.30606],[8.11109,47.30694],[8.1113,47.30732],[8.11136,47.30945],[8.11236,47.31039],[8.11258,47.31145],[8.11189,47.3128],[8.11133,47.31336],[8.11121,47.31419],[8.11223,47.32164],[8.1118,47.32354],[8.11011,47.32787],[8.11025,47.32991],[8.11117,47.33191],[8.10995,47.33271],[8.11113,47.33339],[8.11155,47.3339],[8.11111,47.33419],[8.11022,47.33441],[8.10966,47.33518],[8.10999,47.3364],[8.10977,47.33866],[8.10856,47.33933],[8.10996,47.34135],[8.1107,47.34166],[8.11003,47.34288],[8.11118,47.34393],[8.11208,47.34417],[8.11314,47.34533],[8.11368,47.34725],[8.11439,47.34834],[8.11377,47.34962],[8.11431,47.35049],[8.1112,47.35286],[8.10969,47.35306],[8.10931,47.35358],[8.10946,47.35411],[8.10902,47.3545],[8.10746,47.35444],[8.10615,47.35507],[8.10586,47.3555],[8.10611,47.35634],[8.10591,47.35696],[8.10454,47.3583],[8.10306,47.35921],[8.10315,47.35978],[8.10283,47.36045],[8.10237,47.36063],[8.10139,47.36065],[8.10029,47.3612],[8.09971,47.36175],[8.09752,47.36273],[8.09654,47.36376],[8.09504,47.36414],[8.09424,47.36459],[8.09323,47.36565],[8.09162,47.36642],[8.09143,47.36702],[8.09159,47.36776],[8.09035,47.36901],[8.0912,47.3701],[8.09117,47.37035],[8.0901,47.37102],[8.08826,47.37084],[8.08856,47.37232],[8.08807,47.37332],[8.08785,47.3746],[8.08713,47.37517],[8.08699,47.37557],[8.08782,47.37654],[8.08658,47.37786],[8.085,47.38029],[8.08412,47.38055]],[[8.19306,47.22596],[8.19264,47.22675],[8.19115,47.22754],[8.18976,47.22987],[8.18997,47.23059],[8.1906,47.23083],[8.19092,47.23161],[8.18983,47.23269],[8.18956,47.23419],[8.18975,47.23438],[8.1906,47.23426],[8.19095,47.23469],[8.19095,47.23561],[8.18995,47.23693],[8.18941,47.23718],[8.18944,47.23857],[8.18906,47.23925],[8.18736,47.24047],[8.18703,47.24149],[8.1865,47.24217],[8.18642,47.24264],[8.18706,47.24396],[8.1862,47.24528],[8.18614,47.24613],[8.1855,47.24644],[8.18512,47.24696],[8.18491,47.24854],[8.18444,47.24888],[8.18343,47.25087],[8.18282,47.25139],[8.1828,47.25273],[8.18021,47.25526],[8.17981,47.2565],[8.17944,47.2569],[8.17711,47.25754],[8.17577,47.25832],[8.17175,47.2601],[8.17099,47.26108]]]}},{"type":"Feature","properties":{"id":"zeiherbach-ag","c":"AG","p":"pacht","q":"derived","k":"river"},"geometry":{"type":"LineString","coordinates":[[8.0821,47.45221],[8.08384,47.45352],[8.08539,47.45408],[8.0859,47.4559],[8.08511,47.45789],[8.0839,47.45863],[8.08358,47.45911],[8.08359,47.45952],[8.08463,47.46006],[8.08471,47.46213],[8.08577,47.46363],[8.08533,47.46523],[8.08585,47.46631],[8.08605,47.46755],[8.08585,47.46854],[8.08469,47.46943],[8.08354,47.47073],[8.08371,47.47126],[8.08315,47.47203],[8.08322,47.47302],[8.08393,47.47422],[8.08334,47.47535],[8.08356,47.47579],[8.08327,47.47645],[8.08208,47.47765],[8.08089,47.47808],[8.07912,47.47936],[8.07866,47.47944],[8.07806,47.48038],[8.07676,47.48086],[8.07648,47.48194],[8.07497,47.4829],[8.07459,47.48284],[8.0736,47.48326],[8.0732,47.48388],[8.07351,47.48444],[8.07332,47.48487],[8.07051,47.48818],[8.07053,47.48958],[8.0703,47.48992],[8.06859,47.49043],[8.06804,47.49119],[8.06727,47.49177],[8.06729,47.49209],[8.06603,47.4929],[8.06539,47.49291],[8.06521,47.49395],[8.06453,47.49504],[8.06328,47.49557],[8.06298,47.49628],[8.06204,47.49697],[8.06163,47.49773],[8.06069,47.49862],[8.05859,47.5],[8.058,47.49998],[8.05755,47.50062],[8.05588,47.50125],[8.05503,47.50135],[8.05296,47.50351]]}},{"type":"Feature","properties":{"id":"furtbach-ag","c":"AG","p":"pacht","q":"derived","k":"river"},"geometry":{"type":"LineString","coordinates":[[8.3796,47.4484],[8.37648,47.44775],[8.37315,47.44792],[8.37221,47.4478],[8.3682,47.44687],[8.36631,47.44511],[8.36418,47.44432],[8.36375,47.44276],[8.36329,47.44227],[8.36196,47.44161],[8.36154,47.44119],[8.36101,47.43963],[8.3611,47.43842],[8.36082,47.43818],[8.36015,47.43805],[8.35886,47.43835],[8.35741,47.43825],[8.35668,47.43796],[8.35575,47.43897],[8.35538,47.43905],[8.3546,47.43894],[8.35348,47.43802],[8.35255,47.43796],[8.35193,47.43765],[8.35134,47.4378],[8.35037,47.43749],[8.34909,47.43767],[8.34755,47.4368]]}},{"type":"Feature","properties":{"id":"altbach-ag","c":"AG","p":"pacht","q":"derived","k":"river"},"geometry":{"type":"LineString","coordinates":[[8.32081,47.22483],[8.32118,47.22659],[8.32262,47.2272],[8.32325,47.22777],[8.32336,47.2296],[8.32382,47.23015],[8.32553,47.2311],[8.32657,47.23123],[8.32753,47.23173],[8.32937,47.23223],[8.33002,47.23337],[8.32954,47.23414],[8.32965,47.23549],[8.32929,47.23633],[8.32937,47.23677],[8.33151,47.24016],[8.33492,47.24142],[8.33576,47.24148],[8.33595,47.24168],[8.33755,47.24177],[8.3398,47.24344],[8.3412,47.24383],[8.34076,47.24511],[8.34097,47.24576],[8.34084,47.24646],[8.3405,47.24702],[8.34056,47.24751],[8.34014,47.24774],[8.34019,47.24813]]}},{"type":"Feature","properties":{"id":"dorfbach-gontenschwil-ag","c":"AG","p":"pacht","q":"derived","k":"river"},"geometry":{"type":"LineString","coordinates":[[8.1356,47.24694],[8.13533,47.24771],[8.13544,47.24809],[8.13512,47.24844],[8.13568,47.24964],[8.13558,47.25001],[8.13619,47.25083],[8.13722,47.25152],[8.1385,47.25354],[8.13852,47.25399],[8.13808,47.25481],[8.13825,47.25587],[8.13869,47.25657],[8.13854,47.25699],[8.13951,47.25837],[8.14102,47.26151],[8.14294,47.26339],[8.1434,47.26351],[8.14424,47.26342],[8.14464,47.26361],[8.14464,47.26388],[8.14537,47.26419],[8.14625,47.2655],[8.14702,47.26573],[8.14704,47.26619],[8.14744,47.26644],[8.14754,47.26685],[8.14701,47.26779],[8.14697,47.26844],[8.14725,47.26879],[8.1469,47.26963],[8.14605,47.26983],[8.14536,47.2711],[8.14481,47.27115],[8.14378,47.27165],[8.14402,47.27208],[8.14384,47.27249],[8.14407,47.2728],[8.14419,47.27449],[8.14345,47.27565],[8.14349,47.27615],[8.1425,47.27808],[8.14242,47.27891],[8.14188,47.27906],[8.14195,47.27959],[8.14154,47.28],[8.14092,47.28139],[8.13898,47.28305],[8.13732,47.28505],[8.13661,47.28537],[8.13659,47.28609],[8.13557,47.28696],[8.13576,47.28784],[8.13561,47.28818]]}},{"type":"Feature","properties":{"id":"reinerbach-ag","c":"AG","p":"pacht","q":"derived","k":"river"},"geometry":{"type":"LineString","coordinates":[[8.15874,47.48887],[8.15908,47.48946],[8.15987,47.49001],[8.16165,47.49068],[8.1627,47.49088],[8.163,47.49119],[8.16422,47.49158],[8.16532,47.49229],[8.16561,47.49292],[8.16765,47.4934],[8.16889,47.49482],[8.16936,47.49616],[8.17086,47.49814],[8.17241,47.4993],[8.17452,47.50037],[8.17578,47.50078],[8.18116,47.50191],[8.18278,47.50316],[8.18444,47.50563],[8.18708,47.50727],[8.19098,47.50744],[8.19134,47.50666],[8.19217,47.50643],[8.19295,47.50648],[8.19477,47.50583],[8.19552,47.50529],[8.19538,47.50459],[8.1961,47.50413],[8.1999,47.50396],[8.20242,47.50312],[8.20303,47.50254],[8.2054,47.50307],[8.20712,47.50316],[8.20871,47.50353],[8.21081,47.50419],[8.21295,47.50522],[8.21327,47.50556],[8.21367,47.50683],[8.21466,47.50774],[8.21536,47.50901],[8.21589,47.51295],[8.21777,47.51547],[8.21762,47.51621],[8.21488,47.51796],[8.21591,47.51894],[8.21573,47.52006],[8.21617,47.52074],[8.21725,47.5208],[8.21755,47.52096],[8.21657,47.52187],[8.21667,47.52226],[8.2171,47.52258],[8.21734,47.52349],[8.21786,47.52385],[8.21717,47.52427],[8.2172,47.52482],[8.22052,47.52602],[8.22261,47.52602],[8.22363,47.52651],[8.22494,47.52683],[8.22545,47.52674],[8.22765,47.52753]]}},{"type":"Feature","properties":{"id":"schmittenbach-ag","c":"AG","p":"pacht","q":"derived","k":"river"},"geometry":{"type":"LineString","coordinates":[[8.15971,47.51041],[8.1596,47.51077],[8.16397,47.5116],[8.1643,47.51136],[8.16431,47.51089],[8.16528,47.51097],[8.16582,47.5108],[8.16619,47.51102],[8.16832,47.51074],[8.16924,47.51116],[8.17105,47.51131],[8.17163,47.51177],[8.17247,47.51206],[8.17337,47.51208],[8.17464,47.5126],[8.17696,47.51306],[8.17876,47.51303],[8.17908,47.51316],[8.18037,47.51295],[8.18219,47.5131],[8.18279,47.5133],[8.18529,47.51304],[8.18893,47.51342],[8.19106,47.51314],[8.19315,47.51385],[8.19736,47.51443],[8.20573,47.51361],[8.20697,47.51387],[8.20973,47.514],[8.21147,47.51451],[8.21255,47.51521],[8.21388,47.51682],[8.21439,47.51698],[8.21434,47.51739],[8.21488,47.51796]]}},{"type":"Feature","properties":{"id":"jonen-ag","c":"AG","p":"pacht","q":"derived","k":"river"},"geometry":{"type":"LineString","coordinates":[[8.42226,47.29775],[8.42177,47.29807],[8.42088,47.29818],[8.41925,47.29786],[8.41915,47.29721],[8.41838,47.29687],[8.41728,47.29712],[8.41598,47.2971],[8.41537,47.29729],[8.41472,47.29816],[8.41375,47.29832],[8.41344,47.29907],[8.41235,47.29925],[8.41138,47.30017],[8.41062,47.30045],[8.41032,47.3011],[8.40988,47.30112],[8.40879,47.30066],[8.40778,47.30118],[8.40723,47.30172],[8.40589,47.30188],[8.40548,47.30167],[8.40492,47.30166],[8.40365,47.30216],[8.40227,47.30118],[8.40166,47.30127],[8.40135,47.30172],[8.39952,47.30151],[8.40003,47.30079],[8.39955,47.29942],[8.398,47.29869],[8.39705,47.29874],[8.39656,47.29825],[8.39576,47.29795],[8.39529,47.29753],[8.39534,47.29657],[8.39513,47.2964],[8.39378,47.29661],[8.39276,47.29608],[8.39129,47.29607],[8.38942,47.29635],[8.38772,47.29704],[8.38668,47.29713],[8.38006,47.29631]]}},{"type":"Feature","properties":{"id":"rummelbach-ag","c":"AG","p":"pacht","q":"derived","k":"river"},"geometry":{"type":"LineString","coordinates":[[8.37781,47.35966],[8.37812,47.36015],[8.37795,47.36133],[8.3782,47.36176],[8.37789,47.36203],[8.37844,47.3629],[8.37874,47.36428],[8.37977,47.36559],[8.37984,47.36611],[8.38061,47.36633],[8.38105,47.36671],[8.38115,47.36724],[8.38078,47.36789],[8.38127,47.36877],[8.38048,47.36921],[8.38166,47.37056],[8.38219,47.37086],[8.38355,47.37095],[8.38385,47.37173],[8.38491,47.37183],[8.38521,47.37237],[8.38585,47.37247],[8.38623,47.37292],[8.38762,47.37276],[8.3881,47.37287],[8.38938,47.37388],[8.39023,47.3743],[8.39056,47.37498],[8.39091,47.37514],[8.39098,47.37557],[8.39188,47.37553],[8.39273,47.37628],[8.39485,47.37721],[8.39569,47.37786],[8.39637,47.37791]]}},{"type":"Feature","properties":{"id":"aabach-ag-2","c":"AG","p":"pacht","q":"derived","k":"river"},"geometry":{"type":"MultiLineString","coordinates":[[[8.19435,47.32361],[8.19243,47.32462],[8.19115,47.3251],[8.19001,47.32587],[8.18988,47.32633],[8.18839,47.32671],[8.18771,47.32803],[8.18362,47.33066],[8.1815,47.33243],[8.17856,47.33421],[8.17756,47.33537],[8.17459,47.34014],[8.17318,47.34148],[8.17201,47.34203],[8.17074,47.34221],[8.16612,47.34229],[8.16456,47.34198],[8.16328,47.3421],[8.1622,47.34313],[8.16199,47.34384],[8.1615,47.3443],[8.1631,47.34657],[8.16241,47.34796],[8.16126,47.34875],[8.16096,47.34948],[8.16132,47.35025],[8.16221,47.35067],[8.16336,47.35087],[8.16356,47.3514],[8.16445,47.35188],[8.16498,47.35248],[8.16601,47.35268],[8.16643,47.35259],[8.16817,47.35303],[8.17098,47.35421],[8.17188,47.35558],[8.1716,47.35718],[8.17221,47.35764],[8.17401,47.35844],[8.17435,47.3589],[8.17435,47.3595],[8.17306,47.36152],[8.17305,47.36264],[8.17195,47.36329],[8.17161,47.36381],[8.1717,47.36447],[8.17256,47.36519],[8.17297,47.36613],[8.17273,47.36703],[8.17164,47.36769],[8.17145,47.36843],[8.17176,47.36871],[8.17263,47.36895],[8.17313,47.36938],[8.17332,47.36986],[8.17301,47.37037],[8.17352,47.37108],[8.17277,47.37177],[8.17278,47.37242],[8.17348,47.37296],[8.1737,47.37363],[8.17325,47.37401],[8.17292,47.37486],[8.17346,47.37638],[8.17278,47.37871],[8.17352,47.3803],[8.17528,47.38147],[8.17517,47.38199],[8.17632,47.38424],[8.17614,47.38739],[8.17651,47.38901],[8.17648,47.39048],[8.17702,47.39149],[8.17741,47.39161],[8.17883,47.39286],[8.17858,47.39368],[8.17907,47.39426],[8.17799,47.39708],[8.17867,47.39771],[8.17818,47.39886],[8.17775,47.39932],[8.17654,47.39933],[8.17608,47.39971],[8.17626,47.40037],[8.17597,47.40135],[8.17611,47.40323],[8.17523,47.40414],[8.17361,47.4049],[8.17257,47.40601],[8.17144,47.40661],[8.17082,47.40665],[8.16945,47.40775],[8.16937,47.40887],[8.16869,47.40923],[8.16874,47.40984],[8.16766,47.40985],[8.16771,47.41047],[8.16688,47.41152],[8.16641,47.41179],[8.16662,47.41327],[8.16593,47.41385],[8.16595,47.41529],[8.16483,47.41699],[8.16384,47.41736],[8.16258,47.41742],[8.1616,47.41797]],[[8.19381,47.3235],[8.19296,47.32426]],[[8.19408,47.32312],[8.19388,47.32343]],[[8.19501,47.32286],[8.19331,47.32303],[8.1934,47.32328],[8.19435,47.32361]],[[8.19501,47.32286],[8.19477,47.32334],[8.19435,47.32361]],[[8.20143,47.31779],[8.20008,47.31739],[8.19977,47.31781],[8.19917,47.31789],[8.19887,47.31827],[8.19869,47.32],[8.1983,47.32078],[8.19733,47.32071],[8.19694,47.32115],[8.19612,47.32111],[8.19541,47.32172],[8.19501,47.32286]]]}},{"type":"Feature","properties":{"id":"buenz-ag","c":"AG","p":"pacht","q":"derived","k":"river"},"geometry":{"type":"LineString","coordinates":[[8.32407,47.24269],[8.32506,47.24306],[8.32675,47.2432],[8.32729,47.24355],[8.32883,47.24381],[8.3302,47.24501],[8.33069,47.24582],[8.33183,47.24689],[8.33434,47.24694],[8.33718,47.24616],[8.33753,47.24715],[8.33931,47.24807],[8.34019,47.24813],[8.34038,47.24868],[8.34099,47.24914],[8.34094,47.2506],[8.34186,47.25053],[8.34173,47.25086],[8.3432,47.25185],[8.34324,47.25214],[8.34263,47.2521],[8.34252,47.25246],[8.34264,47.25319],[8.34308,47.25382],[8.34314,47.25459],[8.34268,47.2546],[8.34298,47.25512],[8.34258,47.25556],[8.34226,47.25559],[8.34212,47.25638],[8.34146,47.25703],[8.3417,47.25779],[8.34198,47.25793],[8.34232,47.25972],[8.34231,47.26014],[8.34181,47.26081],[8.34183,47.26167],[8.34214,47.26261],[8.34244,47.26282],[8.34247,47.26333],[8.34307,47.26349],[8.34319,47.26371],[8.34333,47.26473],[8.34429,47.26607],[8.34478,47.26733],[8.34492,47.26966],[8.34613,47.27075],[8.34366,47.27354],[8.34362,47.27422],[8.34431,47.2759],[8.34162,47.27977],[8.34159,47.28099],[8.34243,47.28319],[8.34218,47.2844],[8.34172,47.28522],[8.34206,47.28561],[8.34222,47.28633],[8.33816,47.2935],[8.3248,47.30763],[8.32409,47.30816],[8.32179,47.30831],[8.32105,47.30874],[8.32006,47.31102],[8.3105,47.32051],[8.30882,47.32352],[8.30675,47.33122],[8.30595,47.33343],[8.30361,47.33472],[8.3026,47.3348],[8.30098,47.3345],[8.29981,47.33461],[8.29421,47.33642],[8.29146,47.33845],[8.28426,47.34485],[8.28197,47.34712],[8.28059,47.34765],[8.27684,47.34778],[8.27584,47.34806],[8.27534,47.34885],[8.27584,47.34988],[8.27575,47.35064],[8.27533,47.35135],[8.27087,47.35361],[8.27008,47.3542],[8.2603,47.36587],[8.25861,47.36699],[8.2493,47.37156],[8.24853,47.37217],[8.24801,47.37333],[8.24769,47.37699],[8.2471,47.37803],[8.24601,47.379],[8.2398,47.3821],[8.23872,47.3823],[8.23687,47.382],[8.23278,47.38242],[8.23095,47.3834],[8.22597,47.38528],[8.2249,47.38594],[8.21901,47.39192],[8.21823,47.39584],[8.21594,47.3989],[8.21462,47.4021],[8.20999,47.40555],[8.2093,47.40578],[8.20776,47.40581],[8.19948,47.40685],[8.19812,47.40641],[8.19674,47.40659],[8.19513,47.40766],[8.19339,47.40785],[8.19231,47.4075],[8.19185,47.40763],[8.19141,47.40819],[8.19136,47.40924],[8.18969,47.40963],[8.18867,47.4097],[8.18805,47.4092],[8.18788,47.40871],[8.18714,47.40856],[8.18633,47.40971],[8.18547,47.40983],[8.18521,47.41025],[8.18401,47.41058],[8.18381,47.41109],[8.18447,47.41147],[8.18437,47.41166],[8.18389,47.41175],[8.18186,47.41112],[8.18118,47.41114],[8.1812,47.41276],[8.17734,47.41433],[8.17622,47.41558],[8.1738,47.41721],[8.17283,47.41717],[8.17165,47.41646],[8.16981,47.41691],[8.16825,47.41756],[8.16476,47.41705]]}},{"type":"Feature","properties":{"id":"hinterbach-ag","c":"AG","p":"pacht","q":"derived","k":"river"},"geometry":{"type":"LineString","coordinates":[[8.28276,47.30316],[8.28328,47.30503],[8.28388,47.30601],[8.2835,47.30694],[8.28263,47.30743],[8.28192,47.3088],[8.27959,47.31066],[8.27933,47.31161],[8.27842,47.31222],[8.27751,47.31247],[8.27637,47.31333],[8.27669,47.31387],[8.27662,47.31487],[8.27614,47.31514],[8.27569,47.31499],[8.27516,47.31528],[8.27525,47.31583],[8.27446,47.31632],[8.27347,47.31796],[8.27381,47.31806],[8.27374,47.31841],[8.27405,47.31877],[8.27285,47.32048],[8.27181,47.32117],[8.27052,47.32159],[8.27011,47.32202],[8.26943,47.32181],[8.26914,47.32189],[8.26901,47.32231],[8.26939,47.32276],[8.26927,47.3233],[8.26992,47.32468],[8.26976,47.32495],[8.27004,47.32564],[8.26944,47.32618],[8.27006,47.32667],[8.26831,47.32706],[8.26729,47.32791],[8.26647,47.32772],[8.26561,47.3282],[8.26486,47.32832],[8.26195,47.33024],[8.26069,47.33018],[8.25987,47.33149],[8.25863,47.33156],[8.25757,47.3325],[8.25647,47.33263],[8.25562,47.33438],[8.25501,47.33478],[8.25509,47.33662],[8.25361,47.3381],[8.25293,47.33832],[8.25216,47.33826],[8.25,47.33888],[8.24835,47.33893],[8.24724,47.33942],[8.24614,47.34036],[8.24546,47.34158],[8.2463,47.34249],[8.24726,47.34423],[8.24792,47.34748],[8.24495,47.35225],[8.24431,47.35476]]}},{"type":"Feature","properties":{"id":"erusbach-ag","c":"AG","p":"pacht","q":"derived","k":"river"},"geometry":{"type":"LineString","coordinates":[[8.26196,47.29358],[8.26155,47.2946],[8.26136,47.29641],[8.26075,47.2975],[8.25983,47.29811],[8.25976,47.29897],[8.26003,47.29962],[8.25965,47.29994],[8.2599,47.30119],[8.2596,47.30177],[8.2595,47.304],[8.26019,47.30545],[8.26009,47.30623],[8.26061,47.30781],[8.26028,47.30829],[8.25977,47.30851],[8.25977,47.30895],[8.25905,47.30911],[8.25848,47.30952],[8.25781,47.30956],[8.25678,47.3105],[8.25582,47.31089],[8.2551,47.31093],[8.25435,47.3113],[8.25302,47.31129],[8.24525,47.31026],[8.24266,47.31041],[8.24225,47.31113],[8.24113,47.31144],[8.24137,47.31191],[8.24244,47.31264],[8.24336,47.31426],[8.24334,47.31635],[8.24369,47.31706],[8.24326,47.31734],[8.24327,47.31753],[8.24422,47.31972],[8.24458,47.32032],[8.24501,47.32056],[8.24549,47.32174],[8.24499,47.32277],[8.24621,47.3251],[8.24612,47.3258],[8.24649,47.32674],[8.24638,47.32813],[8.24692,47.32889],[8.24606,47.33087],[8.24843,47.33295],[8.24804,47.33392],[8.24833,47.33431],[8.24752,47.33497],[8.24694,47.33596],[8.24716,47.33661],[8.24699,47.33702],[8.24506,47.33858],[8.24347,47.33909],[8.24265,47.34023],[8.24231,47.3416],[8.24294,47.34256],[8.24477,47.3434],[8.24458,47.34355],[8.24471,47.34483],[8.24528,47.34511],[8.24546,47.34583],[8.24622,47.34654],[8.24338,47.3509],[8.24284,47.35255],[8.24284,47.35338],[8.24431,47.35476]]}},{"type":"Feature","properties":{"id":"fisibach-ag","c":"AG","p":"pacht","q":"derived","k":"river"},"geometry":{"type":"LineString","coordinates":[[8.40823,47.54366],[8.40793,47.54436],[8.408,47.54541],[8.40746,47.54665],[8.40732,47.54828],[8.40688,47.54947],[8.40693,47.55059],[8.40648,47.5517],[8.40664,47.55238],[8.40705,47.55255],[8.4068,47.55319],[8.40707,47.55478],[8.40772,47.55504],[8.40799,47.55619],[8.40795,47.5579],[8.40748,47.55978],[8.40787,47.56041],[8.40793,47.56166],[8.40876,47.56333],[8.4074,47.5683],[8.40524,47.5699],[8.40501,47.57036],[8.40534,47.57084],[8.40509,47.57163],[8.40633,47.57243],[8.40599,47.57339],[8.40631,47.57374],[8.40619,47.57419]]}},{"type":"Feature","properties":{"id":"taegerbach-ag","c":"AG","p":"pacht","q":"derived","k":"river"},"geometry":{"type":"LineString","coordinates":[[8.38019,47.54743],[8.37926,47.5486],[8.37928,47.54946],[8.3786,47.55028],[8.37823,47.55185],[8.3774,47.55236],[8.37702,47.55298],[8.37562,47.55355],[8.37524,47.55401],[8.37465,47.5543],[8.37086,47.55471],[8.36966,47.55507],[8.36896,47.55499],[8.36858,47.55535],[8.36594,47.55623],[8.36466,47.55626],[8.36363,47.55651],[8.36266,47.55714],[8.3612,47.55875],[8.35963,47.55958],[8.35932,47.56012],[8.35927,47.56097],[8.35789,47.56189],[8.35821,47.56345],[8.35737,47.56499],[8.35943,47.56691],[8.36053,47.56744],[8.36104,47.56866],[8.36059,47.56978]]}},{"type":"Feature","properties":{"id":"surb-ag","c":"AG","p":"pacht","q":"derived","k":"river"},"geometry":{"type":"LineString","coordinates":[[8.36336,47.51096],[8.36141,47.51009],[8.35985,47.50965],[8.35893,47.50893],[8.35646,47.50763],[8.35459,47.50698],[8.35394,47.50701],[8.35288,47.50629],[8.35199,47.50603],[8.35124,47.50599],[8.35043,47.50621],[8.34973,47.50587],[8.34719,47.50585],[8.34573,47.50661],[8.34507,47.50641],[8.34376,47.50668],[8.34167,47.50824],[8.34037,47.50887],[8.33986,47.50954],[8.33899,47.50997],[8.3388,47.51031],[8.33772,47.51066],[8.3372,47.51116],[8.33659,47.51128],[8.33572,47.51189],[8.33556,47.51229],[8.33526,47.51242],[8.33527,47.51296],[8.33494,47.5132],[8.33517,47.51438],[8.33488,47.51499],[8.33485,47.51631],[8.33333,47.51679],[8.33323,47.51733],[8.33276,47.5178],[8.33217,47.51904],[8.33134,47.51951],[8.3309,47.52004],[8.32919,47.52097],[8.32837,47.5216],[8.32793,47.52226],[8.32699,47.5224],[8.32635,47.52295],[8.3255,47.52317],[8.32483,47.52521],[8.32378,47.52603],[8.32252,47.52611],[8.32156,47.52577],[8.32078,47.52583],[8.31958,47.52615],[8.31566,47.52793],[8.31444,47.52774],[8.31411,47.52783],[8.31288,47.5293],[8.31178,47.5299],[8.31153,47.53023],[8.31112,47.53007],[8.31,47.53006],[8.30863,47.52962],[8.30786,47.52973],[8.30695,47.53032],[8.30743,47.53061],[8.30739,47.53079],[8.30681,47.531],[8.30703,47.5317],[8.30681,47.53238],[8.30641,47.53254],[8.30567,47.53265],[8.30432,47.5324],[8.3013,47.53287],[8.30003,47.53227],[8.2991,47.53237],[8.29771,47.53288],[8.29728,47.53326],[8.29587,47.53357],[8.29404,47.53492],[8.29316,47.53492],[8.29162,47.53578],[8.29115,47.53659],[8.29161,47.53726],[8.29148,47.53745],[8.29026,47.53887],[8.28885,47.53956],[8.28873,47.54038],[8.28901,47.54079],[8.28883,47.54121],[8.28922,47.5418],[8.289,47.54389],[8.28975,47.54446],[8.28874,47.54594],[8.28792,47.54611],[8.28816,47.5468],[8.28695,47.54891],[8.2867,47.54968],[8.28694,47.55032],[8.28656,47.55072],[8.28809,47.55101],[8.28931,47.55172],[8.28992,47.5523],[8.29045,47.55366],[8.28985,47.55449],[8.28868,47.55534],[8.28807,47.5569],[8.28705,47.55808],[8.28557,47.5588],[8.28543,47.55966],[8.28477,47.55995],[8.28382,47.55968],[8.28241,47.55982],[8.28036,47.56084],[8.27932,47.56106],[8.27755,47.56178],[8.27658,47.56177],[8.27577,47.56208],[8.27566,47.5626],[8.27511,47.56295],[8.27338,47.56316],[8.27145,47.56298],[8.27038,47.56333],[8.26958,47.56326],[8.26874,47.56292],[8.26823,47.56296],[8.26769,47.56356],[8.26778,47.56417],[8.26698,47.56434],[8.26492,47.56427],[8.26409,47.56486],[8.26307,47.56499],[8.26279,47.56549],[8.2633,47.56687],[8.26208,47.56772],[8.25974,47.56817],[8.25823,47.5675],[8.254,47.56847]]}},{"type":"Feature","properties":{"id":"rottenschwiler-kanal-ag","c":"AG","p":"pacht","q":"derived","k":"river"},"geometry":{"type":"LineString","coordinates":[[8.36399,47.31659],[8.35981,47.3242],[8.36004,47.32478],[8.36077,47.32518],[8.3619,47.32671],[8.36422,47.32865]]}}]}