{"type":"FeatureCollection","features":[{"type":"Feature","properties":{"id":"seealpsee-ai","c":"AI","p":"patent","q":"derived","k":"lake"},"geometry":{"type":"Polygon","coordinates":[[[9.4009,47.26974],[9.40022,47.2693],[9.40225,47.2697],[9.40235,47.2696],[9.40198,47.26947],[9.40175,47.26913],[9.40615,47.26963],[9.40503,47.26891],[9.40481,47.26855],[9.40477,47.26801],[9.40407,47.26762],[9.40371,47.26756],[9.4031,47.26775],[9.40224,47.2677],[9.40185,47.2676],[9.40166,47.26726],[9.40042,47.26721],[9.39904,47.26744],[9.39794,47.26716],[9.39719,47.26642],[9.39714,47.2671],[9.39629,47.26728],[9.39616,47.26741],[9.39713,47.26874],[9.39748,47.26889],[9.39877,47.26899],[9.39924,47.26913],[9.39965,47.2694],[9.40004,47.26996],[9.40035,47.27008],[9.40088,47.27004],[9.4009,47.26974]]]}},{"type":"Feature","properties":{"id":"saemtisersee-ai","c":"AI","p":"patent","q":"derived","k":"lake"},"geometry":{"type":"Polygon","coordinates":[[[9.4555,47.27136],[9.45678,47.27206],[9.45798,47.27216],[9.46034,47.27261],[9.46241,47.27327],[9.46346,47.27344],[9.46435,47.27286],[9.46419,47.27271],[9.46374,47.27289],[9.46341,47.27289],[9.46205,47.27201],[9.46112,47.27089],[9.4594,47.27003],[9.45749,47.26947],[9.4565,47.26946],[9.45552,47.26892],[9.45344,47.26866],[9.45301,47.2687],[9.45331,47.26884],[9.45319,47.26919],[9.45289,47.26925],[9.4533,47.26965],[9.45315,47.26983],[9.4533,47.27001],[9.45307,47.27037],[9.4555,47.27136]]]}},{"type":"Feature","properties":{"id":"faelensee-ai","c":"AI","p":"patent","q":"derived","k":"lake"},"geometry":{"type":"Polygon","coordinates":[[[9.42315,47.25288],[9.42305,47.25266],[9.42225,47.2521],[9.41773,47.25057],[9.41568,47.25049],[9.41289,47.25005],[9.4121,47.25005],[9.4113,47.24985],[9.40974,47.24981],[9.40932,47.25002],[9.40934,47.25032],[9.40971,47.25056],[9.41128,47.25082],[9.41221,47.25081],[9.41425,47.25151],[9.41763,47.25193],[9.41991,47.25263],[9.42105,47.25321],[9.42289,47.25389],[9.42415,47.2539],[9.42431,47.2538],[9.42423,47.25347],[9.42315,47.25288]]]}},{"type":"Feature","properties":{"id":"aubach-ai","c":"AI","p":"patent","q":"derived","k":"river"},"geometry":{"type":"MultiLineString","coordinates":[[[9.46863,47.32167],[9.46924,47.32335],[9.4689,47.32359],[9.46805,47.32509],[9.46708,47.32596],[9.4672,47.32808],[9.46664,47.32872],[9.46664,47.32905],[9.46535,47.32964],[9.46523,47.33011],[9.46587,47.33068],[9.46669,47.33091],[9.46739,47.33173],[9.46729,47.33194],[9.46766,47.33203],[9.46776,47.33232],[9.46812,47.33228],[9.46944,47.33362],[9.47047,47.33352],[9.47133,47.33387],[9.47187,47.33379],[9.47408,47.33438],[9.47629,47.33389],[9.47662,47.33417],[9.47737,47.33408],[9.47784,47.33371],[9.47889,47.33334],[9.4791,47.33389],[9.48003,47.33384],[9.48069,47.33415],[9.48136,47.33403],[9.48206,47.33448],[9.48291,47.33434],[9.48322,47.33468],[9.48382,47.33491],[9.48468,47.33458],[9.48512,47.33466],[9.48567,47.33515],[9.48684,47.335],[9.48766,47.33525],[9.48861,47.33504],[9.49004,47.33539]],[[9.4905,47.33553],[9.49203,47.33568],[9.49275,47.33625],[9.49399,47.33586],[9.49523,47.33575],[9.49651,47.33633],[9.49716,47.33726],[9.49771,47.33764],[9.49853,47.33765],[9.49976,47.33739],[9.50129,47.33767],[9.50183,47.33743],[9.50282,47.33735]]]}},{"type":"Feature","properties":{"id":"fallbach-ai","c":"AI","p":"patent","q":"derived","k":"river"},"geometry":{"type":"MultiLineString","coordinates":[[[9.52602,47.42049],[9.52649,47.42061],[9.527,47.4212],[9.52819,47.42168],[9.53011,47.4217],[9.53069,47.42211],[9.53186,47.42239],[9.53246,47.42274],[9.53485,47.42256],[9.53591,47.4233],[9.5371,47.42318],[9.53806,47.42331],[9.53841,47.42312],[9.53885,47.42316],[9.539,47.42286],[9.53941,47.42293],[9.5402,47.42248],[9.54098,47.42237],[9.54152,47.42269],[9.5419,47.42253],[9.54209,47.42274],[9.54353,47.42271],[9.54381,47.42235],[9.54466,47.422],[9.5479,47.42172],[9.54862,47.42121],[9.54958,47.42085],[9.55124,47.42071],[9.55176,47.41996],[9.55168,47.41971],[9.55221,47.41928],[9.55438,47.41901],[9.55504,47.41914],[9.55752,47.41836],[9.55884,47.41825]],[[9.56111,47.41772],[9.56226,47.41795],[9.56343,47.41847]],[[9.57477,47.42129],[9.5762,47.42141]],[[9.5805,47.41982],[9.58086,47.41967],[9.58116,47.41994],[9.58249,47.42007],[9.58282,47.41991],[9.58339,47.42038],[9.58385,47.4205],[9.58465,47.42014],[9.58561,47.42006],[9.58601,47.42021],[9.58739,47.42015],[9.58866,47.42042],[9.58903,47.42074],[9.58967,47.4209],[9.59016,47.42153],[9.59126,47.42213],[9.59251,47.42236],[9.5924,47.42314]]]}},{"type":"Feature","properties":{"id":"schwarz-ai","c":"AI","p":"patent","q":"derived","k":"river"},"geometry":{"type":"LineString","coordinates":[[9.36967,47.32752],[9.36813,47.32686],[9.36233,47.32671],[9.36143,47.32712],[9.36039,47.32926],[9.35998,47.32964],[9.35161,47.32931],[9.34994,47.32813],[9.3491,47.327],[9.34887,47.3263],[9.34839,47.32611],[9.3476,47.32535],[9.34764,47.32495],[9.34722,47.32449],[9.3468,47.32445],[9.34605,47.3247],[9.34547,47.32443],[9.34493,47.32385],[9.34421,47.3236],[9.34347,47.32405],[9.34262,47.32354],[9.34106,47.32379],[9.34089,47.32315],[9.33939,47.32338],[9.33833,47.32286],[9.33813,47.32237],[9.33667,47.32212],[9.33551,47.32129],[9.33449,47.32138],[9.33073,47.32104]]}},{"type":"Feature","properties":{"id":"loechlibach-ai","c":"AI","p":"patent","q":"derived","k":"river"},"geometry":{"type":"LineString","coordinates":[[9.35834,47.30724],[9.3576,47.30725],[9.35656,47.30696],[9.3562,47.30711],[9.35523,47.30706],[9.35329,47.30645],[9.35242,47.30636],[9.35146,47.3071],[9.35103,47.3071],[9.35086,47.30739],[9.35022,47.30748],[9.34936,47.30815],[9.34566,47.30823],[9.34472,47.30862],[9.3441,47.30933],[9.34272,47.30975],[9.34065,47.31008],[9.34023,47.31027],[9.34014,47.31064],[9.33946,47.31066],[9.3384,47.31129],[9.33666,47.31162],[9.33543,47.3124],[9.33472,47.31313],[9.33401,47.31327],[9.33354,47.31307]]}},{"type":"Feature","properties":{"id":"goertenbach-ai","c":"AI","p":"patent","q":"derived","k":"river"},"geometry":{"type":"LineString","coordinates":[[9.34102,47.34355],[9.3419,47.34321],[9.34567,47.34326],[9.34631,47.34297],[9.34768,47.34302],[9.34816,47.34283],[9.35143,47.34327],[9.35219,47.34312],[9.35377,47.34344],[9.35469,47.34339],[9.35634,47.343],[9.35792,47.34328],[9.35833,47.34353],[9.3588,47.34349],[9.35913,47.34366],[9.35903,47.34392],[9.35952,47.34414],[9.36012,47.3453],[9.36057,47.34568],[9.36212,47.3461],[9.36329,47.34622],[9.36424,47.34611],[9.36582,47.34638],[9.36574,47.34834],[9.36528,47.34918],[9.36552,47.34961],[9.36652,47.3503],[9.36745,47.35038],[9.36769,47.35087],[9.3684,47.35114],[9.36863,47.35153],[9.36999,47.3518],[9.37222,47.35266]]}},{"type":"Feature","properties":{"id":"kaubach-ai","c":"AI","p":"patent","q":"derived","k":"river"},"geometry":{"type":"LineString","coordinates":[[9.38087,47.30728],[9.38093,47.30832],[9.3812,47.3086],[9.38106,47.30917],[9.3822,47.31031],[9.38262,47.31121],[9.38231,47.31163],[9.38235,47.31199],[9.38278,47.31243],[9.38244,47.31282],[9.38214,47.31409],[9.38241,47.31469],[9.3819,47.31525],[9.38038,47.31606],[9.37977,47.31694],[9.37901,47.3172],[9.37834,47.31797],[9.37762,47.31798],[9.37794,47.31901],[9.37697,47.31948],[9.37714,47.31989],[9.37663,47.32058],[9.3759,47.32072],[9.37524,47.32128],[9.3757,47.32213],[9.37515,47.3224],[9.37469,47.3234],[9.37392,47.32338],[9.37385,47.32408],[9.37319,47.32456],[9.37314,47.32514],[9.37188,47.32541],[9.37373,47.3265],[9.37367,47.32695],[9.37415,47.32716],[9.37551,47.32873],[9.37634,47.32888],[9.37702,47.3294],[9.37765,47.32958],[9.3779,47.32999],[9.37869,47.32979],[9.37892,47.32988],[9.37904,47.33068],[9.37947,47.33136],[9.37918,47.33179],[9.38002,47.33276],[9.38017,47.33372],[9.37973,47.33429],[9.38084,47.33439],[9.3812,47.3342],[9.38256,47.33474],[9.38337,47.33436],[9.38392,47.33482],[9.38491,47.3344],[9.38633,47.3352],[9.38818,47.33513],[9.38949,47.33552],[9.39047,47.33615],[9.3917,47.33634],[9.3926,47.33693],[9.39326,47.33701],[9.39385,47.33759],[9.39411,47.33867],[9.39587,47.33964],[9.39603,47.34037]]}},{"type":"Feature","properties":{"id":"bleichenwaeldlibach-ai","c":"AI","p":"patent","q":"derived","k":"river"},"geometry":{"type":"LineString","coordinates":[[9.44858,47.34087],[9.44304,47.34024],[9.43894,47.33908],[9.43833,47.33912],[9.43637,47.33858],[9.43522,47.33876],[9.43437,47.33865],[9.43399,47.33902],[9.43315,47.33886],[9.43276,47.33898],[9.43178,47.33889],[9.43119,47.33934],[9.43072,47.33913],[9.43008,47.33914],[9.42897,47.33863],[9.42782,47.33912],[9.42701,47.33909],[9.42594,47.33876],[9.42559,47.33847],[9.42503,47.33854],[9.42465,47.33763],[9.42389,47.33718],[9.42254,47.33692],[9.42108,47.33632],[9.42015,47.33632],[9.4198,47.33602],[9.41915,47.33588],[9.41822,47.33462],[9.41753,47.33458],[9.41671,47.33404],[9.41594,47.33388],[9.41479,47.33409],[9.41218,47.33361],[9.41164,47.33379],[9.41128,47.33421]]}},{"type":"Feature","properties":{"id":"bleichenwaeldlibach-ai-2","c":"AI","p":"patent","q":"derived","k":"river"},"geometry":{"type":"LineString","coordinates":[[9.45662,47.34147],[9.45619,47.34022],[9.45642,47.33886],[9.45594,47.33858],[9.45574,47.33795],[9.45632,47.33698],[9.4564,47.3359],[9.45562,47.33547],[9.45511,47.33491],[9.45521,47.33459],[9.45435,47.33241],[9.45288,47.3325],[9.45138,47.33158],[9.44991,47.3316],[9.449,47.33089],[9.44774,47.33081],[9.44656,47.33029],[9.4461,47.33043],[9.44562,47.33036],[9.44543,47.33059],[9.44509,47.33061],[9.4445,47.33003],[9.44171,47.32958],[9.44066,47.32928],[9.44018,47.32894],[9.43814,47.32876],[9.43803,47.32817],[9.43681,47.32816],[9.43486,47.3276],[9.43255,47.32629],[9.43182,47.3263],[9.43166,47.32598],[9.43015,47.32618],[9.42961,47.32678],[9.4289,47.32646],[9.42908,47.32605],[9.42715,47.32651],[9.426,47.32616],[9.42257,47.32579]]}},{"type":"Feature","properties":{"id":"ibach-ai","c":"AI","p":"patent","q":"derived","k":"river"},"geometry":{"type":"LineString","coordinates":[[9.47392,47.31533],[9.47298,47.31564],[9.47216,47.31563],[9.47088,47.3164],[9.47039,47.31646],[9.47012,47.31684],[9.46917,47.31706],[9.46797,47.31772],[9.46727,47.31763],[9.46603,47.31805],[9.46443,47.31735],[9.46278,47.31611],[9.46231,47.31621],[9.46169,47.31576],[9.45975,47.31571],[9.4586,47.31627],[9.45779,47.31618],[9.45505,47.31491],[9.45365,47.31468],[9.45214,47.31411],[9.44854,47.3142],[9.44803,47.31398],[9.44691,47.31406],[9.44552,47.31445],[9.44489,47.31494],[9.44438,47.31501],[9.44316,47.31601],[9.44245,47.316],[9.44215,47.31621],[9.44065,47.31611],[9.43821,47.31531],[9.43753,47.31531],[9.43717,47.31504],[9.43592,47.3151],[9.43396,47.31449]]}},{"type":"Feature","properties":{"id":"soenderlibach-ai","c":"AI","p":"patent","q":"derived","k":"river"},"geometry":{"type":"LineString","coordinates":[[9.33803,47.29303],[9.3406,47.29292],[9.34086,47.29313],[9.34285,47.29326],[9.3433,47.29306],[9.34562,47.29325],[9.34633,47.29303],[9.34843,47.29321],[9.34976,47.29373],[9.35046,47.29435],[9.3506,47.29479],[9.35092,47.2948],[9.35131,47.29527],[9.35177,47.29552],[9.35207,47.29546],[9.35237,47.29582],[9.3531,47.29613],[9.35679,47.2969],[9.3578,47.29836],[9.35915,47.29906],[9.36012,47.2993],[9.3614,47.29991],[9.36666,47.30099],[9.36691,47.30126],[9.36829,47.30155],[9.36979,47.30133],[9.37077,47.3007],[9.37167,47.30095],[9.37239,47.30092],[9.37384,47.30046],[9.37437,47.30054],[9.37733,47.30002],[9.37899,47.29918],[9.38027,47.2975],[9.38096,47.2971],[9.38091,47.29654],[9.38223,47.29531],[9.38259,47.29525],[9.38276,47.295],[9.38323,47.295],[9.38344,47.29452],[9.38452,47.2947],[9.38506,47.29409],[9.38606,47.29395],[9.38689,47.29415],[9.38769,47.29386]]}},{"type":"Feature","properties":{"id":"horstbach-ai","c":"AI","p":"patent","q":"derived","k":"river"},"geometry":{"type":"LineString","coordinates":[[9.48926,47.3055],[9.48888,47.30505],[9.48692,47.30391],[9.4847,47.30284],[9.48377,47.30285],[9.48215,47.30187],[9.4809,47.30215],[9.47828,47.30199],[9.47697,47.30117],[9.47543,47.30076],[9.47383,47.30064],[9.47235,47.30086],[9.46968,47.30023],[9.4678,47.30025],[9.46639,47.30076],[9.46587,47.30071],[9.46536,47.3005],[9.46503,47.29982],[9.46371,47.2994],[9.4633,47.299],[9.46222,47.29899],[9.46093,47.29922],[9.45979,47.29893],[9.45805,47.29914],[9.45739,47.299],[9.45676,47.29861],[9.454,47.29828],[9.45371,47.29801],[9.4529,47.29809],[9.45271,47.29764]]}},{"type":"Feature","properties":{"id":"berndlibach-ai","c":"AI","p":"patent","q":"derived","k":"river"},"geometry":{"type":"LineString","coordinates":[[9.36152,47.27185],[9.36147,47.27236],[9.3619,47.27321],[9.36349,47.2744],[9.36388,47.27455],[9.36531,47.27445],[9.36698,47.27481],[9.36774,47.2756],[9.36801,47.27609],[9.3678,47.27643],[9.36847,47.27674],[9.36868,47.27755],[9.36923,47.27764],[9.36965,47.27837],[9.37073,47.27942],[9.37007,47.28003],[9.3701,47.28024],[9.37069,47.28054],[9.37013,47.28093],[9.37116,47.28177],[9.37182,47.282],[9.37183,47.28285],[9.37208,47.28348],[9.37241,47.28365],[9.37224,47.2838],[9.37186,47.28365],[9.37189,47.28387],[9.37345,47.28431],[9.3745,47.28541],[9.37518,47.28547],[9.37614,47.28603],[9.37774,47.28652],[9.37804,47.28694],[9.37867,47.28696],[9.37918,47.28777],[9.38064,47.28846],[9.3813,47.28853],[9.38263,47.28939],[9.38492,47.29],[9.38522,47.29065],[9.38449,47.2922],[9.38551,47.29276],[9.38634,47.29292],[9.38653,47.29347]]}},{"type":"Feature","properties":{"id":"sitter-ai","c":"AI","p":"patent","q":"derived","k":"river"},"geometry":{"type":"MultiLineString","coordinates":[[[9.35872,47.37773],[9.35852,47.3783],[9.35743,47.37866],[9.3551,47.37997],[9.3531,47.38176],[9.3515,47.38206]],[[9.43418,47.31241],[9.43386,47.31447],[9.43277,47.31575],[9.43321,47.31714],[9.43274,47.3179],[9.43182,47.31832],[9.42947,47.31819],[9.4287,47.31841],[9.42698,47.31983],[9.42526,47.32299],[9.42317,47.32345],[9.42319,47.32433],[9.42289,47.3251],[9.42151,47.32662],[9.42054,47.32683],[9.4187,47.32617],[9.4178,47.32637],[9.41692,47.32732],[9.41703,47.32836],[9.41682,47.32896],[9.41353,47.32961],[9.41073,47.33128],[9.41009,47.3333],[9.41046,47.33389],[9.41135,47.33455],[9.4112,47.33498],[9.4102,47.33547],[9.40921,47.3357],[9.40245,47.33513],[9.40134,47.33525],[9.40091,47.33557],[9.39928,47.33843],[9.39691,47.34038],[9.3964,47.34062],[9.39551,47.34063],[9.39492,47.34086],[9.39474,47.34103],[9.39483,47.34261],[9.39709,47.34339],[9.39759,47.34385],[9.39745,47.34596],[9.39692,47.34684],[9.39366,47.3478],[9.39407,47.34847],[9.39206,47.34958],[9.39042,47.34903],[9.38725,47.34757],[9.3836,47.34676],[9.38341,47.34691],[9.38361,47.34722],[9.38297,47.34782],[9.38107,47.34844],[9.38,47.34863],[9.37697,47.34864],[9.37641,47.3488],[9.3763,47.34924],[9.37556,47.34942],[9.37508,47.35],[9.37523,47.35061],[9.37503,47.35116],[9.37404,47.35151],[9.37324,47.35141],[9.37229,47.35176],[9.37236,47.35275],[9.37124,47.35352],[9.37097,47.35403],[9.37027,47.3542],[9.3695,47.35474],[9.36845,47.35486],[9.36707,47.35452],[9.36657,47.35472],[9.36657,47.35515],[9.36868,47.35581],[9.36893,47.35599],[9.36889,47.3563],[9.36746,47.35636],[9.3666,47.35675],[9.3651,47.35647],[9.36395,47.35755],[9.36399,47.35791],[9.36522,47.35822],[9.36525,47.35864],[9.36407,47.36005],[9.36228,47.36124],[9.36173,47.36265],[9.36083,47.36339],[9.36028,47.3642],[9.36028,47.36474],[9.36142,47.36602],[9.36133,47.36644],[9.36102,47.36661],[9.36019,47.36654],[9.35929,47.36708],[9.35878,47.36837],[9.35792,47.36912],[9.35841,47.3703],[9.35807,47.37073],[9.35711,47.3711],[9.35681,47.37169]]]}},{"type":"Feature","properties":{"id":"rotbach-ai","c":"AI","p":"patent","q":"derived","k":"river"},"geometry":{"type":"MultiLineString","coordinates":[[[9.37346,47.38646],[9.37277,47.38617],[9.37327,47.38505],[9.37281,47.38443],[9.37186,47.38406]],[[9.38104,47.38014],[9.37862,47.38056],[9.37789,47.38117],[9.3781,47.38175],[9.37925,47.38268],[9.37879,47.38387],[9.37947,47.38437],[9.37926,47.38673]],[[9.40279,47.37409],[9.40194,47.375],[9.40188,47.37566],[9.40216,47.37586],[9.40316,47.37584],[9.40351,47.37614]],[[9.43468,47.36337],[9.43295,47.36387],[9.43225,47.36462],[9.43229,47.36558],[9.43126,47.36597],[9.43118,47.36656],[9.4306,47.3672],[9.4305,47.36772],[9.43142,47.36858],[9.43117,47.36951],[9.43048,47.37036],[9.43115,47.3706]]]}},{"type":"Feature","properties":{"id":"wissbach-ai","c":"AI","p":"patent","q":"derived","k":"river"},"geometry":{"type":"MultiLineString","coordinates":[[[9.31393,47.32154],[9.31191,47.32131],[9.3099,47.3215]],[[9.31709,47.30193],[9.31846,47.30218],[9.3188,47.30257],[9.31927,47.30258],[9.31972,47.30315],[9.32069,47.30363],[9.3209,47.30402],[9.32138,47.30419],[9.32206,47.30482],[9.32287,47.30484],[9.32424,47.30519],[9.32468,47.30584],[9.32622,47.30623],[9.32652,47.30669],[9.32795,47.30675],[9.32825,47.30715],[9.32822,47.30766],[9.32906,47.30807],[9.33015,47.30922],[9.33086,47.3095],[9.33029,47.30993],[9.3304,47.31037],[9.33115,47.31059],[9.33092,47.31109],[9.33192,47.31172],[9.33162,47.31221],[9.33173,47.31247],[9.33322,47.31332],[9.33255,47.31384],[9.33272,47.31454],[9.33244,47.31519],[9.33319,47.31764],[9.33279,47.31861],[9.33046,47.32129],[9.32648,47.32084],[9.32489,47.3212],[9.32349,47.32073],[9.32292,47.32119],[9.32003,47.32159],[9.31964,47.32147],[9.31938,47.32068],[9.31785,47.32085],[9.31725,47.32038],[9.31623,47.32022],[9.31573,47.32034],[9.3153,47.32102],[9.31418,47.32115]],[[9.31441,47.29035],[9.31441,47.29082],[9.31374,47.2912],[9.31348,47.29183]],[[9.31564,47.30008],[9.316,47.30067],[9.31601,47.30122]],[[9.31777,47.28897],[9.31731,47.28921],[9.31646,47.28927]]]}},{"type":"Feature","properties":{"id":"wissbach-ai-2","c":"AI","p":"patent","q":"derived","k":"river"},"geometry":{"type":"LineString","coordinates":[[9.35748,47.28585],[9.3579,47.28627],[9.35842,47.28606],[9.35913,47.28636],[9.35913,47.28688],[9.36116,47.28723],[9.36181,47.28714],[9.3623,47.28746],[9.36334,47.28744],[9.36424,47.28783],[9.36678,47.28822],[9.36702,47.28859],[9.36816,47.28907],[9.36951,47.28892],[9.36985,47.28923],[9.37062,47.28924],[9.37185,47.2896],[9.37212,47.29017],[9.37359,47.29027],[9.37416,47.29065],[9.37533,47.29084],[9.37689,47.29144],[9.37768,47.29156],[9.37933,47.29141],[9.38059,47.29166],[9.38104,47.29195],[9.38257,47.29194],[9.38271,47.29234],[9.38344,47.2928],[9.3877,47.29364],[9.38848,47.29426],[9.38855,47.2948],[9.39007,47.29477],[9.3913,47.29554],[9.39174,47.29618],[9.39315,47.29612],[9.39706,47.29694],[9.39765,47.29721],[9.398,47.29799],[9.39826,47.29811],[9.40133,47.29809],[9.40339,47.29954],[9.40564,47.30011],[9.40685,47.30077],[9.40806,47.30109],[9.40817,47.30198],[9.40939,47.30209],[9.4117,47.30168],[9.41317,47.30169],[9.41384,47.30246],[9.41582,47.30293],[9.4171,47.30403],[9.41778,47.304],[9.41834,47.30481],[9.42054,47.30535],[9.42069,47.30614],[9.42094,47.30633],[9.4235,47.30647],[9.42445,47.30677],[9.42479,47.30729],[9.42471,47.30798],[9.42521,47.30854],[9.42633,47.3087],[9.42681,47.30902],[9.42728,47.3085],[9.42809,47.30845],[9.42887,47.30876],[9.42936,47.31005],[9.43052,47.31029],[9.43136,47.30983],[9.43205,47.30996],[9.43256,47.3105],[9.43267,47.31147],[9.43418,47.31241]]}},{"type":"Feature","properties":{"id":"schwendibach-ai","c":"AI","p":"patent","q":"derived","k":"river"},"geometry":{"type":"MultiLineString","coordinates":[[[9.40146,47.26992],[9.40152,47.26992]],[[9.4026,47.26999],[9.40335,47.27031],[9.40427,47.27029]],[[9.40427,47.27029],[9.40485,47.27042]],[[9.40427,47.27029],[9.40452,47.27044],[9.40485,47.27042]],[[9.40485,47.27042],[9.40516,47.27048],[9.40529,47.271],[9.40612,47.27105],[9.40643,47.27131],[9.40602,47.27198],[9.40922,47.27275],[9.41027,47.27356],[9.41132,47.27396],[9.41211,47.27497],[9.4131,47.27556],[9.41393,47.27667],[9.4157,47.27831],[9.41658,47.2787],[9.418,47.27892],[9.42023,47.28016],[9.42213,47.2806],[9.42367,47.28134],[9.42411,47.28205],[9.425,47.28242],[9.42552,47.2835],[9.42806,47.28565],[9.43096,47.28881],[9.4311,47.28941],[9.43068,47.29102],[9.43392,47.29258],[9.43436,47.293],[9.43547,47.2948],[9.43529,47.29617],[9.43427,47.29782],[9.43521,47.30081],[9.43492,47.30151],[9.43381,47.30258],[9.43404,47.3046],[9.43322,47.30564],[9.43369,47.30664],[9.43453,47.30718],[9.43615,47.30781],[9.43549,47.30908],[9.43409,47.30983],[9.43453,47.31106],[9.43418,47.31241]]]}},{"type":"Feature","properties":{"id":"brueelbach-ai","c":"AI","p":"patent","q":"derived","k":"river"},"geometry":{"type":"LineString","coordinates":[[9.48208,47.28852],[9.48041,47.28899],[9.47771,47.2901],[9.4773,47.28978],[9.47654,47.28957],[9.47471,47.29015],[9.4737,47.29008],[9.47004,47.28908],[9.46884,47.28896],[9.46749,47.28903],[9.46626,47.28984],[9.46557,47.28993],[9.46418,47.28979],[9.4623,47.28934],[9.46174,47.28906],[9.46006,47.2891],[9.45974,47.28995],[9.45907,47.29042],[9.45894,47.2927],[9.45832,47.29385],[9.45632,47.29524],[9.45594,47.29576],[9.45483,47.29624],[9.45358,47.29711],[9.45303,47.29699],[9.45271,47.29764],[9.45198,47.29751],[9.45161,47.29796],[9.45079,47.29825],[9.45071,47.29922],[9.44963,47.29984],[9.45036,47.30082],[9.4491,47.30148],[9.44873,47.30212],[9.44782,47.30279],[9.44801,47.30321],[9.44718,47.30333],[9.44421,47.30323],[9.44383,47.30398],[9.44282,47.30441],[9.44212,47.30564],[9.4412,47.30604],[9.44065,47.30572],[9.44032,47.30573],[9.43977,47.30618],[9.43897,47.30637],[9.4379,47.30767],[9.43615,47.30781]]}},{"type":"Feature","properties":{"id":"seckbach-ai","c":"AI","p":"patent","q":"derived","k":"river"},"geometry":{"type":"LineString","coordinates":[[9.32998,47.28951],[9.33475,47.28931],[9.33622,47.28899],[9.33885,47.28703],[9.34002,47.28698],[9.34067,47.28601],[9.34096,47.28504],[9.34148,47.28477],[9.3422,47.28387],[9.34963,47.28507],[9.35139,47.28506],[9.35637,47.28572],[9.35713,47.28539],[9.35748,47.28585]]}}]}