{"type":"FeatureCollection","features":[{"type":"Feature","properties":{"id":"wissbach-ar","c":"AR","p":"pacht","q":"derived","k":"river"},"geometry":{"type":"MultiLineString","coordinates":[[[9.248,47.35012],[9.24741,47.35058],[9.24644,47.35088],[9.24333,47.35252],[9.24198,47.35238],[9.24141,47.35298],[9.24072,47.35317],[9.24065,47.35339],[9.23946,47.35388],[9.23892,47.35391],[9.23741,47.35485],[9.23688,47.35474],[9.23628,47.3552],[9.23554,47.35495],[9.23544,47.35534],[9.23505,47.3554],[9.23484,47.356],[9.23409,47.35621],[9.23316,47.35677],[9.23226,47.35769],[9.23169,47.35871],[9.23101,47.35914],[9.23028,47.3591],[9.23007,47.35941],[9.22981,47.35921],[9.22949,47.3595],[9.22913,47.35942],[9.22853,47.35967],[9.22706,47.35985],[9.22605,47.35968],[9.2253,47.35988],[9.22489,47.35967],[9.22465,47.36005],[9.22404,47.3601],[9.22356,47.36056],[9.2222,47.36322],[9.22234,47.36394],[9.2221,47.36416],[9.22245,47.3651],[9.22186,47.36553],[9.22138,47.36649],[9.22224,47.36697],[9.22125,47.3685],[9.2214,47.36935],[9.22095,47.36994],[9.22178,47.37013],[9.22164,47.37037],[9.2219,47.37071],[9.22141,47.37105],[9.22193,47.37275],[9.22227,47.37317],[9.22089,47.37333],[9.22085,47.37456],[9.22032,47.37513],[9.22054,47.37571],[9.21994,47.37581],[9.21974,47.37604],[9.21984,47.37681],[9.22178,47.37792],[9.2219,47.37816],[9.22147,47.37922],[9.22002,47.38064],[9.21996,47.38122],[9.21921,47.38185],[9.21935,47.38204],[9.22001,47.38166],[9.22043,47.38224],[9.21955,47.38228],[9.21946,47.38256]],[[9.22079,47.38584],[9.22191,47.38655]],[[9.22274,47.38742],[9.22319,47.38765],[9.22339,47.38723],[9.22413,47.3868],[9.22497,47.38677]],[[9.22867,47.3871],[9.22921,47.38694],[9.22984,47.38715],[9.23052,47.38709],[9.23115,47.3877],[9.23217,47.38798]],[[9.23084,47.39661],[9.23052,47.39687],[9.23059,47.39715],[9.23178,47.39739],[9.23254,47.398]],[[9.23192,47.394],[9.23185,47.39437],[9.23256,47.39448],[9.23229,47.39485]]]}},{"type":"Feature","properties":{"id":"bruederbach-ar","c":"AR","p":"pacht","q":"derived","k":"river"},"geometry":{"type":"MultiLineString","coordinates":[[[9.47494,47.39308],[9.4746,47.39395],[9.47296,47.39599],[9.47291,47.39696],[9.47312,47.39735],[9.47269,47.3977],[9.47294,47.39809],[9.47184,47.39866],[9.47158,47.39911],[9.47014,47.39998],[9.46888,47.40127],[9.46837,47.40136],[9.46811,47.40185],[9.46756,47.40202],[9.46696,47.40289],[9.46701,47.40348],[9.46674,47.40377],[9.46657,47.40452],[9.46716,47.40598],[9.46752,47.40616],[9.4676,47.40646],[9.47065,47.40956],[9.47061,47.41125]],[[9.48296,47.38665],[9.48218,47.38649],[9.48018,47.38654],[9.47883,47.38726],[9.47785,47.38744],[9.4774,47.38736],[9.47703,47.38767],[9.47613,47.38778],[9.47511,47.38829],[9.47483,47.38818],[9.47438,47.38886],[9.47449,47.38916],[9.47393,47.38966],[9.47399,47.3903],[9.47368,47.39037],[9.47334,47.3912],[9.47353,47.39184],[9.47394,47.39211],[9.47407,47.39252],[9.47446,47.39269]]]}},{"type":"Feature","properties":{"id":"freibach-ar","c":"AR","p":"pacht","q":"derived","k":"river"},"geometry":{"type":"MultiLineString","coordinates":[[[9.50646,47.43302],[9.50918,47.43092],[9.5098,47.42958],[9.50954,47.42919],[9.50968,47.42878],[9.51142,47.42856],[9.51326,47.42891],[9.51398,47.42949],[9.51499,47.4295],[9.5165,47.43047],[9.5174,47.43168],[9.51911,47.43262],[9.52108,47.43281],[9.52284,47.43368],[9.52398,47.43338],[9.52485,47.43403],[9.52823,47.43457],[9.52982,47.435],[9.53085,47.43498],[9.53244,47.43584],[9.53292,47.43642],[9.53362,47.4368],[9.53555,47.43899],[9.53547,47.43996],[9.53481,47.44167],[9.53512,47.44278],[9.53574,47.44337],[9.53647,47.44308],[9.53792,47.44342],[9.53808,47.44384],[9.53756,47.44477],[9.53834,47.44543],[9.5391,47.44572]],[[9.54011,47.44614],[9.54007,47.4465]],[[9.54073,47.44811],[9.54,47.44932],[9.54024,47.44979],[9.54148,47.45011],[9.54155,47.45114],[9.54206,47.45174],[9.54235,47.45284],[9.54211,47.45354],[9.54256,47.45405],[9.54239,47.45491],[9.54263,47.45539],[9.54336,47.45578],[9.54316,47.45631],[9.54475,47.457],[9.54507,47.4573],[9.54481,47.45769],[9.54516,47.45904],[9.54575,47.45948],[9.54584,47.46119],[9.54734,47.4617],[9.54821,47.46234],[9.54932,47.46273],[9.55066,47.46373],[9.55157,47.46381],[9.55228,47.46416],[9.55295,47.46401]]]}},{"type":"Feature","properties":{"id":"klusbach-ar","c":"AR","p":"pacht","q":"derived","k":"river"},"geometry":{"type":"MultiLineString","coordinates":[[[9.56467,47.44022],[9.56531,47.44213],[9.56509,47.4429],[9.56362,47.44458],[9.56273,47.44467],[9.5628,47.44494],[9.56229,47.44549],[9.5623,47.44618],[9.56166,47.44731],[9.56063,47.44772],[9.56036,47.44828],[9.56047,47.44936],[9.56159,47.44979],[9.56068,47.45038],[9.55955,47.45186],[9.55695,47.45324],[9.55678,47.4539],[9.55711,47.45411],[9.55706,47.45437]],[[9.55752,47.45499],[9.55849,47.45578],[9.55901,47.45654],[9.55905,47.45766],[9.56,47.45807],[9.56141,47.45971],[9.56147,47.46024],[9.56106,47.4606],[9.56107,47.46137],[9.56138,47.46168],[9.56116,47.46233],[9.56224,47.46301]]]}},{"type":"Feature","properties":{"id":"fitzibach-ar","c":"AR","p":"pacht","q":"derived","k":"river"},"geometry":{"type":"LineString","coordinates":[[9.33146,47.34497],[9.32982,47.34655],[9.32829,47.34717],[9.32601,47.34769],[9.32428,47.34854],[9.32374,47.3486],[9.32247,47.34831],[9.32097,47.34888],[9.31939,47.34857],[9.3184,47.34855],[9.3173,47.34919],[9.31566,47.3498],[9.31488,47.35036],[9.31486,47.35082],[9.31435,47.35149],[9.31322,47.35227],[9.31338,47.3531],[9.31251,47.35393],[9.31217,47.35536],[9.31101,47.35614],[9.31049,47.35759],[9.30893,47.35729],[9.30729,47.35759],[9.30666,47.35813],[9.30509,47.35863],[9.30454,47.35914],[9.30416,47.35911],[9.30319,47.35974],[9.3032,47.35998],[9.30241,47.36018],[9.30227,47.36084],[9.30147,47.36091]]}},{"type":"Feature","properties":{"id":"murbach-ar","c":"AR","p":"pacht","q":"derived","k":"river"},"geometry":{"type":"LineString","coordinates":[[9.26513,47.33646],[9.26535,47.33672],[9.26578,47.33658],[9.26618,47.337],[9.26665,47.33776],[9.26651,47.3382],[9.26703,47.33839],[9.26667,47.33855],[9.26676,47.3389],[9.26741,47.33933],[9.26766,47.34006],[9.26819,47.34041],[9.26758,47.34059],[9.26666,47.34178],[9.26729,47.34241],[9.26903,47.34292],[9.27091,47.3424],[9.27097,47.34203],[9.27176,47.3421],[9.27231,47.34183],[9.27273,47.34219],[9.27432,47.34225],[9.27494,47.34204],[9.27543,47.34229],[9.27677,47.34221],[9.27863,47.34242],[9.2794,47.34152],[9.27949,47.34219],[9.2805,47.34273],[9.28042,47.34313],[9.28316,47.34389],[9.28611,47.34389],[9.28944,47.34541],[9.28966,47.34579],[9.29069,47.34578],[9.29129,47.346],[9.29252,47.34734],[9.29611,47.34792]]}},{"type":"Feature","properties":{"id":"riserenbach-ar","c":"AR","p":"pacht","q":"derived","k":"river"},"geometry":{"type":"MultiLineString","coordinates":[[[9.29696,47.3307],[9.29633,47.3309],[9.29559,47.33045],[9.29487,47.33038]],[[9.32812,47.34066],[9.32646,47.33977],[9.32554,47.33967],[9.32469,47.33981],[9.32369,47.3394],[9.32252,47.33866],[9.31987,47.33748],[9.31848,47.33614],[9.31664,47.33574],[9.31388,47.33553],[9.31289,47.33526],[9.31116,47.33548],[9.30958,47.33442],[9.30865,47.33322],[9.30705,47.33241],[9.30552,47.33246],[9.30392,47.33192],[9.3031,47.33084],[9.3031,47.3305],[9.30249,47.33053],[9.30225,47.33017],[9.30113,47.33028],[9.29985,47.32989],[9.29744,47.33061]]]}},{"type":"Feature","properties":{"id":"duerrenbach-ar","c":"AR","p":"pacht","q":"derived","k":"river"},"geometry":{"type":"LineString","coordinates":[[9.30256,47.28619],[9.30189,47.28578],[9.30046,47.28536],[9.29921,47.28464],[9.29751,47.28477],[9.29595,47.28611],[9.29567,47.28689],[9.29499,47.28759],[9.29239,47.28932],[9.29083,47.29115],[9.29077,47.29249],[9.29005,47.29509],[9.29038,47.29567],[9.29034,47.29651],[9.29075,47.29731],[9.28973,47.29906],[9.28793,47.2992],[9.28487,47.30001],[9.2841,47.30053],[9.28299,47.30058],[9.28195,47.30005],[9.28184,47.29967],[9.28023,47.29963],[9.2801,47.29914],[9.27878,47.29917],[9.27832,47.2989],[9.27669,47.29936],[9.27592,47.29925],[9.2759,47.29976],[9.27504,47.29972],[9.27472,47.30013],[9.27334,47.30065]]}},{"type":"Feature","properties":{"id":"tosbach-ar","c":"AR","p":"pacht","q":"derived","k":"river"},"geometry":{"type":"LineString","coordinates":[[9.32915,47.26061],[9.32891,47.26161],[9.32791,47.26264],[9.32764,47.26263],[9.32717,47.26222],[9.32635,47.26237],[9.32616,47.2626],[9.32552,47.2627],[9.32558,47.26355],[9.32489,47.26368],[9.32452,47.26345],[9.3237,47.26343],[9.32305,47.26305],[9.32247,47.26355],[9.32109,47.26416],[9.32182,47.26634],[9.32233,47.2666],[9.32355,47.26665],[9.32381,47.26747],[9.32338,47.26774],[9.32335,47.26843],[9.32278,47.26885],[9.32275,47.26942],[9.32237,47.2698],[9.32259,47.27007],[9.32236,47.27055],[9.31987,47.27147],[9.31986,47.27181],[9.31758,47.2719],[9.31626,47.27149],[9.31591,47.27186],[9.31507,47.27134],[9.31425,47.27193],[9.31304,47.2716],[9.31265,47.272],[9.31169,47.27193],[9.31129,47.2723],[9.31019,47.27213],[9.30951,47.27233],[9.30897,47.27217],[9.30845,47.27162],[9.30767,47.27191],[9.30673,47.27143],[9.30568,47.27166],[9.30396,47.27136],[9.30345,47.27158],[9.30198,47.27292],[9.30117,47.27302],[9.30052,47.27289],[9.3,47.27312],[9.29618,47.27195],[9.29535,47.27184],[9.29438,47.27236],[9.29324,47.27249],[9.29294,47.27272],[9.29148,47.27305],[9.29051,47.27396],[9.28978,47.27408]]}},{"type":"Feature","properties":{"id":"wattbach-ar","c":"AR","p":"pacht","q":"derived","k":"river"},"geometry":{"type":"MultiLineString","coordinates":[[[9.35735,47.40217],[9.35539,47.40275],[9.35473,47.40346],[9.35436,47.40344],[9.35205,47.40242],[9.34856,47.40132],[9.34757,47.40131],[9.34544,47.40058],[9.34326,47.40013]],[[9.36627,47.40473],[9.3646,47.40467],[9.36408,47.40442],[9.36366,47.40458],[9.3633,47.40448]],[[9.39096,47.40187],[9.39053,47.40232],[9.38966,47.40439],[9.38705,47.40558],[9.3853,47.40564],[9.3829,47.40632],[9.38147,47.40621],[9.38095,47.40652],[9.37987,47.4068],[9.37901,47.40674],[9.37839,47.40732],[9.37715,47.40751],[9.37608,47.40727],[9.37503,47.40769],[9.3728,47.40719],[9.37161,47.40767],[9.36935,47.4069]]]}},{"type":"Feature","properties":{"id":"goldibach-ar","c":"AR","p":"pacht","q":"derived","k":"river"},"geometry":{"type":"LineString","coordinates":[[9.44524,47.39327],[9.44346,47.39329],[9.44191,47.39231],[9.44167,47.39231],[9.44166,47.39248],[9.44113,47.39226],[9.44081,47.39202],[9.44089,47.3918],[9.43995,47.39136],[9.43887,47.39098],[9.43784,47.39096],[9.43725,47.39155],[9.43663,47.3918],[9.43527,47.39174],[9.43405,47.39198],[9.43283,47.39312],[9.43299,47.39371],[9.43235,47.39377],[9.43209,47.3941],[9.43153,47.39409],[9.43122,47.39438],[9.42959,47.39424],[9.42921,47.39454],[9.42885,47.39443],[9.42877,47.39507],[9.42819,47.39569],[9.4276,47.39569],[9.42692,47.3961],[9.42716,47.39688],[9.42645,47.39657],[9.4256,47.39676],[9.42503,47.39665],[9.42451,47.39687],[9.42404,47.39679],[9.42364,47.39718],[9.42284,47.39684],[9.42164,47.39686],[9.4211,47.39661],[9.42088,47.3958],[9.41818,47.39543],[9.41717,47.39491],[9.41655,47.39434],[9.41566,47.39404],[9.41558,47.39455],[9.41516,47.39492],[9.41288,47.39511],[9.41232,47.39443],[9.41149,47.39448],[9.4109,47.39401],[9.40991,47.39392],[9.40929,47.39408],[9.40868,47.39393],[9.40742,47.39329],[9.40696,47.3926],[9.40622,47.39256],[9.4057,47.392],[9.4049,47.39209],[9.40488,47.39175],[9.40525,47.3913],[9.40405,47.39088],[9.40405,47.38997],[9.4038,47.3897],[9.40309,47.3895],[9.40158,47.38977],[9.40074,47.38925],[9.40067,47.38816],[9.39913,47.38761],[9.39854,47.38678],[9.39786,47.3865],[9.39652,47.38682],[9.39561,47.38616],[9.39645,47.38567],[9.39649,47.38535],[9.3959,47.38485],[9.39584,47.38436],[9.39511,47.38384],[9.39506,47.38292],[9.39479,47.38259],[9.39284,47.38177],[9.39286,47.3813],[9.3936,47.38033]]}},{"type":"Feature","properties":{"id":"zwislenbach-ar","c":"AR","p":"pacht","q":"derived","k":"river"},"geometry":{"type":"MultiLineString","coordinates":[[[9.44479,47.35695],[9.44416,47.35772],[9.4431,47.35845],[9.44303,47.35926],[9.44273,47.35959]],[[9.48037,47.3498],[9.47984,47.3512],[9.47983,47.35185],[9.47866,47.35316],[9.47876,47.3537],[9.47833,47.35404],[9.47789,47.35506],[9.47741,47.35526],[9.47725,47.35555],[9.47724,47.35796],[9.4767,47.35878],[9.47668,47.35954],[9.47565,47.35947],[9.47501,47.35923],[9.47098,47.35902],[9.46909,47.35811],[9.46902,47.3578],[9.46833,47.3577],[9.46758,47.35726],[9.46649,47.35759],[9.46544,47.35744],[9.46124,47.35751],[9.46019,47.35669],[9.45725,47.35626],[9.45512,47.3553],[9.45265,47.35445],[9.45139,47.35429],[9.45004,47.35437]]]}},{"type":"Feature","properties":{"id":"zwislerbach-ar","c":"AR","p":"pacht","q":"derived","k":"river"},"geometry":{"type":"LineString","coordinates":[[9.23773,47.30942],[9.23763,47.30836],[9.23662,47.30724],[9.23563,47.30703],[9.23547,47.30677],[9.23298,47.30574],[9.23071,47.30438],[9.23058,47.30387],[9.22993,47.30386],[9.22965,47.30356],[9.22871,47.30327],[9.22757,47.30355],[9.2263,47.30332],[9.22432,47.30198],[9.22247,47.30126],[9.22147,47.3013],[9.22106,47.30147],[9.21948,47.301],[9.21826,47.30094],[9.21721,47.30045]]}},{"type":"Feature","properties":{"id":"roetelbach-ar","c":"AR","p":"pacht","q":"derived","k":"river"},"geometry":{"type":"MultiLineString","coordinates":[[[9.22213,47.29561],[9.22172,47.29604],[9.22211,47.29635],[9.22054,47.29699],[9.21981,47.29849],[9.21882,47.29877],[9.21773,47.29966],[9.21689,47.29962],[9.21732,47.30022],[9.21721,47.30045]],[[9.25242,47.27699],[9.2517,47.27811],[9.25178,47.27881],[9.25101,47.28031],[9.25077,47.28058],[9.25005,47.28079],[9.24976,47.2812],[9.24983,47.2822],[9.24903,47.28403],[9.24823,47.28517],[9.24752,47.28567],[9.24725,47.28643],[9.24481,47.28815],[9.24424,47.28884],[9.24308,47.28943],[9.24248,47.28943],[9.24096,47.29048],[9.24072,47.29105],[9.23983,47.29155],[9.23909,47.29149],[9.23802,47.29188],[9.23578,47.29186],[9.23514,47.29164],[9.23449,47.29166],[9.23315,47.29213],[9.23235,47.29183],[9.2317,47.29203],[9.22969,47.29205],[9.22796,47.29173],[9.227,47.29212],[9.22587,47.292],[9.22543,47.29254],[9.22403,47.29302],[9.22406,47.29352]]]}},{"type":"Feature","properties":{"id":"sitter-ar","c":"AR","p":"pacht","q":"derived","k":"river"},"geometry":{"type":"MultiLineString","coordinates":[[[9.3515,47.38206],[9.35094,47.38221],[9.35014,47.38311],[9.34831,47.38429],[9.34835,47.38477],[9.34764,47.38624],[9.34779,47.38722],[9.34815,47.38764],[9.34808,47.38817],[9.34729,47.38891],[9.34716,47.3894],[9.34637,47.39034],[9.34646,47.39116],[9.34588,47.39153],[9.34571,47.39272],[9.3444,47.39374],[9.34432,47.39495],[9.34336,47.39594],[9.34338,47.3969],[9.34277,47.3981],[9.34224,47.39845],[9.34046,47.39906],[9.33971,47.39963]],[[9.35681,47.37169],[9.35944,47.37333],[9.35895,47.37436],[9.3592,47.37614],[9.35871,47.37709],[9.35872,47.37773]]]}},{"type":"Feature","properties":{"id":"goldach-ar","c":"AR","p":"pacht","q":"derived","k":"river"},"geometry":{"type":"LineString","coordinates":[[9.5065,47.39407],[9.50757,47.3944],[9.50813,47.39548],[9.50774,47.39617],[9.50779,47.39661],[9.50714,47.39733],[9.50727,47.39819],[9.50609,47.39915],[9.50565,47.39909],[9.50493,47.39937],[9.50431,47.39996],[9.50312,47.40006],[9.5028,47.40056],[9.50195,47.40087],[9.50181,47.40109],[9.50092,47.40113],[9.50034,47.4014],[9.49921,47.40115],[9.49825,47.40124],[9.49758,47.40107],[9.4971,47.40139],[9.49679,47.40129],[9.49606,47.40185],[9.4954,47.40164],[9.49451,47.40175],[9.4939,47.40235],[9.49307,47.40253],[9.4913,47.40394],[9.4904,47.40384],[9.48959,47.40399],[9.48879,47.40465],[9.48718,47.40549],[9.48507,47.4056],[9.48308,47.40655],[9.48246,47.40652],[9.48195,47.40694],[9.48184,47.4073],[9.47945,47.40746],[9.47917,47.4077],[9.47842,47.40788],[9.47889,47.40889],[9.4783,47.40901],[9.47753,47.40949],[9.47389,47.41037],[9.47156,47.41071],[9.4711,47.41114],[9.46942,47.41181],[9.46927,47.41227],[9.46848,47.41296],[9.46721,47.41297],[9.46591,47.41329],[9.46553,47.41375],[9.46581,47.41407],[9.46532,47.41479],[9.46594,47.4152],[9.46606,47.41656],[9.46486,47.41681],[9.46438,47.41748],[9.46195,47.4177],[9.46147,47.41797],[9.46179,47.41854],[9.4613,47.41922],[9.45996,47.41962],[9.4588,47.41975],[9.45843,47.42001],[9.45831,47.42092],[9.45772,47.42158],[9.45829,47.42222],[9.45818,47.42269],[9.4576,47.42324],[9.45807,47.42407],[9.45711,47.42477],[9.45629,47.42584],[9.45576,47.42621],[9.45565,47.42743],[9.45615,47.42853],[9.45537,47.42924],[9.45396,47.42944],[9.454,47.42987],[9.45189,47.43106],[9.45145,47.4311],[9.45107,47.43085],[9.45055,47.43081],[9.44949,47.43127],[9.44831,47.43265],[9.44742,47.43286],[9.4467,47.4334],[9.44573,47.43332],[9.44394,47.43404],[9.44141,47.43329],[9.43935,47.43368],[9.43856,47.4343],[9.43791,47.43445],[9.43502,47.43429]]}},{"type":"Feature","properties":{"id":"necker-ar","c":"AR","p":"pacht","q":"derived","k":"river"},"geometry":{"type":"MultiLineString","coordinates":[[[9.21314,47.27329],[9.21164,47.27404],[9.21011,47.27455],[9.20877,47.27552]],[[9.22024,47.27001],[9.21835,47.27097],[9.21742,47.27069],[9.21666,47.27098],[9.21632,47.27119],[9.21633,47.27169],[9.21492,47.27244],[9.21419,47.27254],[9.21383,47.27277]],[[9.2563,47.26342],[9.25502,47.26467],[9.25383,47.26454],[9.25275,47.26515],[9.25167,47.26523],[9.25142,47.26557],[9.25096,47.2655]]]}},{"type":"Feature","properties":{"id":"rotbach-ar","c":"AR","p":"pacht","q":"derived","k":"river"},"geometry":{"type":"MultiLineString","coordinates":[[[9.37186,47.38406],[9.37101,47.38407],[9.36833,47.38509],[9.36744,47.38465],[9.36626,47.38463],[9.36568,47.38492],[9.3639,47.38429],[9.35897,47.38511],[9.3576,47.38481],[9.35727,47.38401],[9.35649,47.38346],[9.35561,47.38361],[9.35451,47.38425],[9.35014,47.38311]],[[9.37926,47.38673],[9.37899,47.3868],[9.37774,47.38637],[9.37726,47.38709],[9.37686,47.38719],[9.37346,47.38646]],[[9.40351,47.37614],[9.4027,47.37674],[9.40151,47.3767],[9.40038,47.37714],[9.40041,47.3776],[9.40127,47.37799],[9.40091,47.37835],[9.4001,47.37815],[9.39942,47.37743],[9.39879,47.37744],[9.39773,47.37812],[9.39776,47.37837],[9.39828,47.37859],[9.39816,47.37889],[9.39679,47.37934],[9.39557,47.37921],[9.39566,47.37993],[9.39547,47.38009],[9.39333,47.38023],[9.3914,47.37917],[9.39043,47.37771],[9.38929,47.37756],[9.38767,47.37795],[9.38626,47.3771],[9.38573,47.37744],[9.3856,47.37819],[9.38586,47.37888],[9.38565,47.37919],[9.38464,47.37954],[9.38326,47.37954],[9.38104,47.38014]],[[9.43115,47.3706],[9.43069,47.3712],[9.42901,47.3723],[9.42812,47.37204],[9.42707,47.37225],[9.42596,47.37191],[9.42472,47.37179],[9.42399,47.37131],[9.42201,47.37107],[9.41981,47.37114],[9.41771,47.37082],[9.41647,47.37142],[9.41512,47.37106],[9.41466,47.37145],[9.41206,47.37195],[9.41164,47.37221],[9.40995,47.37216],[9.40728,47.37342],[9.40694,47.37331],[9.4064,47.37264],[9.4053,47.3726],[9.40436,47.3732],[9.4033,47.37334],[9.40279,47.37409]],[[9.48481,47.37925],[9.48374,47.3776],[9.48011,47.37498],[9.47961,47.37337],[9.47874,47.37232],[9.47847,47.3724],[9.47756,47.37181],[9.47614,47.37141],[9.47612,47.37088],[9.47576,47.37096],[9.47545,47.37057],[9.47505,47.37055],[9.47531,47.37027],[9.47439,47.37005],[9.47416,47.36964],[9.47375,47.36966],[9.47395,47.37],[9.47342,47.36988],[9.47347,47.36961],[9.47263,47.36932],[9.47286,47.36892],[9.47195,47.3679],[9.47156,47.36791],[9.47071,47.36733],[9.46965,47.36758],[9.46967,47.36713],[9.46919,47.36709],[9.46902,47.36642],[9.46822,47.36655],[9.46699,47.3659],[9.46582,47.36579],[9.46471,47.36471],[9.46458,47.3638],[9.46432,47.36359],[9.46351,47.36348],[9.46351,47.36374],[9.46285,47.3638],[9.4622,47.36351],[9.46169,47.36298],[9.46113,47.3629],[9.45951,47.36323],[9.45935,47.36262],[9.4586,47.36248],[9.45802,47.36204],[9.45757,47.36198],[9.45733,47.36248],[9.45695,47.36246],[9.45615,47.36201],[9.45564,47.36204],[9.45487,47.36179],[9.45517,47.36127],[9.45439,47.36124],[9.45396,47.36098],[9.45325,47.36121],[9.45257,47.36058],[9.44888,47.35969],[9.44841,47.35914],[9.44857,47.35852],[9.4481,47.35792],[9.44625,47.35812],[9.445,47.35905],[9.44273,47.35959],[9.44019,47.36104],[9.43924,47.36092],[9.43878,47.36106],[9.43656,47.36227],[9.43493,47.36284],[9.43468,47.36337]]]}},{"type":"Feature","properties":{"id":"urnaesch-ar","c":"AR","p":"pacht","q":"derived","k":"river"},"geometry":{"type":"LineString","coordinates":[[9.30637,47.2595],[9.30619,47.25965],[9.3055,47.25944],[9.30532,47.25969],[9.3028,47.2602],[9.30224,47.26008],[9.30152,47.26057],[9.29992,47.26078],[9.29811,47.26138],[9.29731,47.2622],[9.29661,47.26207],[9.29641,47.2623],[9.29571,47.26237],[9.29561,47.26271],[9.29515,47.26297],[9.29527,47.26354],[9.29459,47.26391],[9.29497,47.26438],[9.29418,47.26544],[9.29309,47.26636],[9.29225,47.26643],[9.29195,47.26661],[9.29142,47.26791],[9.29071,47.2689],[9.29021,47.26922],[9.2901,47.26983],[9.28962,47.27019],[9.28929,47.27107],[9.29005,47.27226],[9.29005,47.27273],[9.28959,47.27288],[9.28978,47.27408],[9.28636,47.27555],[9.28544,47.27569],[9.28322,47.27646],[9.28142,47.27752],[9.2806,47.27901],[9.2795,47.27898],[9.27889,47.27961],[9.27746,47.27986],[9.27697,47.28017],[9.27639,47.28079],[9.27663,47.2821],[9.27642,47.28293],[9.27708,47.28375],[9.27695,47.28407],[9.2774,47.28483],[9.27874,47.28527],[9.27806,47.28575],[9.27755,47.28664],[9.27747,47.28755],[9.27684,47.28848],[9.27683,47.28889],[9.2774,47.28927],[9.2773,47.28961],[9.27484,47.29125],[9.27501,47.29264],[9.27438,47.29387],[9.27237,47.29396],[9.27127,47.29453],[9.26989,47.29483],[9.26958,47.29522],[9.27009,47.29618],[9.26993,47.29672],[9.27022,47.29694],[9.27098,47.29697],[9.27142,47.29718],[9.27101,47.29767],[9.27109,47.29799],[9.27198,47.29944],[9.2732,47.30052],[9.27243,47.30149],[9.27238,47.30204],[9.27379,47.30307],[9.27421,47.30395],[9.27513,47.30466],[9.27624,47.3051],[9.27717,47.30607],[9.27766,47.30725],[9.2786,47.30841],[9.27918,47.31002],[9.28014,47.31128],[9.28063,47.31375],[9.28152,47.31523],[9.28373,47.31666],[9.28547,47.31696],[9.28714,47.31682],[9.28783,47.31714],[9.2881,47.3177],[9.28808,47.3191],[9.28855,47.32001],[9.29005,47.3207],[9.29027,47.32092],[9.29019,47.32163],[9.2906,47.32194],[9.29091,47.32169],[9.29337,47.32209],[9.29363,47.32243],[9.29253,47.32334],[9.29244,47.32388],[9.29308,47.32404],[9.29333,47.3244],[9.29546,47.32478],[9.29479,47.32641],[9.29565,47.32686],[9.29601,47.32736],[9.2951,47.32846],[9.29521,47.32901],[9.2948,47.33019],[9.29426,47.33066],[9.2935,47.33094],[9.29202,47.33109],[9.29113,47.33226],[9.29102,47.33321],[9.29172,47.334],[9.29269,47.33451],[9.29244,47.33487],[9.29266,47.33544],[9.29387,47.33591],[9.29346,47.33632],[9.29348,47.3367],[9.2942,47.33775],[9.29396,47.33845],[9.2933,47.3392],[9.29381,47.3401],[9.29433,47.34037],[9.29437,47.34091],[9.29495,47.34183],[9.29481,47.34283],[9.29537,47.34561],[9.29676,47.34657],[9.29617,47.34752],[9.2966,47.34999],[9.29838,47.35205],[9.29823,47.3525],[9.2974,47.35276],[9.29734,47.35298],[9.29731,47.35406],[9.29764,47.35521],[9.29708,47.35625],[9.29798,47.35796],[9.29733,47.35863],[9.29736,47.35961],[9.29785,47.35995],[9.29985,47.35963],[9.30241,47.36182],[9.30595,47.36235],[9.30639,47.36252],[9.30623,47.36354],[9.30782,47.36351],[9.30829,47.36376],[9.30839,47.3646],[9.30743,47.36547],[9.30633,47.3661],[9.30603,47.3666],[9.30685,47.36766],[9.30882,47.36846],[9.30917,47.3694],[9.30945,47.36958],[9.31169,47.36941],[9.31513,47.37039],[9.31634,47.37116],[9.31813,47.37172],[9.31833,47.37219],[9.32025,47.37338],[9.32026,47.37363],[9.31973,47.37391],[9.32003,47.37423],[9.32282,47.3739],[9.32373,47.37439],[9.32417,47.375],[9.32409,47.37549],[9.32321,47.37641],[9.3247,47.37779],[9.32406,47.37976],[9.32601,47.3803],[9.32659,47.38109],[9.32634,47.38184],[9.32567,47.38214],[9.32481,47.38458],[9.3249,47.38508],[9.32537,47.38562],[9.32526,47.38685],[9.32542,47.38725],[9.32675,47.38782],[9.32659,47.38827],[9.32588,47.38891],[9.32704,47.38959],[9.32804,47.3909],[9.32667,47.39235],[9.32668,47.39285],[9.32588,47.39338],[9.32596,47.39434],[9.32548,47.39511],[9.32562,47.3957],[9.32596,47.39637],[9.32697,47.39723],[9.32614,47.39798],[9.32635,47.39837],[9.32638,47.40025],[9.32541,47.40032],[9.32503,47.40053]]}},{"type":"Feature","properties":{"id":"glatt-ar","c":"AR","p":"pacht","q":"derived","k":"river"},"geometry":{"type":"MultiLineString","coordinates":[[[9.24714,47.39863],[9.24651,47.39858],[9.2445,47.39935],[9.24258,47.39839],[9.24171,47.39834],[9.24105,47.39782],[9.24025,47.39755]],[[9.24924,47.3996],[9.2488,47.39926]],[[9.25009,47.35048],[9.25061,47.35131],[9.25188,47.35165],[9.2527,47.3516],[9.25309,47.3518],[9.25406,47.35335],[9.25551,47.3538],[9.25666,47.35473],[9.25907,47.35555],[9.26017,47.35669],[9.26042,47.35757],[9.26031,47.35836],[9.2609,47.359],[9.26102,47.35965],[9.26181,47.36001],[9.26041,47.36143],[9.26056,47.36164],[9.25934,47.36439],[9.25947,47.36505],[9.25992,47.3653],[9.25974,47.36548],[9.26012,47.36608],[9.26022,47.36697],[9.25977,47.36775],[9.25975,47.36913],[9.25915,47.36972],[9.25921,47.37031],[9.25855,47.37096],[9.25881,47.37201],[9.25949,47.37233],[9.26034,47.37217],[9.26122,47.37287],[9.26177,47.37292],[9.26237,47.37398],[9.26327,47.37428],[9.2642,47.37498],[9.26603,47.37558],[9.2658,47.37613],[9.26689,47.37649],[9.26658,47.37708],[9.26786,47.37752],[9.2685,47.37853],[9.26927,47.37872],[9.26818,47.38008],[9.26847,47.38086],[9.26952,47.3817],[9.26955,47.38213],[9.27035,47.38283],[9.27102,47.38282],[9.27147,47.38315],[9.27248,47.38337],[9.27302,47.3839],[9.27295,47.38443],[9.27375,47.38489],[9.27408,47.3854],[9.27308,47.38693],[9.27146,47.38752],[9.27116,47.38965],[9.27046,47.39114],[9.26861,47.39249],[9.26739,47.39203],[9.26689,47.39281],[9.26631,47.3928],[9.26559,47.39333],[9.2637,47.39343],[9.26212,47.39378],[9.26108,47.39368],[9.25999,47.39454],[9.25981,47.39492],[9.25836,47.39558],[9.25696,47.3969],[9.25711,47.39803],[9.25754,47.39865],[9.25719,47.3993]]]}},{"type":"Feature","properties":{"id":"moosbach-ar","c":"AR","p":"pacht","q":"derived","k":"river"},"geometry":{"type":"MultiLineString","coordinates":[[[9.4922,47.42384],[9.49171,47.42409],[9.49094,47.42396],[9.49069,47.4237],[9.49072,47.42327],[9.49017,47.42273],[9.48957,47.42283],[9.48665,47.42223],[9.48615,47.42239],[9.48533,47.422],[9.48457,47.42183],[9.48361,47.42186],[9.48293,47.42146],[9.48216,47.42138],[9.48088,47.42046],[9.48074,47.41992],[9.47998,47.41974],[9.47978,47.41937],[9.47804,47.41877],[9.47733,47.41892],[9.47607,47.41842],[9.47521,47.41859],[9.4739,47.41845],[9.47322,47.41806],[9.47264,47.41814],[9.46909,47.41707],[9.46834,47.41732],[9.46475,47.41696]],[[9.50658,47.42799],[9.50565,47.42706],[9.50394,47.42623],[9.50183,47.42572],[9.50028,47.42606],[9.49628,47.42525],[9.49572,47.42534],[9.49455,47.42517],[9.49396,47.4253],[9.49333,47.42442],[9.49298,47.42427]]]}},{"type":"Feature","properties":{"id":"wissbach-ar-2","c":"AR","p":"pacht","q":"derived","k":"river"},"geometry":{"type":"MultiLineString","coordinates":[[[9.3099,47.3215],[9.30752,47.32176],[9.3072,47.32117],[9.30649,47.32096],[9.30608,47.32108],[9.3061,47.32129],[9.30564,47.32155],[9.30516,47.32139],[9.30403,47.32041],[9.30335,47.32028],[9.3028,47.32073],[9.30214,47.32055],[9.30118,47.32068],[9.30015,47.32052],[9.29762,47.32094],[9.297,47.32144],[9.29564,47.32193],[9.29563,47.32211],[9.29625,47.32227],[9.29594,47.32451],[9.29549,47.32492]],[[9.31418,47.32115],[9.31393,47.32154]],[[9.31348,47.29183],[9.31342,47.29294],[9.31265,47.29387],[9.31319,47.29569],[9.31308,47.29616],[9.31463,47.29782],[9.31472,47.29899],[9.31564,47.30008]],[[9.31646,47.28927],[9.31573,47.28919],[9.31455,47.29001],[9.31441,47.29035]],[[9.31601,47.30122],[9.31709,47.30193]],[[9.31885,47.28611],[9.31862,47.28671],[9.31883,47.28709],[9.31832,47.28796],[9.31856,47.2883],[9.31789,47.28865],[9.31777,47.28897]]]}},{"type":"Feature","properties":{"id":"wissbach-ar-3","c":"AR","p":"pacht","q":"derived","k":"river"},"geometry":{"type":"LineString","coordinates":[[9.46461,47.38958],[9.46293,47.3888],[9.46146,47.38858],[9.46072,47.38827],[9.4599,47.38832],[9.45961,47.38792],[9.45886,47.38751],[9.4564,47.38652],[9.45605,47.38656],[9.45479,47.38591],[9.45225,47.38529],[9.45058,47.38416],[9.44991,47.38409],[9.44878,47.38342],[9.44816,47.38343],[9.44708,47.383],[9.44536,47.38197],[9.44423,47.38176],[9.44371,47.38199],[9.44252,47.38155],[9.44248,47.38096],[9.44058,47.38023],[9.4402,47.37988],[9.43915,47.37969],[9.43843,47.37991],[9.4371,47.37917],[9.43666,47.37912],[9.43499,47.37813],[9.43539,47.37678],[9.4345,47.3766],[9.43353,47.37619],[9.43314,47.37576],[9.43215,47.37559],[9.43165,47.37521],[9.42937,47.37437],[9.42894,47.37403],[9.42901,47.37356],[9.42754,47.3728],[9.42741,47.37224]]}}]}