{"type":"FeatureCollection","features":[{"type":"Feature","properties":{"id":"arisdorfer-bach-bl","c":"BL","p":"pacht","q":"derived","k":"river"},"geometry":{"type":"LineString","coordinates":[[7.76864,47.49763],[7.76691,47.49863],[7.76539,47.50039],[7.76372,47.50173],[7.76378,47.50243],[7.76357,47.50269],[7.76391,47.5041],[7.76448,47.50491],[7.76417,47.50657],[7.76451,47.50831],[7.76233,47.51296],[7.76081,47.51407],[7.75869,47.51505],[7.75899,47.51522],[7.75814,47.51615],[7.75811,47.51658],[7.75741,47.51676],[7.75666,47.51774],[7.7547,47.51865],[7.75183,47.52121],[7.75079,47.52186],[7.75024,47.52259],[7.75039,47.52284],[7.74996,47.52349],[7.74882,47.52395],[7.74847,47.52392]]}},{"type":"Feature","properties":{"id":"hintere-frenke-bl","c":"BL","p":"pacht","q":"derived","k":"river"},"geometry":{"type":"MultiLineString","coordinates":[[[7.69917,47.37283],[7.69829,47.3743],[7.69784,47.37452],[7.69793,47.37542],[7.69772,47.37601],[7.69775,47.377],[7.69854,47.37812],[7.69853,47.37924],[7.69792,47.38071],[7.69862,47.38126],[7.69886,47.38321],[7.69838,47.38371],[7.69856,47.38528],[7.69833,47.38573],[7.69837,47.38679],[7.69783,47.38719],[7.69767,47.3876],[7.69813,47.38881],[7.69565,47.39129],[7.69458,47.3929],[7.69343,47.39381],[7.69281,47.39502],[7.69173,47.39636],[7.6913,47.39851],[7.69098,47.39879],[7.69078,47.40106],[7.68945,47.40373],[7.6904,47.40631],[7.69208,47.4082],[7.69208,47.41041],[7.69311,47.41131],[7.6933,47.41178],[7.69324,47.4127],[7.69219,47.4141],[7.69268,47.4159],[7.69207,47.41679],[7.69217,47.41712],[7.69163,47.41728],[7.69223,47.41817],[7.6918,47.41928],[7.69323,47.42065],[7.69488,47.42177],[7.69497,47.42227],[7.69562,47.42287],[7.69646,47.42297],[7.69684,47.42352],[7.6974,47.42381],[7.69813,47.42475],[7.69809,47.42536],[7.69917,47.42629],[7.70005,47.42666],[7.70091,47.42763],[7.70289,47.4291],[7.70305,47.42974],[7.70418,47.43027],[7.70523,47.43125],[7.70603,47.43123],[7.70696,47.43076],[7.70752,47.4307],[7.70837,47.43086],[7.70952,47.43144],[7.71075,47.4315],[7.71269,47.43202],[7.71488,47.43212],[7.71524,47.43247],[7.7168,47.4329],[7.71743,47.43341],[7.71909,47.43411],[7.72039,47.43491],[7.7224,47.43538],[7.72631,47.43683],[7.72712,47.4382],[7.72767,47.44034],[7.72836,47.44081],[7.72921,47.44098],[7.72927,47.44157],[7.73015,47.44215],[7.73007,47.44268],[7.73127,47.44315],[7.73161,47.44362],[7.73205,47.44382],[7.73324,47.44395],[7.73298,47.44463],[7.7341,47.44486],[7.73427,47.44529],[7.73401,47.44581],[7.73519,47.44609],[7.73577,47.44767],[7.7356,47.44797],[7.73636,47.44915],[7.73631,47.44944],[7.73545,47.45023],[7.7352,47.45086],[7.73434,47.4516],[7.73364,47.45404],[7.73382,47.45468],[7.73491,47.45464],[7.73537,47.45492],[7.73501,47.45595],[7.73396,47.45627],[7.73361,47.45768],[7.73417,47.45863],[7.73402,47.45915],[7.73441,47.45953]],[[7.7001,47.37238],[7.69974,47.37248]]]}},{"type":"Feature","properties":{"id":"walibach-bl","c":"BL","p":"pacht","q":"derived","k":"river"},"geometry":{"type":"LineString","coordinates":[[7.78618,47.38029],[7.78441,47.38127],[7.78244,47.38192],[7.78179,47.38402],[7.78093,47.38458],[7.78,47.38464],[7.77893,47.38515],[7.77811,47.38505],[7.7766,47.38558],[7.77448,47.38579],[7.7733,47.38619],[7.77275,47.38615],[7.77167,47.38655],[7.77016,47.38769],[7.76946,47.38884],[7.76945,47.38938],[7.76972,47.39007],[7.77059,47.39074],[7.77173,47.39141],[7.77297,47.39168],[7.77435,47.39303],[7.7751,47.39315],[7.77589,47.39414],[7.77569,47.39555],[7.77662,47.3973],[7.77661,47.39778],[7.77788,47.39914],[7.77834,47.40012],[7.77824,47.40061],[7.77863,47.40187],[7.77975,47.40294],[7.78005,47.40357],[7.78179,47.40495],[7.7835,47.40535],[7.78516,47.40657],[7.78756,47.40711],[7.78842,47.40754],[7.78899,47.40827],[7.7892,47.41024],[7.78862,47.41084],[7.78673,47.41168],[7.78605,47.41241],[7.78274,47.41268],[7.78207,47.41323],[7.78138,47.41328],[7.78065,47.41365],[7.77919,47.41483],[7.77847,47.41491],[7.77733,47.4154],[7.77698,47.41621],[7.77555,47.41769],[7.77547,47.41826],[7.7744,47.41914],[7.77378,47.41931],[7.77263,47.41903],[7.77215,47.41914],[7.77067,47.42057],[7.77008,47.42082],[7.76914,47.42194]]}},{"type":"Feature","properties":{"id":"weigistbach-bl","c":"BL","p":"pacht","q":"derived","k":"river"},"geometry":{"type":"LineString","coordinates":[[7.71854,47.37832],[7.71692,47.37974],[7.71696,47.38107],[7.71651,47.38244],[7.71572,47.38335],[7.71453,47.3841],[7.71443,47.38441],[7.71521,47.38658],[7.71667,47.38746],[7.71678,47.38876],[7.71712,47.38958],[7.7185,47.39052],[7.71961,47.39086],[7.72206,47.39204],[7.7236,47.39246],[7.72601,47.39268],[7.72714,47.39312],[7.73079,47.39323],[7.73268,47.39284],[7.73376,47.39308],[7.73501,47.39307],[7.73732,47.39354],[7.73922,47.39445],[7.74271,47.39488],[7.74372,47.39493],[7.74684,47.3941],[7.74984,47.39398]]}},{"type":"Feature","properties":{"id":"rhein-bl","c":"BL","p":"pacht","q":"derived","k":"river"},"geometry":{"type":"MultiLineString","coordinates":[[[7.63392,47.56109],[7.63071,47.5616],[7.6285,47.56148],[7.61847,47.55911]],[[7.70564,47.53678],[7.70509,47.53625],[7.70314,47.53556],[7.69842,47.5332],[7.69422,47.53242],[7.69089,47.53237],[7.68059,47.53268],[7.67724,47.53312],[7.67009,47.53505],[7.66794,47.53593],[7.66502,47.53838],[7.66422,47.53947],[7.66208,47.54397],[7.66098,47.54532],[7.65949,47.54574],[7.65389,47.5467],[7.65077,47.54748],[7.6482,47.54914],[7.64444,47.55379],[7.64054,47.55754]],[[7.71252,47.53908],[7.71082,47.53866]]]}},{"type":"Feature","properties":{"id":"dorfbach-bl","c":"BL","p":"pacht","q":"derived","k":"river"},"geometry":{"type":"MultiLineString","coordinates":[[[7.50397,47.5136],[7.50542,47.51467]],[[7.50842,47.51605],[7.50991,47.51625],[7.51062,47.51675]],[[7.52445,47.53185],[7.52559,47.5322],[7.52642,47.53277],[7.52748,47.53304],[7.52831,47.53399],[7.52876,47.53415],[7.52827,47.53486],[7.529,47.53519],[7.52877,47.5354],[7.5289,47.53584],[7.52924,47.53592],[7.52945,47.53636],[7.53072,47.53646],[7.53227,47.53792],[7.53306,47.53815],[7.53328,47.5388],[7.53389,47.53907],[7.53409,47.53944],[7.53391,47.53955],[7.5343,47.53983],[7.53419,47.54091],[7.53477,47.5416],[7.53498,47.5425],[7.53556,47.54294],[7.53546,47.54327],[7.53468,47.54355],[7.53521,47.54438],[7.53521,47.54607],[7.53558,47.54646],[7.53526,47.54722],[7.53543,47.54762],[7.5352,47.54784],[7.53553,47.54867],[7.53617,47.54936],[7.53608,47.55004],[7.53663,47.55116],[7.53902,47.55184],[7.53987,47.55234],[7.54382,47.55377],[7.54673,47.55576],[7.54823,47.55621],[7.54979,47.55744],[7.55351,47.55871],[7.55423,47.55935],[7.5586,47.56199]]]}},{"type":"Feature","properties":{"id":"feldbach-bl","c":"BL","p":"pacht","q":"derived","k":"river"},"geometry":{"type":"LineString","coordinates":[[7.80276,47.36995],[7.80299,47.3703],[7.80485,47.37122],[7.80498,47.37258],[7.80537,47.37311],[7.80532,47.37396],[7.80603,47.37463],[7.80678,47.3747],[7.80714,47.37494],[7.80732,47.37534],[7.80556,47.3766],[7.80554,47.37776],[7.80586,47.37853],[7.80485,47.38037],[7.80468,47.38098],[7.80489,47.38156],[7.80447,47.38208],[7.80475,47.38243],[7.80468,47.38276],[7.80653,47.38453],[7.80719,47.3858],[7.80793,47.38615],[7.80807,47.38709],[7.80887,47.38801],[7.80873,47.3885],[7.80914,47.38925],[7.81051,47.39017],[7.81244,47.39068],[7.81443,47.39202]]}},{"type":"Feature","properties":{"id":"chrintelbach-bl","c":"BL","p":"pacht","q":"derived","k":"river"},"geometry":{"type":"LineString","coordinates":[[7.89003,47.41866],[7.8886,47.41949],[7.88774,47.41973],[7.88707,47.4208],[7.88481,47.42156],[7.88318,47.4232],[7.88049,47.42352],[7.87966,47.42411],[7.879,47.42433],[7.87808,47.42524],[7.87592,47.42605],[7.87564,47.42678],[7.87495,47.42751],[7.87413,47.42766],[7.87279,47.42823],[7.87131,47.42791],[7.87106,47.4275],[7.86848,47.42693],[7.86608,47.42747],[7.864,47.42876],[7.86364,47.42968],[7.86282,47.43051],[7.86164,47.43131],[7.86084,47.43131],[7.85982,47.43184],[7.85798,47.43372],[7.85747,47.43369],[7.85673,47.43392],[7.85477,47.43501],[7.85353,47.43538],[7.85345,47.43596],[7.85033,47.43647]]}},{"type":"Feature","properties":{"id":"fluebach-bl","c":"BL","p":"pacht","q":"derived","k":"river"},"geometry":{"type":"MultiLineString","coordinates":[[[7.71923,47.40912],[7.72194,47.4092],[7.72295,47.40903],[7.72349,47.40931],[7.72601,47.4096],[7.72664,47.40986]],[[7.72679,47.41002],[7.72633,47.41033],[7.72653,47.41067],[7.72622,47.41313],[7.72638,47.4135],[7.72601,47.41411],[7.726,47.41493],[7.72637,47.41557],[7.72556,47.41672],[7.72491,47.41702],[7.72422,47.41838],[7.72445,47.41998],[7.72417,47.42118],[7.7253,47.42232],[7.72624,47.42279],[7.72683,47.42394],[7.7276,47.42451],[7.72791,47.4266],[7.72769,47.42777],[7.72857,47.42903],[7.72901,47.43029],[7.73016,47.43118],[7.73068,47.43216],[7.72977,47.43545],[7.7287,47.43619],[7.72662,47.4372]]]}},{"type":"Feature","properties":{"id":"aemlisbach-bl","c":"BL","p":"pacht","q":"derived","k":"river"},"geometry":{"type":"LineString","coordinates":[[7.66195,47.38075],[7.66242,47.38105],[7.66517,47.38138],[7.66647,47.38212],[7.66683,47.38259],[7.66769,47.38288],[7.66895,47.38302],[7.67085,47.3838],[7.67309,47.38423],[7.67385,47.3842],[7.67525,47.38486],[7.67705,47.38516],[7.67778,47.386],[7.67885,47.38658],[7.67973,47.38748],[7.68022,47.38842],[7.68129,47.38906],[7.68182,47.38978],[7.68235,47.39005],[7.68399,47.39038],[7.68883,47.39092],[7.69192,47.39223],[7.69343,47.39381]]}},{"type":"Feature","properties":{"id":"dorfbach-bl-2","c":"BL","p":"pacht","q":"derived","k":"river"},"geometry":{"type":"LineString","coordinates":[[7.64256,47.4906],[7.64112,47.49092],[7.64082,47.49122],[7.63969,47.49149],[7.63815,47.49161],[7.63442,47.49058],[7.63226,47.49139],[7.63031,47.49155],[7.62941,47.49128],[7.62875,47.49064],[7.62806,47.49049],[7.62394,47.49261],[7.62343,47.49255],[7.62132,47.49308],[7.61983,47.49405],[7.61949,47.49407],[7.61903,47.4937],[7.61828,47.49404],[7.61792,47.49452],[7.61664,47.49542],[7.61682,47.49579],[7.61628,47.49631],[7.61662,47.4968],[7.61585,47.49869],[7.61475,47.49884],[7.61348,47.49975],[7.61064,47.5008],[7.60672,47.50122]]}},{"type":"Feature","properties":{"id":"luessel-bl","c":"BL","p":"pacht","q":"derived","k":"river"},"geometry":{"type":"MultiLineString","coordinates":[[[7.54176,47.4139],[7.54103,47.41449],[7.54078,47.41503],[7.54167,47.41669],[7.54163,47.41764],[7.54091,47.41946],[7.53816,47.42398],[7.53803,47.42523],[7.53652,47.42588],[7.53539,47.4267],[7.53271,47.42743],[7.53103,47.42889],[7.52949,47.43253],[7.52897,47.43468],[7.52853,47.4351],[7.52682,47.43591],[7.52638,47.43661]],[[7.6511,47.37032],[7.64834,47.36926],[7.64692,47.36843],[7.64576,47.36829],[7.64485,47.36747],[7.64415,47.36741]],[[7.68321,47.37113],[7.6813,47.37101],[7.67991,47.37151],[7.6783,47.3715],[7.67793,47.37168],[7.67681,47.37176],[7.67303,47.37101],[7.66966,47.37082],[7.66744,47.37141],[7.66595,47.37154],[7.66403,47.37132],[7.66196,47.37053],[7.66103,47.37036],[7.65653,47.37045],[7.65451,47.37013],[7.6524,47.37014]]]}},{"type":"Feature","properties":{"id":"ergolz-bl","c":"BL","p":"pacht","q":"derived","k":"river"},"geometry":{"type":"MultiLineString","coordinates":[[[7.92521,47.45234],[7.92488,47.45249],[7.92493,47.45268],[7.92401,47.45302],[7.92216,47.45462],[7.92138,47.45474],[7.92042,47.45554],[7.91842,47.45635],[7.91605,47.45834],[7.91589,47.45888],[7.91534,47.45951],[7.9143,47.45967],[7.91311,47.4607],[7.91312,47.4611],[7.91133,47.46184],[7.90989,47.46214],[7.90963,47.46245],[7.9076,47.46288],[7.90737,47.46313],[7.90558,47.46343],[7.90459,47.4639],[7.90432,47.46412],[7.9046,47.46442],[7.90417,47.46487],[7.90269,47.4656],[7.90186,47.46552],[7.90139,47.46582],[7.90104,47.46665],[7.89814,47.4692],[7.8971,47.46911],[7.89619,47.46955],[7.89491,47.46958],[7.89448,47.46905],[7.89363,47.46905],[7.89313,47.46936],[7.89266,47.46932],[7.89134,47.46872],[7.89091,47.46869],[7.88979,47.46878],[7.88959,47.46932],[7.8893,47.46937],[7.8856,47.46858],[7.8847,47.4685],[7.88449,47.46864],[7.8839,47.46848],[7.88296,47.46876],[7.88093,47.46799],[7.879,47.46779],[7.87759,47.46812],[7.87641,47.46777],[7.87514,47.46763],[7.87428,47.46815],[7.87372,47.46824],[7.87248,47.46803],[7.87159,47.46844],[7.87087,47.46836],[7.87036,47.46875],[7.87054,47.46976],[7.87026,47.47008],[7.86815,47.46942],[7.86611,47.4696],[7.86482,47.46917],[7.86453,47.46867],[7.86359,47.46815],[7.86333,47.46778],[7.86109,47.46816],[7.86073,47.46786],[7.85939,47.46751],[7.85828,47.46658],[7.85736,47.46647],[7.8566,47.46678],[7.85527,47.4666],[7.85491,47.46627],[7.85274,47.46604],[7.84834,47.46466],[7.84592,47.46463],[7.84364,47.46415],[7.84248,47.46261],[7.83993,47.46245],[7.83816,47.46198],[7.8336,47.46189],[7.82824,47.46363],[7.82756,47.46371],[7.82486,47.46349],[7.82347,47.46315],[7.82042,47.46295],[7.81721,47.46306],[7.81489,47.46393],[7.8143,47.46579],[7.81194,47.46683],[7.81043,47.46812],[7.80967,47.46836],[7.80679,47.46797],[7.80436,47.46885],[7.80259,47.46922],[7.79546,47.46974],[7.78542,47.46972],[7.78091,47.4709],[7.77867,47.47171],[7.77681,47.47264],[7.77297,47.47195],[7.77104,47.47115],[7.77031,47.47107],[7.76429,47.47227],[7.76148,47.47357],[7.75512,47.47573],[7.74937,47.47894],[7.74627,47.48096],[7.74639,47.48266],[7.74594,47.4832],[7.74464,47.48376],[7.74088,47.48482],[7.73955,47.48579],[7.73134,47.48951],[7.72954,47.49157],[7.7287,47.49205],[7.72688,47.49262],[7.72637,47.49316],[7.72536,47.49722],[7.72677,47.4997],[7.72692,47.50065],[7.72633,47.5031],[7.7257,47.50448],[7.72622,47.50614],[7.72436,47.50947],[7.72444,47.5103],[7.72497,47.51133],[7.72494,47.51211],[7.72461,47.51272],[7.72299,47.51443],[7.72161,47.51739],[7.72117,47.51888],[7.72009,47.52025],[7.72001,47.5209],[7.72055,47.52201],[7.72055,47.5225],[7.71949,47.52323],[7.71878,47.52467],[7.71793,47.52574],[7.71779,47.52625],[7.71818,47.52782],[7.71578,47.52954],[7.71524,47.53047],[7.71534,47.53088],[7.71669,47.53243],[7.71593,47.53416],[7.71731,47.53494],[7.7187,47.53463],[7.71936,47.5347],[7.71942,47.53531],[7.71873,47.53599]],[[7.92858,47.45151],[7.92814,47.45165]],[[7.93112,47.44629],[7.93085,47.44704],[7.93136,47.44799],[7.93047,47.44978],[7.92988,47.45027],[7.92988,47.45064]],[[7.95591,47.42612],[7.95504,47.42663],[7.9522,47.42759],[7.95098,47.42763],[7.94909,47.42681],[7.94783,47.42665],[7.94725,47.42631],[7.94607,47.42625],[7.94504,47.42648],[7.94356,47.42746],[7.94215,47.42775],[7.94055,47.42747],[7.93931,47.42784],[7.93909,47.42914],[7.93569,47.43144],[7.93563,47.43267],[7.93533,47.43311],[7.93335,47.43431],[7.93324,47.43464],[7.93385,47.43488],[7.9344,47.43562],[7.9347,47.43657],[7.93451,47.43731],[7.93502,47.43811],[7.93471,47.43964],[7.93475,47.4413],[7.93369,47.44296],[7.932,47.44447],[7.93121,47.44605]]]}},{"type":"Feature","properties":{"id":"nuenbrunnbach-bl","c":"BL","p":"pacht","q":"derived","k":"river"},"geometry":{"type":"LineString","coordinates":[[7.94346,47.41764],[7.94216,47.41916],[7.94068,47.41895],[7.93982,47.4184],[7.93933,47.41833],[7.9377,47.41886],[7.93687,47.41881],[7.93533,47.41902],[7.93456,47.4195],[7.93304,47.41978],[7.93032,47.41898],[7.92743,47.41861],[7.92608,47.41826],[7.92537,47.41784],[7.92391,47.41758],[7.92209,47.41653],[7.921,47.41647],[7.91996,47.41601],[7.91922,47.41444],[7.91892,47.41452],[7.91821,47.41418],[7.91553,47.4138],[7.9132,47.41379],[7.91241,47.41443],[7.91116,47.41503],[7.90808,47.41604],[7.9062,47.41631],[7.90488,47.4167]]}},{"type":"Feature","properties":{"id":"violenbach-bl","c":"BL","p":"pacht","q":"derived","k":"river"},"geometry":{"type":"MultiLineString","coordinates":[[[7.74995,47.52519],[7.74868,47.5246],[7.74847,47.52392],[7.74712,47.52437],[7.7467,47.52412],[7.74609,47.52426],[7.74518,47.52498],[7.74341,47.52541],[7.7425,47.52582],[7.74052,47.5255],[7.74042,47.52587],[7.73986,47.5262],[7.73974,47.5265],[7.73839,47.52735],[7.73792,47.52738],[7.73727,47.52773],[7.73547,47.52927],[7.735,47.52944],[7.73513,47.53029],[7.73451,47.53067],[7.73349,47.53195]],[[7.76979,47.52355],[7.76557,47.52474],[7.76485,47.52487],[7.76303,47.52481],[7.76236,47.52538],[7.76071,47.52525],[7.75865,47.52544],[7.7578,47.5261],[7.75499,47.52537]]]}},{"type":"Feature","properties":{"id":"augstbach-bl","c":"BL","p":"pacht","q":"derived","k":"river"},"geometry":{"type":"LineString","coordinates":[[7.77615,47.37105],[7.77543,47.37128],[7.7732,47.37143],[7.77143,47.37104],[7.77068,47.37076],[7.7696,47.37001],[7.76864,47.36899],[7.76859,47.36753],[7.77287,47.36501],[7.77393,47.36404],[7.7743,47.36329],[7.77364,47.36178],[7.77264,47.36091],[7.77266,47.35997],[7.77216,47.35873],[7.77273,47.35762],[7.77227,47.35704],[7.77195,47.35569],[7.77228,47.35491],[7.77196,47.35398],[7.77215,47.35316],[7.77138,47.35192],[7.77157,47.34979],[7.77107,47.34919],[7.77014,47.34877],[7.76942,47.34732],[7.77097,47.34368],[7.7704,47.34283],[7.76937,47.34193],[7.76918,47.34093]]}},{"type":"Feature","properties":{"id":"birs-bl","c":"BL","p":"pacht","q":"derived","k":"river"},"geometry":{"type":"MultiLineString","coordinates":[[[7.41483,47.39398],[7.41561,47.39344],[7.41692,47.39342],[7.41926,47.39454],[7.42045,47.39488],[7.42312,47.39469],[7.4243,47.39499],[7.42631,47.39593],[7.42992,47.39623],[7.43058,47.39607],[7.43157,47.39503],[7.43309,47.3941],[7.4343,47.39406],[7.43509,47.39436],[7.43624,47.39554],[7.4376,47.39622],[7.43878,47.39857],[7.43991,47.39959],[7.44161,47.40058],[7.44323,47.40235],[7.44375,47.4024],[7.44428,47.40219],[7.44501,47.40139],[7.44517,47.40071],[7.44651,47.39997],[7.44824,47.39961],[7.45002,47.40007],[7.45057,47.40068],[7.45069,47.40151],[7.44956,47.4027],[7.44954,47.40332],[7.44999,47.40375],[7.45069,47.40397],[7.45269,47.40392],[7.45454,47.40434],[7.45552,47.40408],[7.45631,47.4035],[7.45697,47.40179],[7.45758,47.4013],[7.46222,47.4009],[7.46294,47.40124],[7.46373,47.40242],[7.46447,47.40265],[7.47001,47.40075],[7.47282,47.40037],[7.47611,47.40089],[7.47768,47.40142],[7.4797,47.40106],[7.48044,47.40119],[7.48113,47.40163],[7.48243,47.40312],[7.48394,47.40382],[7.48473,47.40383],[7.48599,47.40335],[7.48661,47.40337],[7.48799,47.40418],[7.48839,47.40512],[7.49011,47.40765],[7.49336,47.41056],[7.49482,47.41086],[7.49643,47.41061],[7.49781,47.41149],[7.49829,47.4129],[7.49933,47.41356],[7.50022,47.41454],[7.50036,47.4165],[7.49989,47.41804],[7.50004,47.41852],[7.50088,47.4192],[7.50109,47.42063],[7.50296,47.42247],[7.50493,47.42338],[7.50648,47.42315],[7.50757,47.42272],[7.50814,47.42277],[7.50914,47.42313],[7.51023,47.42395],[7.51046,47.42436],[7.51046,47.42576],[7.50971,47.42811],[7.51077,47.42943],[7.51251,47.43098],[7.51406,47.43166],[7.51893,47.43248],[7.52094,47.43204],[7.52247,47.43113],[7.52404,47.43136],[7.52492,47.43197],[7.52507,47.43238],[7.52499,47.43617],[7.52807,47.43725],[7.5278,47.43821],[7.5312,47.439],[7.53244,47.43908],[7.53402,47.43824],[7.53551,47.43684],[7.53636,47.43524],[7.53701,47.43477],[7.53867,47.43494],[7.54283,47.43609],[7.54502,47.4375],[7.54568,47.43822],[7.5462,47.43951],[7.5454,47.44035],[7.54536,47.44076],[7.54653,47.44199],[7.54714,47.44333],[7.54778,47.44376],[7.5502,47.44379],[7.55349,47.44426],[7.55551,47.4439],[7.55804,47.44298],[7.55988,47.44144],[7.5606,47.44127],[7.56207,47.44128],[7.56371,47.44074],[7.56482,47.43947],[7.5667,47.43892],[7.56882,47.43748],[7.56987,47.43775],[7.57164,47.43909],[7.57571,47.43975],[7.57685,47.43962],[7.57899,47.43874],[7.58054,47.43862],[7.58248,47.4393],[7.58396,47.44021],[7.58493,47.44042],[7.58787,47.4405],[7.58917,47.44077],[7.59204,47.44247],[7.59419,47.44297],[7.59464,47.44292],[7.59615,47.44197],[7.597,47.44167],[7.59771,47.44167],[7.59914,47.44272],[7.60131,47.44554],[7.60095,47.44625],[7.5998,47.44715],[7.59752,47.44815],[7.59708,47.44891],[7.5974,47.44966],[7.5991,47.45121],[7.60227,47.45324],[7.60283,47.45523],[7.60571,47.45569],[7.60725,47.45744],[7.60884,47.45834],[7.60951,47.45899],[7.60948,47.45934],[7.60853,47.46004],[7.60752,47.46127],[7.60553,47.46249],[7.60402,47.46294],[7.6034,47.46359],[7.60118,47.46919],[7.60117,47.47049],[7.60171,47.47167],[7.60495,47.47331],[7.60569,47.47418],[7.60626,47.47566]],[[7.60732,47.48845],[7.60644,47.49239],[7.60586,47.49887],[7.60599,47.50065],[7.60658,47.5024],[7.60791,47.50458],[7.61839,47.51771],[7.62088,47.51998],[7.62189,47.52195],[7.62233,47.52694],[7.62158,47.52896],[7.62299,47.54962],[7.62251,47.55089],[7.62158,47.55189],[7.61897,47.5533],[7.61785,47.55422],[7.61761,47.55495],[7.618,47.55747],[7.6171,47.55879]]]}},{"type":"Feature","properties":{"id":"birsig-bl","c":"BL","p":"pacht","q":"derived","k":"river"},"geometry":{"type":"LineString","coordinates":[[7.51011,47.50541],[7.51091,47.5055],[7.51267,47.50533],[7.51381,47.50588],[7.51453,47.50594],[7.51513,47.50563],[7.51599,47.50582],[7.51891,47.50584],[7.52213,47.5056],[7.5242,47.50498],[7.52447,47.50518],[7.52496,47.50492],[7.52581,47.50502],[7.52641,47.50533],[7.52769,47.50539],[7.52841,47.50472],[7.52901,47.50478],[7.52944,47.50459],[7.52962,47.5047],[7.53002,47.50445],[7.53055,47.50453],[7.53261,47.50407],[7.53307,47.50458],[7.53354,47.50475],[7.534,47.50466],[7.53405,47.50493],[7.53521,47.50491],[7.53588,47.50521],[7.53657,47.50498],[7.53682,47.50522],[7.53706,47.505],[7.53815,47.50498],[7.53828,47.50537],[7.53874,47.50502],[7.53907,47.50518],[7.53961,47.50486],[7.54096,47.50455],[7.54121,47.50465],[7.54205,47.5042],[7.54255,47.50452],[7.5443,47.50434],[7.54444,47.50478],[7.54524,47.50448],[7.54496,47.50505],[7.54512,47.50515],[7.5458,47.50518],[7.5466,47.50499],[7.54707,47.50509],[7.54728,47.50556],[7.54764,47.50548],[7.54786,47.50564],[7.54832,47.50548],[7.55063,47.50595],[7.55122,47.50667],[7.55124,47.50761],[7.55083,47.50808],[7.55128,47.50832],[7.55226,47.50991],[7.55343,47.51074],[7.55402,47.51082],[7.55526,47.51184],[7.55991,47.51385],[7.56059,47.51454],[7.56234,47.51805],[7.56292,47.51842],[7.56671,47.51978],[7.56802,47.52095],[7.56979,47.52437],[7.57046,47.52491],[7.5723,47.5274],[7.57187,47.52881],[7.57077,47.52979],[7.57127,47.53074],[7.57102,47.53155],[7.57181,47.53222],[7.57236,47.53338],[7.57322,47.53394],[7.57412,47.53516],[7.57475,47.53563],[7.57518,47.53708],[7.57431,47.53753],[7.57409,47.53788],[7.57507,47.53853],[7.57631,47.54122],[7.57752,47.54271],[7.57787,47.54387]]}},{"type":"Feature","properties":{"id":"buuser-bach-bl","c":"BL","p":"pacht","q":"derived","k":"river"},"geometry":{"type":"LineString","coordinates":[[7.86253,47.50582],[7.8621,47.50636],[7.86217,47.50715],[7.86138,47.50704],[7.8611,47.50742],[7.86002,47.50793],[7.85809,47.50847],[7.85707,47.50906],[7.85633,47.50993],[7.85564,47.51006],[7.85501,47.51045],[7.85336,47.51271],[7.85327,47.51419],[7.85302,47.51505],[7.85265,47.51541],[7.85279,47.51568],[7.85221,47.51728],[7.85231,47.51781],[7.84866,47.52189],[7.84786,47.52327],[7.84739,47.52351],[7.8459,47.5236],[7.84068,47.52443],[7.83941,47.52443],[7.8385,47.52413],[7.83645,47.52464],[7.83506,47.52446],[7.83326,47.52478]]}},{"type":"Feature","properties":{"id":"roeserenbach-bl","c":"BL","p":"pacht","q":"derived","k":"river"},"geometry":{"type":"LineString","coordinates":[[7.67441,47.4848],[7.67384,47.4859],[7.67393,47.48621],[7.67425,47.48674],[7.67493,47.48709],[7.67566,47.48806],[7.67645,47.48861],[7.67871,47.48928],[7.6817,47.48953],[7.6824,47.48981],[7.68369,47.48989],[7.68611,47.49052],[7.68961,47.49271],[7.69037,47.49247],[7.69097,47.49294],[7.6926,47.49303],[7.69371,47.49347],[7.695,47.49342],[7.69583,47.49362],[7.69935,47.49383],[7.70321,47.49345],[7.70435,47.49321],[7.70582,47.49241],[7.70578,47.49214],[7.70605,47.49195],[7.70743,47.49155],[7.71084,47.49102],[7.71255,47.49094],[7.7138,47.49066],[7.71389,47.49039],[7.7143,47.4902],[7.71805,47.48992],[7.71958,47.48937],[7.72118,47.48965],[7.72146,47.48957],[7.7216,47.48912],[7.7232,47.48895],[7.72395,47.489],[7.72648,47.49031],[7.72961,47.49141]]}},{"type":"Feature","properties":{"id":"lucelle-bl","c":"BL","p":"pacht","q":"derived","k":"river"},"geometry":{"type":"MultiLineString","coordinates":[[[7.3273,47.44002],[7.32831,47.44088],[7.32947,47.44114],[7.33024,47.44174],[7.33126,47.44134],[7.33271,47.44108],[7.33555,47.44088]],[[7.45547,47.42769],[7.4563,47.4278],[7.45747,47.42762],[7.45918,47.42781],[7.46066,47.42689],[7.4632,47.42673],[7.46415,47.42651],[7.46724,47.42458],[7.46873,47.42439],[7.46998,47.42464],[7.47035,47.42457],[7.47147,47.42365],[7.47191,47.42292],[7.47184,47.42244],[7.47137,47.42187],[7.47176,47.42115],[7.47408,47.41982],[7.47457,47.4193],[7.47574,47.41879],[7.47681,47.41761],[7.47722,47.41668],[7.47821,47.41581],[7.47978,47.41485],[7.48143,47.41444],[7.48177,47.41394],[7.4831,47.41367],[7.48372,47.4133],[7.48546,47.4133],[7.48698,47.41287],[7.48807,47.41306],[7.48932,47.4136],[7.48996,47.41345],[7.49167,47.41352],[7.49337,47.41249],[7.49376,47.412],[7.49376,47.41144],[7.49452,47.41095]]]}},{"type":"Feature","properties":{"id":"seebach-bl","c":"BL","p":"pacht","q":"derived","k":"river"},"geometry":{"type":"MultiLineString","coordinates":[[[7.61599,47.43508],[7.61275,47.43578],[7.61226,47.43561],[7.61113,47.43559],[7.60953,47.43577],[7.60918,47.43603],[7.60851,47.43605],[7.60795,47.43582],[7.60722,47.43603],[7.60539,47.43737],[7.60499,47.43733],[7.6033,47.43779],[7.60269,47.43872],[7.60156,47.4394],[7.60168,47.43959],[7.60114,47.44011],[7.60122,47.44078],[7.60057,47.44123],[7.59873,47.44137],[7.59821,47.44179]],[[7.65874,47.38476],[7.65543,47.38454],[7.65505,47.38473],[7.65455,47.38516],[7.65428,47.38597],[7.65352,47.38658],[7.65322,47.38772],[7.65248,47.38882],[7.65096,47.38924],[7.6505,47.38975],[7.65034,47.39016],[7.65105,47.39079],[7.64983,47.39151],[7.64947,47.39227],[7.65062,47.394],[7.6512,47.39531],[7.65126,47.3963],[7.65226,47.39651],[7.65278,47.39716],[7.65312,47.39839],[7.65428,47.39954],[7.65388,47.40054],[7.65432,47.40159],[7.65446,47.40177],[7.65499,47.40177],[7.65549,47.40228],[7.6561,47.40313],[7.65596,47.40349],[7.65648,47.40439],[7.65766,47.40539],[7.65777,47.40584],[7.65749,47.4061],[7.65707,47.40851],[7.65718,47.40912]]]}},{"type":"Feature","properties":{"id":"wahlenbach-bl","c":"BL","p":"pacht","q":"derived","k":"river"},"geometry":{"type":"LineString","coordinates":[[7.50902,47.38844],[7.50912,47.389],[7.5087,47.38927],[7.50866,47.38989],[7.50838,47.39003],[7.50884,47.39093],[7.50942,47.3912],[7.50945,47.39152],[7.51041,47.39241],[7.51088,47.39243],[7.51104,47.39279],[7.51305,47.39381],[7.51344,47.39424],[7.51347,47.39467],[7.51463,47.39566],[7.51456,47.39635],[7.51523,47.39682],[7.51572,47.39795],[7.51554,47.39862],[7.51593,47.39895],[7.51591,47.40003],[7.51567,47.40025],[7.51568,47.40143],[7.51484,47.40206],[7.51467,47.40305],[7.51495,47.40427],[7.51439,47.40487],[7.51447,47.4053],[7.51381,47.40562],[7.5136,47.40604],[7.51307,47.40647],[7.51267,47.40635],[7.51228,47.40653],[7.51159,47.40716],[7.51104,47.40811],[7.50987,47.40876],[7.50944,47.40927],[7.50903,47.40916],[7.50873,47.40962],[7.50895,47.40994],[7.50883,47.41054],[7.50827,47.41072],[7.50793,47.41116],[7.5072,47.41135],[7.50606,47.41217],[7.50597,47.41278],[7.50497,47.41333],[7.50496,47.41434],[7.50276,47.41506],[7.50237,47.41661],[7.50136,47.41673],[7.50111,47.41727],[7.5007,47.41756],[7.50017,47.41747]]}},{"type":"Feature","properties":{"id":"orisbach-bl","c":"BL","p":"pacht","q":"derived","k":"river"},"geometry":{"type":"MultiLineString","coordinates":[[[7.69762,47.45537],[7.69822,47.45532],[7.6989,47.45592],[7.69914,47.45646],[7.69919,47.45727],[7.69864,47.45944],[7.69933,47.46013],[7.69923,47.46058],[7.69945,47.461],[7.69998,47.46123],[7.69987,47.46185],[7.70238,47.46365]],[[7.70993,47.46939],[7.71202,47.46994],[7.71283,47.46997],[7.71322,47.47018],[7.7133,47.47057],[7.71378,47.47052],[7.71467,47.47076],[7.71818,47.47355],[7.72015,47.47428],[7.72098,47.47482],[7.72218,47.47482],[7.72247,47.47464],[7.72328,47.47513],[7.72396,47.47522],[7.72493,47.47606],[7.7263,47.47593],[7.72755,47.4766],[7.72788,47.47671],[7.72809,47.47644],[7.72855,47.47656],[7.73034,47.47732],[7.73137,47.47855],[7.73155,47.47946],[7.73203,47.47978],[7.73175,47.48012],[7.7321,47.48045],[7.73199,47.48071],[7.73273,47.48111],[7.73243,47.48168],[7.73275,47.48305],[7.73322,47.48346],[7.73314,47.48482],[7.73502,47.48594],[7.73501,47.48652],[7.73579,47.48735]]]}},{"type":"Feature","properties":{"id":"frenke-bl","c":"BL","p":"pacht","q":"derived","k":"river"},"geometry":{"type":"MultiLineString","coordinates":[[[7.74611,47.37307],[7.74668,47.37628],[7.74725,47.37674],[7.7473,47.37746],[7.74763,47.37787],[7.74725,47.37841],[7.74642,47.37895],[7.74623,47.3802],[7.74694,47.38125],[7.7482,47.38196],[7.74841,47.38249],[7.74915,47.3829],[7.74941,47.38342],[7.74957,47.38863],[7.74906,47.39197],[7.74916,47.39231],[7.7498,47.39285],[7.74986,47.39408],[7.75065,47.39526],[7.75016,47.39604],[7.75044,47.39696],[7.75035,47.39745],[7.74978,47.39791],[7.75005,47.39986],[7.74964,47.40169],[7.75213,47.40469],[7.75256,47.40676],[7.75314,47.40785],[7.75489,47.40959],[7.75589,47.40989],[7.75593,47.4105],[7.75682,47.4114],[7.75783,47.41177],[7.75844,47.41327],[7.75967,47.41493],[7.76453,47.41747],[7.7684,47.42142],[7.76914,47.42194],[7.76958,47.42303],[7.76893,47.42421],[7.76891,47.42471],[7.76999,47.42673],[7.77094,47.42769],[7.77148,47.42892],[7.77246,47.42921],[7.77363,47.42915],[7.77424,47.42945],[7.77478,47.43098],[7.77446,47.43206],[7.77367,47.43317],[7.77274,47.43392],[7.77142,47.43578],[7.77032,47.43669],[7.76983,47.43674],[7.76933,47.4364],[7.76807,47.43667],[7.76739,47.43737],[7.76597,47.43767],[7.76494,47.43877],[7.76379,47.43923],[7.76341,47.43982],[7.76155,47.4411],[7.7612,47.44118],[7.75987,47.44089],[7.75898,47.44158],[7.75842,47.44251],[7.75766,47.44297],[7.7572,47.44474],[7.75529,47.44645],[7.75417,47.44717],[7.75244,47.44786],[7.75166,47.44844],[7.7502,47.44876],[7.74974,47.44903],[7.74829,47.45124],[7.74684,47.45208],[7.74672,47.45317],[7.74589,47.45356],[7.74552,47.45462],[7.74502,47.45513],[7.7417,47.4565],[7.73976,47.45861],[7.73743,47.45835],[7.73651,47.45902],[7.73446,47.45933],[7.73393,47.46157],[7.73454,47.46283],[7.73433,47.46388],[7.73468,47.46619],[7.73653,47.46827],[7.7365,47.46875],[7.73572,47.4696],[7.73568,47.46998],[7.73649,47.47061],[7.73705,47.47176],[7.7384,47.47255],[7.73796,47.47352],[7.7388,47.47552],[7.73905,47.47568],[7.74155,47.476],[7.74208,47.47631],[7.74295,47.47788],[7.74571,47.47944],[7.74617,47.48109]],[[7.74699,47.35262],[7.74795,47.35246],[7.74836,47.35207],[7.74836,47.35107],[7.75122,47.35023],[7.75534,47.35068],[7.75841,47.35069],[7.76089,47.35181],[7.76131,47.353],[7.76049,47.35491],[7.76001,47.35515],[7.75981,47.35572],[7.76081,47.35825],[7.75989,47.36084],[7.75893,47.36182],[7.75797,47.36228],[7.75636,47.36351],[7.75572,47.36528],[7.75425,47.36554],[7.75258,47.36666],[7.75177,47.36764],[7.74976,47.36848],[7.74884,47.36967],[7.74799,47.37032],[7.74774,47.3711],[7.74703,47.37167],[7.74675,47.37228]]]}},{"type":"Feature","properties":{"id":"diegterbach-bl","c":"BL","p":"pacht","q":"derived","k":"river"},"geometry":{"type":"LineString","coordinates":[[7.83431,47.37039],[7.83166,47.37076],[7.83028,47.37183],[7.82914,47.37229],[7.82866,47.37376],[7.82779,47.37451],[7.82764,47.37583],[7.82741,47.37594],[7.82685,47.37773],[7.82597,47.37841],[7.82548,47.37854],[7.82499,47.37907],[7.82507,47.3797],[7.82401,47.3811],[7.82472,47.38199],[7.82472,47.38275],[7.82369,47.38325],[7.82203,47.38493],[7.82024,47.38566],[7.81676,47.38845],[7.81522,47.39052],[7.81444,47.39211],[7.81572,47.39308],[7.81551,47.39373],[7.81591,47.39426],[7.81586,47.39489],[7.81628,47.3962],[7.81529,47.39684],[7.81398,47.39827],[7.8125,47.39915],[7.81124,47.39964],[7.81082,47.40005],[7.81064,47.4015],[7.81124,47.40385],[7.81095,47.40455],[7.80998,47.40493],[7.80973,47.40525],[7.80974,47.40572],[7.80922,47.40684],[7.80894,47.40888],[7.80908,47.41006],[7.81001,47.41113],[7.81121,47.41423],[7.81042,47.41613],[7.81086,47.41687],[7.81077,47.41756],[7.81137,47.41811],[7.81158,47.419],[7.81041,47.41928],[7.80918,47.42027],[7.80979,47.42213],[7.81077,47.42284],[7.81013,47.42392],[7.80996,47.4262],[7.80944,47.42711],[7.80811,47.42797],[7.80775,47.4285],[7.80822,47.43036],[7.80887,47.43157],[7.80924,47.43344],[7.80904,47.43412],[7.80938,47.43532],[7.80924,47.4374],[7.80855,47.44],[7.80858,47.44149],[7.80893,47.44181],[7.80912,47.44263],[7.80845,47.44323],[7.80833,47.4445],[7.80875,47.44508],[7.808,47.44599],[7.80863,47.44685],[7.80774,47.44774],[7.80828,47.44883],[7.80798,47.45001],[7.80839,47.45078],[7.80828,47.45191],[7.80868,47.45244],[7.80831,47.45297],[7.80831,47.45397],[7.80904,47.45613],[7.80893,47.45661],[7.80935,47.45761],[7.80987,47.46057],[7.8103,47.4614],[7.80978,47.46411],[7.81056,47.46492],[7.81125,47.46622],[7.81087,47.46701],[7.81084,47.46774]]}},{"type":"Feature","properties":{"id":"st-albanteich-bl","c":"BL","p":"pacht","q":"derived","k":"river"},"geometry":{"type":"MultiLineString","coordinates":[[[7.61585,47.53167],[7.61519,47.5357],[7.61524,47.53799],[7.61596,47.53929],[7.616,47.54022],[7.61751,47.5413]],[[7.62205,47.52515],[7.6212,47.52721],[7.61943,47.52792],[7.61757,47.5284],[7.61696,47.52901],[7.61661,47.52976]]]}},{"type":"Feature","properties":{"id":"homburgerbach-bl","c":"BL","p":"pacht","q":"derived","k":"river"},"geometry":{"type":"LineString","coordinates":[[7.85145,47.38194],[7.85442,47.38178],[7.858,47.38223],[7.85751,47.38485],[7.8583,47.38577],[7.85787,47.38659],[7.85777,47.38771],[7.85625,47.38899],[7.85612,47.3897],[7.85635,47.39035],[7.85543,47.39076],[7.85519,47.39149],[7.85443,47.39194],[7.85441,47.39251],[7.85471,47.39259],[7.8546,47.39302],[7.85482,47.39306],[7.85497,47.39347],[7.85475,47.3941],[7.85426,47.39481],[7.85352,47.39521],[7.85282,47.39602],[7.85196,47.3984],[7.85096,47.39939],[7.85055,47.40077],[7.85083,47.40135],[7.85073,47.40193],[7.85019,47.40271],[7.84947,47.40319],[7.84889,47.40422],[7.84813,47.40461],[7.84783,47.40502],[7.84602,47.40581],[7.84516,47.40646],[7.84495,47.40918],[7.84403,47.41101],[7.84359,47.41264],[7.84396,47.41297],[7.84399,47.41497],[7.84447,47.41495],[7.84513,47.41674],[7.84654,47.41863],[7.84717,47.41853],[7.84811,47.42244],[7.84875,47.42323],[7.84875,47.42354],[7.84811,47.42396],[7.8483,47.42482],[7.84876,47.42578],[7.85001,47.42737],[7.84987,47.42789],[7.84939,47.42789],[7.84915,47.42806],[7.8489,47.42877],[7.84902,47.42949],[7.84848,47.4305],[7.84851,47.43121],[7.84894,47.43281],[7.84958,47.4332],[7.85028,47.43474],[7.85,47.4359],[7.85044,47.43672],[7.85113,47.43705],[7.85152,47.43767],[7.84795,47.44061],[7.84659,47.44213],[7.84408,47.44327],[7.84214,47.44356],[7.84135,47.44423],[7.83933,47.44496],[7.83849,47.44546],[7.83547,47.44856],[7.83529,47.44965],[7.83402,47.45068],[7.83262,47.45278],[7.83184,47.45305],[7.83098,47.45382],[7.8308,47.45457],[7.82986,47.45575],[7.82942,47.45765],[7.828,47.4586],[7.82693,47.45894],[7.82707,47.4598],[7.82592,47.46104],[7.8255,47.46194],[7.82457,47.4624],[7.8243,47.46327]]}},{"type":"Feature","properties":{"id":"eibach-bl","c":"BL","p":"pacht","q":"derived","k":"river"},"geometry":{"type":"LineString","coordinates":[[7.90488,47.4167],[7.90469,47.41723],[7.90505,47.41758],[7.90273,47.41919],[7.90222,47.42041],[7.90225,47.42187],[7.90272,47.42334],[7.90357,47.42483],[7.90434,47.42546],[7.9049,47.42633],[7.90445,47.42663],[7.90465,47.42815],[7.90427,47.42856],[7.90406,47.43012],[7.90479,47.43126],[7.90444,47.43148],[7.90405,47.43248],[7.90326,47.43293],[7.9024,47.4343],[7.90011,47.43638],[7.89891,47.437],[7.89892,47.43727],[7.89699,47.43814],[7.89606,47.43933],[7.89316,47.44065],[7.89211,47.44135],[7.89188,47.44181],[7.89106,47.44194],[7.88892,47.44683],[7.88789,47.44676],[7.88679,47.44799],[7.88574,47.44783],[7.88261,47.44985],[7.88135,47.45018],[7.88025,47.45096],[7.87953,47.45193],[7.8781,47.45212],[7.87763,47.45308],[7.87557,47.45437],[7.87526,47.45531],[7.87379,47.4567],[7.87169,47.4572],[7.871,47.4576],[7.86983,47.45787],[7.86192,47.46074],[7.8619,47.46126],[7.8606,47.46181],[7.85989,47.4624],[7.85668,47.4634],[7.85518,47.46322],[7.85507,47.46411],[7.85389,47.46502],[7.85406,47.46623]]}}]}