{"type":"FeatureCollection","features":[{"type":"Feature","properties":{"id":"rhein-bs","c":"BS","p":"patent","q":"derived","k":"river"},"geometry":{"type":"LineString","coordinates":[[7.61847,47.55911],[7.60644,47.5564],[7.6011,47.556],[7.59783,47.55613],[7.59572,47.55657],[7.59209,47.5582],[7.58909,47.56072],[7.58626,47.56422],[7.58521,47.56624],[7.58489,47.56799],[7.58455,47.57933],[7.58544,47.58263],[7.58711,47.58655],[7.58927,47.58987]]}},{"type":"Feature","properties":{"id":"neuer-teich-bach-bs","c":"BS","p":"pacht","q":"derived","k":"river"},"geometry":{"type":"LineString","coordinates":[[7.65368,47.59554],[7.65332,47.5941],[7.65265,47.59323],[7.65287,47.59186],[7.65212,47.59055],[7.65146,47.5902],[7.65052,47.59019],[7.64954,47.5898],[7.64921,47.58945],[7.64905,47.58816],[7.64797,47.5878],[7.64677,47.58801],[7.64534,47.58775],[7.64211,47.58662],[7.63984,47.58496],[7.637,47.58368],[7.62927,47.57883],[7.62767,47.57819],[7.62473,47.57734],[7.62382,47.57673]]}},{"type":"Feature","properties":{"id":"birsig-bs","c":"BS","p":"pacht","q":"derived","k":"river"},"geometry":{"type":"LineString","coordinates":[[7.57787,47.54387],[7.57834,47.54591],[7.57865,47.54628],[7.5818,47.54817],[7.58255,47.54908],[7.58438,47.55033],[7.58819,47.55176],[7.58899,47.55234],[7.58939,47.55342],[7.58918,47.55452],[7.58936,47.55506],[7.58868,47.55684],[7.58713,47.55907],[7.58785,47.56001],[7.58909,47.56072]]}},{"type":"Feature","properties":{"id":"wiese-bs","c":"BS","p":"pacht","q":"derived","k":"river"},"geometry":{"type":"LineString","coordinates":[[7.64938,47.59612],[7.64777,47.59403],[7.64192,47.5891],[7.63794,47.58698],[7.62259,47.57762],[7.61947,47.57656],[7.60409,47.57502],[7.59797,47.5746],[7.59731,47.57476],[7.5967,47.57523],[7.59417,47.57985],[7.5929,47.58112],[7.59188,47.58165],[7.5856,47.58301]]}},{"type":"Feature","properties":{"id":"st-albanteich-bs","c":"BS","p":"pacht","q":"derived","k":"river"},"geometry":{"type":"LineString","coordinates":[[7.61751,47.5413],[7.61813,47.54178],[7.61985,47.5446],[7.61919,47.5476],[7.6197,47.54847],[7.61966,47.54907],[7.6204,47.54982],[7.62026,47.55014],[7.61836,47.5505],[7.61624,47.55127],[7.61468,47.55263],[7.61384,47.55377],[7.61093,47.55368],[7.60867,47.5539],[7.60682,47.5536],[7.60409,47.55361],[7.60164,47.55421],[7.60106,47.55512]]}}]}