{"type":"FeatureCollection","features":[{"type":"Feature","properties":{"id":"genfersee-ge","c":"GE","p":"patent","q":"derived","k":"lake","fr":1},"geometry":{"type":"MultiPolygon","coordinates":[[[[6.24175,46.3042],[6.24108,46.30433],[6.24074,46.3038],[6.24132,46.30313],[6.24148,46.30164],[6.24197,46.30017],[6.24263,46.29881],[6.24255,46.29825],[6.24107,46.29649],[6.23947,46.29502],[6.23824,46.2934],[6.23795,46.29328],[6.23698,46.29148],[6.23693,46.29095],[6.23571,46.28959],[6.23574,46.28935],[6.23548,46.28901],[6.23446,46.2883],[6.23113,46.28681],[6.22843,46.28582],[6.22831,46.28558],[6.22799,46.28543],[6.22768,46.28489],[6.22688,46.28413],[6.22697,46.28391],[6.22529,46.28222],[6.22435,46.28101],[6.22185,46.27865],[6.22125,46.27839],[6.22126,46.27806],[6.22037,46.27619],[6.21875,46.27394],[6.21646,46.27192],[6.21661,46.27171],[6.21631,46.27168],[6.21545,46.27087],[6.21446,46.27041],[6.2138,46.26898],[6.2123,46.26734],[6.21084,46.26657],[6.20979,46.26557],[6.20843,46.26516],[6.20558,46.26526],[6.20447,46.26505],[6.20283,46.265],[6.20282,46.26489],[6.20224,46.26494],[6.20225,46.26482],[6.20201,46.26473],[6.20121,46.26461],[6.20081,46.26463],[6.20068,46.26477],[6.19999,46.26451],[6.20002,46.26416],[6.19909,46.26384],[6.19872,46.26382],[6.19875,46.26373],[6.19806,46.26336],[6.19776,46.26299],[6.19629,46.26097],[6.19658,46.2609],[6.19654,46.26066],[6.19564,46.25922],[6.19528,46.25899],[6.19548,46.25887],[6.19542,46.25867],[6.19414,46.2575],[6.19418,46.25679],[6.19445,46.25701],[6.19435,46.25751],[6.19459,46.25776],[6.19481,46.25771],[6.19474,46.25636],[6.19455,46.25635],[6.19445,46.25681],[6.19424,46.25666],[6.19455,46.25615],[6.1945,46.25558],[6.19432,46.25545],[6.1939,46.25425],[6.19309,46.2529],[6.19363,46.25142],[6.194,46.25126],[6.19383,46.25109],[6.19394,46.25091],[6.19377,46.25014],[6.19298,46.24856],[6.19287,46.24805],[6.1924,46.24764],[6.19267,46.24756],[6.19266,46.24738],[6.19226,46.24742],[6.19222,46.24732],[6.19255,46.24723],[6.19243,46.24695],[6.19232,46.24675],[6.19189,46.24674],[6.19177,46.24649],[6.19213,46.24625],[6.19168,46.24615],[6.19161,46.24458],[6.19197,46.24445],[6.192,46.24396],[6.19262,46.24327],[6.19235,46.24381],[6.19276,46.24393],[6.19305,46.24351],[6.19321,46.24349],[6.19278,46.24339],[6.19277,46.24325],[6.19373,46.24315],[6.19392,46.24291],[6.19387,46.24221],[6.19402,46.24218],[6.19388,46.24192],[6.19369,46.2419],[6.19362,46.24174],[6.19382,46.2417],[6.19382,46.24158],[6.19375,46.24146],[6.19351,46.24144],[6.1934,46.24112],[6.1936,46.23986],[6.19318,46.23816],[6.19294,46.23781],[6.19265,46.23781],[6.19231,46.2376],[6.19252,46.23709],[6.1924,46.23651],[6.19158,46.23561],[6.19125,46.23427],[6.19027,46.23268],[6.18967,46.23221],[6.18891,46.23132],[6.18872,46.23137],[6.1863,46.22846],[6.18406,46.22675],[6.183,46.2254],[6.18213,46.22502],[6.18261,46.22483],[6.17921,46.22029],[6.17876,46.22009],[6.17866,46.21979],[6.17878,46.21971],[6.17549,46.21517],[6.17491,46.21511],[6.17497,46.21482],[6.17365,46.21459],[6.17367,46.21443],[6.1732,46.21423],[6.17282,46.21447],[6.1718,46.21421],[6.1713,46.21396],[6.17122,46.21385],[6.17237,46.21314],[6.17306,46.21225],[6.17093,46.21129],[6.17066,46.21153],[6.16992,46.2112],[6.16988,46.21106],[6.16558,46.20913],[6.16393,46.20859],[6.16277,46.20881],[6.16258,46.20911],[6.16265,46.20935],[6.16232,46.2094],[6.16218,46.20919],[6.16239,46.20907],[6.16259,46.20838],[6.16156,46.20789],[6.16108,46.20791],[6.16116,46.20772],[6.15756,46.20598],[6.1561,46.20745],[6.15609,46.20798],[6.15593,46.20806],[6.15599,46.2074],[6.15743,46.20592],[6.15474,46.20461],[6.15445,46.20483],[6.15458,46.20455],[6.15408,46.20431],[6.15374,46.20429],[6.15063,46.20507],[6.14972,46.20504],[6.14799,46.20686],[6.14826,46.20713],[6.14862,46.20715],[6.14881,46.20733],[6.14878,46.2076],[6.14975,46.20847],[6.15012,46.20835],[6.15036,46.20854],[6.15094,46.20857],[6.15116,46.20878],[6.15106,46.20918],[6.15303,46.21097],[6.15515,46.2099],[6.1569,46.20994],[6.15709,46.21003],[6.15697,46.21011],[6.15634,46.21001],[6.15535,46.21009],[6.15445,46.21039],[6.15311,46.21107],[6.15326,46.21169],[6.15276,46.21384],[6.15162,46.21747],[6.15187,46.21794],[6.15217,46.21806],[6.15247,46.21874],[6.15247,46.21933],[6.15318,46.21982],[6.15368,46.22084],[6.1537,46.2212],[6.15316,46.22191],[6.15218,46.22269],[6.15202,46.22264],[6.15184,46.22281],[6.15196,46.22289],[6.1514,46.2234],[6.15132,46.22419],[6.15101,46.22433],[6.14978,46.22546],[6.1491,46.22648],[6.14913,46.22706],[6.14945,46.22725],[6.1493,46.22739],[6.14936,46.22763],[6.14952,46.22761],[6.14957,46.22793],[6.14977,46.22792],[6.1498,46.22803],[6.14983,46.22842],[6.14967,46.22845],[6.14982,46.22938],[6.14996,46.22938],[6.14994,46.22978],[6.15036,46.23093],[6.15036,46.23104],[6.1502,46.23105],[6.15021,46.23142],[6.15072,46.23144],[6.15066,46.23171],[6.15005,46.23234],[6.15094,46.23329],[6.15096,46.23393],[6.15078,46.23432],[6.15053,46.23441],[6.15075,46.2345],[6.1503,46.23567],[6.15095,46.23752],[6.1512,46.23915],[6.15109,46.2392],[6.15125,46.23928],[6.15116,46.23945],[6.15142,46.23948],[6.15157,46.24012],[6.15216,46.24102],[6.15207,46.24124],[6.15229,46.24179],[6.15249,46.24209],[6.15264,46.24207],[6.15312,46.24281],[6.15257,46.24437],[6.15277,46.24438],[6.15279,46.24459],[6.1532,46.24468],[6.15334,46.24533],[6.15394,46.2457],[6.15386,46.24615],[6.15358,46.24658],[6.15206,46.24754],[6.15158,46.24805],[6.15162,46.24822],[6.15188,46.24819],[6.15185,46.24851],[6.15156,46.24889],[6.15147,46.24961],[6.1516,46.2511],[6.15192,46.2517],[6.1521,46.25172],[6.15272,46.25256],[6.15385,46.25345],[6.15396,46.2535],[6.15414,46.25339],[6.15424,46.25312],[6.15465,46.25288],[6.15436,46.25346],[6.15478,46.25391],[6.15544,46.25431],[6.1557,46.25486],[6.15625,46.25545],[6.15784,46.25875],[6.1587,46.25977],[6.16025,46.26069],[6.16097,46.26133],[6.16173,46.26222],[6.16168,46.26241],[6.16203,46.26288],[6.16416,46.26361],[6.16527,46.26358],[6.16576,46.26345],[6.16585,46.26356],[6.16568,46.26369],[6.16626,46.26395],[6.16643,46.26391],[6.16632,46.26343],[6.16602,46.26348],[6.16595,46.26341],[6.16635,46.26302],[6.16636,46.26275],[6.16609,46.26249],[6.16639,46.26262],[6.16655,46.26355],[6.16693,46.26425],[6.16858,46.26956],[6.16893,46.26968],[6.1689,46.26982],[6.16915,46.26998],[6.17002,46.27131],[6.17007,46.27145],[6.16975,46.27167],[6.1697,46.27192],[6.16983,46.27201],[6.17036,46.27183],[6.17085,46.27277],[6.17063,46.27274],[6.17036,46.27219],[6.17008,46.27204],[6.17031,46.27241],[6.17041,46.27348],[6.17097,46.2734],[6.17091,46.2731],[6.17119,46.27297],[6.17122,46.27298],[6.171,46.27337],[6.17117,46.27425],[6.17095,46.27441],[6.17088,46.2748],[6.17034,46.2748],[6.16991,46.27495],[6.17079,46.27505],[6.17054,46.27555],[6.17065,46.27571],[6.17039,46.2761],[6.17057,46.27621],[6.17047,46.27647],[6.17027,46.27647],[6.16967,46.27768],[6.16928,46.27774],[6.16787,46.27972],[6.16787,46.27997],[6.16765,46.27998],[6.16713,46.2815],[6.16744,46.28269],[6.16765,46.28265],[6.16767,46.28301],[6.16813,46.28318],[6.16858,46.28399],[6.16867,46.28426],[6.16845,46.28458],[6.16863,46.28472],[6.1689,46.28465],[6.16935,46.28654],[6.16977,46.28671],[6.16984,46.28792],[6.17018,46.28879],[6.17168,46.28884],[6.17182,46.289],[6.17144,46.28918],[6.17115,46.28913],[6.17094,46.28933],[6.17006,46.29101],[6.16986,46.29252],[6.1703,46.29478],[6.19874,46.28443],[6.21955,46.31188],[6.24152,46.30437],[6.24175,46.3042]],[[6.17194,46.27434],[6.17171,46.2745],[6.1715,46.27464],[6.17154,46.27442],[6.17178,46.27427],[6.17194,46.27434]]],[[[6.20688,46.33883],[6.20727,46.33929],[6.20746,46.34034],[6.20691,46.34118],[6.20679,46.34205],[6.20711,46.34295],[6.20754,46.34312],[6.20733,46.34514],[6.20762,46.34537],[6.20721,46.34603],[6.20727,46.34754],[6.2077,46.34805],[6.20853,46.34834],[6.20868,46.3483],[6.20865,46.3487],[6.20895,46.34916],[6.21067,46.35038],[6.21085,46.35085],[6.21155,46.35145],[6.21208,46.35259],[6.21264,46.35319],[6.24143,46.34367],[6.23232,46.33044],[6.20688,46.33883]]]]}},{"type":"Feature","properties":{"id":"brassu-ge","c":"GE","p":"patent","q":"derived","k":"river"},"geometry":{"type":"MultiLineString","coordinates":[[[6.17164,46.35494],[6.17255,46.35529],[6.17264,46.35549],[6.17304,46.35544],[6.17329,46.3557],[6.17446,46.35569],[6.17472,46.35553],[6.17579,46.35613],[6.17616,46.35602],[6.17772,46.35625],[6.17946,46.35512],[6.18011,46.35527],[6.18198,46.35525],[6.18457,46.35391],[6.18484,46.35312],[6.18453,46.35265],[6.18473,46.35244],[6.18563,46.35255],[6.18696,46.35197],[6.18821,46.35189],[6.18888,46.35153],[6.18862,46.3509],[6.18881,46.35007]],[[6.19315,46.34889],[6.19574,46.34856],[6.19691,46.34867],[6.20067,46.34795],[6.20329,46.34637],[6.20368,46.34585],[6.20462,46.3454],[6.20569,46.34507],[6.20656,46.34543],[6.20684,46.34526]]]}},{"type":"Feature","properties":{"id":"aire-ge","c":"GE","p":"patent","q":"derived","k":"river"},"geometry":{"type":"LineString","coordinates":[[6.07439,46.14914],[6.07551,46.15046],[6.07665,46.15426],[6.07697,46.15919],[6.07675,46.16108],[6.07591,46.16349],[6.0767,46.16465],[6.09452,46.17228],[6.09516,46.17284],[6.09612,46.17282],[6.09689,46.17379],[6.09763,46.17366],[6.09828,46.17385],[6.09909,46.17451],[6.09905,46.17586],[6.09975,46.17649],[6.10209,46.17684],[6.10236,46.17668],[6.10265,46.17577],[6.10385,46.17572],[6.10459,46.176],[6.10511,46.17699],[6.10562,46.17744],[6.10571,46.17795],[6.10628,46.17789],[6.10751,46.17715],[6.10857,46.17748],[6.11081,46.17674],[6.11097,46.17745],[6.11148,46.17727],[6.11191,46.17775],[6.11396,46.17803],[6.11414,46.17885],[6.1149,46.17991],[6.11418,46.18064],[6.11625,46.18117],[6.11704,46.18162],[6.11688,46.18249],[6.11699,46.18312],[6.11733,46.18342],[6.11777,46.18348],[6.11883,46.1832],[6.11946,46.1836],[6.11871,46.18456],[6.11912,46.18482],[6.12072,46.18522],[6.12124,46.18556],[6.12049,46.18679],[6.1211,46.18758],[6.12174,46.18775],[6.12296,46.18752],[6.12821,46.1876]]}},{"type":"Feature","properties":{"id":"versoix-ge","c":"GE","p":"patent","q":"derived","k":"river"},"geometry":{"type":"MultiLineString","coordinates":[[[6.11998,46.29312],[6.12202,46.29267],[6.12187,46.29224],[6.12038,46.29104],[6.12039,46.29047],[6.12083,46.29001],[6.12391,46.28881],[6.12616,46.28904],[6.12698,46.28888],[6.12772,46.28845],[6.12859,46.28849],[6.12902,46.28828],[6.1291,46.28772],[6.12799,46.28733],[6.12773,46.28694],[6.12825,46.2867],[6.12916,46.28666],[6.12916,46.2864],[6.12858,46.28591],[6.12862,46.28539],[6.13034,46.28477],[6.13069,46.28349],[6.13147,46.28272],[6.13181,46.28147],[6.13228,46.28109],[6.13321,46.28183],[6.13432,46.28151],[6.13494,46.28098],[6.13538,46.28098],[6.136,46.28071],[6.13722,46.28177],[6.13837,46.28143],[6.13892,46.28114],[6.13912,46.28079],[6.13805,46.27982],[6.13798,46.27951],[6.13847,46.27887],[6.13929,46.27866],[6.13996,46.27886],[6.14034,46.27957],[6.14181,46.27972],[6.14228,46.27998],[6.14215,46.2806],[6.14245,46.28095],[6.14338,46.28109],[6.14463,46.28026],[6.14643,46.28034],[6.14697,46.27961],[6.14821,46.27939],[6.15,46.27831],[6.1506,46.27826],[6.15289,46.27869],[6.15376,46.27848],[6.15457,46.27795],[6.15484,46.27797],[6.15537,46.27862],[6.15569,46.27869],[6.15692,46.27845],[6.1571,46.27781],[6.15794,46.27816],[6.15839,46.27809],[6.15871,46.27785],[6.15874,46.27704],[6.15903,46.27674],[6.16073,46.27595],[6.16141,46.27626],[6.16179,46.27723],[6.16253,46.27742],[6.16585,46.27643],[6.1671,46.27638],[6.16814,46.27551],[6.16941,46.27504]],[[6.12012,46.31134],[6.12007,46.31086],[6.11954,46.31047],[6.1202,46.30966],[6.11971,46.30949]]]}},{"type":"Feature","properties":{"id":"nante-des-crues-ge","c":"GE","p":"patent","q":"derived","k":"river"},"geometry":{"type":"LineString","coordinates":[[6.03328,46.15624],[6.03177,46.1576],[6.03033,46.15852],[6.02207,46.16225],[6.02048,46.164],[6.02013,46.16395],[6.01972,46.16448],[6.01975,46.16574],[6.01922,46.16634],[6.01908,46.16724],[6.01837,46.16874],[6.01709,46.17014],[6.01529,46.17099],[6.01285,46.17252],[6.01223,46.17325],[6.01204,46.17434],[6.01153,46.17503],[6.01122,46.17602],[6.01074,46.17642]]}},{"type":"Feature","properties":{"id":"foron-ge","c":"GE","p":"patent","q":"derived","k":"river"},"geometry":{"type":"LineString","coordinates":[[6.202,46.18771],[6.20161,46.18667],[6.20093,46.18663],[6.20019,46.18596],[6.19875,46.18519],[6.19908,46.18477],[6.19808,46.18354],[6.19631,46.18378],[6.19599,46.18414],[6.1956,46.18395],[6.19501,46.18414],[6.19504,46.18345],[6.19435,46.18335],[6.1943,46.18311],[6.19312,46.1827],[6.19254,46.18215],[6.19197,46.18216],[6.19127,46.18132],[6.19029,46.18133],[6.18975,46.18106],[6.18928,46.18139],[6.18845,46.18151],[6.18898,46.18073],[6.18789,46.18078],[6.18715,46.18037],[6.18744,46.1786],[6.18619,46.17823]]}},{"type":"Feature","properties":{"id":"laire-ge","c":"GE","p":"patent","q":"derived","k":"river"},"geometry":{"type":"MultiLineString","coordinates":[[[5.98243,46.14202],[5.98205,46.14167],[5.98141,46.14166],[5.97892,46.14264],[5.97819,46.14193],[5.97716,46.14198],[5.97627,46.14239],[5.97556,46.1419],[5.97464,46.14196],[5.97379,46.14159],[5.9723,46.14209],[5.97118,46.14206],[5.97107,46.14348],[5.96981,46.14394],[5.9687,46.14397],[5.96821,46.1444],[5.96827,46.14516],[5.96922,46.14568],[5.96915,46.14597],[5.968,46.14667],[5.9661,46.14695]],[[5.98931,46.14365],[5.98882,46.14383],[5.98847,46.1433],[5.98798,46.14324],[5.98707,46.14256],[5.98654,46.14295],[5.98573,46.14293],[5.98554,46.14343],[5.98369,46.14313],[5.98299,46.14258]],[[6.02915,46.13938],[6.02881,46.13971],[6.02827,46.13981],[6.0285,46.14031],[6.02834,46.14046],[6.02729,46.14006],[6.02641,46.14009],[6.02545,46.1404],[6.02404,46.14041],[6.02254,46.14168],[6.02177,46.1416],[6.02111,46.14124],[6.02025,46.14202],[6.01846,46.1422],[6.01718,46.14285],[6.01569,46.14277],[6.01495,46.14306],[6.01434,46.14242],[6.01366,46.14253],[6.01319,46.14215],[6.01123,46.14214],[6.01095,46.14193],[6.01057,46.14219],[6.00968,46.14213],[6.00936,46.14249],[6.00844,46.14286],[6.00673,46.14214],[6.00519,46.1423],[6.00443,46.14197],[6.00373,46.14203],[6.00337,46.1418],[6.00224,46.14228],[6.00123,46.14225],[6.00092,46.14259],[6.00031,46.14263],[5.99988,46.14314],[5.9988,46.14284],[5.99858,46.14306],[5.99726,46.14281],[5.99694,46.14341],[5.99623,46.14379]],[[6.03536,46.1344],[6.03493,46.13474],[6.03433,46.13596],[6.03453,46.13679],[6.03353,46.13657],[6.03367,46.13693],[6.03342,46.13741],[6.03363,46.13794],[6.0334,46.13799],[6.03294,46.13773],[6.0325,46.13787],[6.03292,46.1387],[6.03223,46.13854],[6.03146,46.13801],[6.03166,46.13939],[6.03098,46.13946],[6.0306,46.13913],[6.03023,46.1391],[6.02991,46.1392],[6.02994,46.13947]]]}},{"type":"Feature","properties":{"id":"drize-ge","c":"GE","p":"patent","q":"derived","k":"river"},"geometry":{"type":"LineString","coordinates":[[6.1419,46.14721],[6.1424,46.14743],[6.14289,46.14816],[6.14353,46.14841],[6.1435,46.14862],[6.14394,46.14899],[6.14578,46.14902],[6.14602,46.14883],[6.14695,46.14892],[6.1472,46.14937],[6.1484,46.15022],[6.14808,46.1509],[6.14886,46.15219],[6.1487,46.15246],[6.14899,46.15339],[6.14879,46.15356],[6.14944,46.15387],[6.14909,46.15398],[6.14922,46.15441],[6.14864,46.15432],[6.14837,46.15469],[6.14856,46.15511],[6.14803,46.15548],[6.14755,46.15626],[6.14732,46.15714],[6.14794,46.15777],[6.14761,46.15819],[6.14821,46.15846],[6.14831,46.15869],[6.1486,46.15866],[6.14885,46.15902],[6.14869,46.15922],[6.14902,46.15937],[6.15005,46.16073],[6.15059,46.16166],[6.15036,46.16186],[6.15092,46.16243],[6.15012,46.16228],[6.1496,46.16266],[6.14986,46.16307],[6.14693,46.16425],[6.14658,46.16476],[6.14562,46.16511],[6.14581,46.16521],[6.14511,46.16568],[6.14518,46.16588],[6.14453,46.16621],[6.14442,46.16656],[6.14378,46.16667],[6.14354,46.16705],[6.14258,46.16728],[6.14191,46.16768],[6.14208,46.16795],[6.14157,46.16861],[6.14122,46.16832],[6.14001,46.16828],[6.13976,46.16813],[6.13931,46.16858],[6.13897,46.16863],[6.13884,46.16904],[6.13822,46.16924],[6.13884,46.16978],[6.13808,46.17023],[6.13795,46.17125],[6.13741,46.17203],[6.1368,46.17243],[6.13701,46.17316],[6.13589,46.17367],[6.13507,46.17375],[6.13466,46.17493],[6.13334,46.17625],[6.12894,46.17962],[6.12821,46.1876]]}},{"type":"Feature","properties":{"id":"seymaz-ge","c":"GE","p":"patent","q":"derived","k":"river"},"geometry":{"type":"LineString","coordinates":[[6.22326,46.23958],[6.22785,46.2373],[6.23721,46.23424],[6.23641,46.23267],[6.23581,46.22815],[6.2352,46.22576],[6.23165,46.22383],[6.22815,46.22236],[6.2254,46.22024],[6.22502,46.21967],[6.22482,46.21798],[6.2244,46.21714],[6.22219,46.21479],[6.21984,46.21291],[6.21906,46.21169],[6.21772,46.21067],[6.21582,46.20997],[6.21506,46.20991],[6.21459,46.21019],[6.21398,46.21105],[6.21208,46.21179],[6.2098,46.21089],[6.20612,46.21031],[6.20468,46.20987],[6.20354,46.20908],[6.20252,46.20879],[6.20209,46.20843],[6.20114,46.20709],[6.20155,46.20674],[6.20166,46.20625],[6.20123,46.20582],[6.20141,46.20549],[6.2012,46.20525],[6.2014,46.20507],[6.2011,46.20492],[6.20205,46.20406],[6.20157,46.20329],[6.20062,46.20297],[6.20023,46.20309],[6.19983,46.20299],[6.19972,46.2023],[6.1982,46.20196],[6.19712,46.202],[6.19583,46.20089],[6.19563,46.20054],[6.1958,46.20016],[6.19555,46.20006],[6.19532,46.20038],[6.19524,46.20014],[6.19437,46.19982],[6.19413,46.19991],[6.19366,46.19954],[6.19362,46.19929],[6.19395,46.19899],[6.19357,46.19869],[6.19337,46.19786],[6.19174,46.19704],[6.19192,46.19682],[6.19155,46.19632],[6.19193,46.19549],[6.19156,46.19503],[6.18994,46.19469],[6.18897,46.19429],[6.18823,46.19423],[6.18784,46.19399],[6.18661,46.19448],[6.1863,46.19428],[6.1858,46.19297],[6.18511,46.19244],[6.18545,46.19173],[6.18627,46.19174],[6.18665,46.19122],[6.18673,46.18996],[6.18613,46.18918],[6.18613,46.18884],[6.1851,46.18848],[6.18521,46.18814],[6.18429,46.18763],[6.18437,46.18733],[6.18326,46.18644],[6.18363,46.18583],[6.18329,46.18485],[6.18336,46.18438],[6.1832,46.18425],[6.18285,46.18445],[6.18259,46.18436],[6.1831,46.18308],[6.18425,46.18214],[6.18387,46.18164],[6.184,46.18107],[6.1832,46.18093],[6.18287,46.18009],[6.18206,46.18007],[6.18152,46.17947]]}},{"type":"Feature","properties":{"id":"ruisseau-le-gobe-ge","c":"GE","p":"patent","q":"derived","k":"river"},"geometry":{"type":"MultiLineString","coordinates":[[[6.10342,46.27865],[6.10482,46.27822],[6.10576,46.2769],[6.10675,46.27676],[6.10734,46.27638],[6.10857,46.27476],[6.10951,46.27469],[6.11123,46.27409],[6.11357,46.27274],[6.11454,46.27346],[6.11731,46.27164],[6.11559,46.27],[6.11483,46.26878],[6.11485,46.26805],[6.11549,46.2671],[6.11618,46.26631],[6.12057,46.26461],[6.12149,46.26381],[6.12515,46.262],[6.12441,46.26142],[6.12389,46.26037],[6.12316,46.26026],[6.12268,46.25993],[6.12316,46.25944],[6.12322,46.25889],[6.1225,46.25823]],[[6.12443,46.2526],[6.12636,46.25266],[6.12664,46.25283],[6.12802,46.25246],[6.13004,46.25276],[6.13055,46.25269],[6.13076,46.25287],[6.13097,46.2526],[6.13131,46.25283],[6.13177,46.25267],[6.13205,46.2528],[6.13401,46.25216],[6.13408,46.2523],[6.13475,46.25229],[6.13518,46.25258],[6.13557,46.25252],[6.13647,46.25301],[6.13803,46.25305],[6.13863,46.2526],[6.14082,46.25285],[6.14147,46.25309],[6.14209,46.25274],[6.1423,46.25235],[6.14208,46.25157],[6.14214,46.2504]]]}},{"type":"Feature","properties":{"id":"chambet-ge","c":"GE","p":"patent","q":"derived","k":"river"},"geometry":{"type":"MultiLineString","coordinates":[[[6.26712,46.24779],[6.26492,46.24609],[6.26382,46.24597],[6.26335,46.24557],[6.26278,46.24403],[6.26319,46.24362],[6.26304,46.24297],[6.26194,46.24296],[6.26138,46.24257],[6.2607,46.24249],[6.25829,46.24286],[6.25695,46.24378],[6.25649,46.24352],[6.25562,46.24339],[6.25487,46.24292],[6.25454,46.24325],[6.25065,46.24354],[6.24982,46.2433],[6.24909,46.24279],[6.24876,46.2422],[6.24769,46.24165],[6.24713,46.24172],[6.24649,46.24148],[6.24574,46.24173],[6.24295,46.24126],[6.2402,46.23835],[6.23731,46.23412]],[[6.27689,46.25095],[6.27666,46.251]],[[6.27821,46.25118],[6.27778,46.25067],[6.27736,46.25075]],[[6.28614,46.25325],[6.28498,46.25325],[6.28277,46.25291],[6.28223,46.25315],[6.27919,46.25148]]]}},{"type":"Feature","properties":{"id":"hermance-ge","c":"GE","p":"patent","q":"derived","k":"river"},"geometry":{"type":"MultiLineString","coordinates":[[[6.24272,46.27286],[6.24079,46.27375],[6.23916,46.27494],[6.23829,46.27596],[6.23798,46.27717],[6.2376,46.27764],[6.23783,46.27787],[6.23841,46.27797],[6.23873,46.27879],[6.23856,46.27916],[6.23901,46.27948],[6.23858,46.27999],[6.23886,46.28022],[6.23833,46.28049],[6.23855,46.28077],[6.23811,46.28086],[6.2384,46.28117],[6.2384,46.28166],[6.23789,46.28173],[6.23795,46.282],[6.23822,46.28212],[6.23925,46.2818],[6.23971,46.28195],[6.23989,46.28274],[6.24195,46.28394],[6.24168,46.28463],[6.24184,46.285],[6.24341,46.28541],[6.24501,46.28518],[6.24625,46.28527],[6.24696,46.28567],[6.24713,46.28616],[6.2478,46.28618],[6.24805,46.28658],[6.24896,46.28656],[6.2491,46.2871],[6.2488,46.28743],[6.24892,46.28762],[6.25139,46.2881],[6.25172,46.28862],[6.25191,46.28971],[6.25292,46.29051],[6.25225,46.29181]],[[6.24893,46.30161],[6.24875,46.30202],[6.248,46.30206],[6.24757,46.30279],[6.24643,46.30266],[6.24527,46.303],[6.2446,46.30403],[6.24334,46.30339],[6.24216,46.30398]]]}},{"type":"Feature","properties":{"id":"arve-ge","c":"GE","p":"patent","q":"derived","k":"river"},"geometry":{"type":"LineString","coordinates":[[6.18664,46.17776],[6.18541,46.17883],[6.18446,46.17921],[6.17986,46.17961],[6.17909,46.17943],[6.17844,46.17903],[6.17707,46.17758],[6.17298,46.17596],[6.17106,46.17567],[6.16972,46.176],[6.16913,46.17647],[6.16914,46.1771],[6.1711,46.17834],[6.17154,46.17911],[6.17123,46.18282],[6.16975,46.18538],[6.1682,46.1871],[6.16674,46.18779],[6.16514,46.18817],[6.16356,46.18788],[6.16284,46.18747],[6.16241,46.1863],[6.16247,46.18488],[6.15997,46.1813],[6.15967,46.17918],[6.15936,46.17869],[6.1586,46.17809],[6.15762,46.1778],[6.15659,46.17775],[6.15545,46.17806],[6.15445,46.17896],[6.15377,46.17999],[6.15359,46.18097],[6.15415,46.18255],[6.15449,46.18475],[6.15369,46.18612],[6.15231,46.18662],[6.14834,46.18686],[6.14516,46.18674],[6.14322,46.18713],[6.14204,46.1879],[6.13952,46.19306],[6.13832,46.19398],[6.13302,46.19657],[6.12986,46.1987],[6.12704,46.20012],[6.12363,46.2009],[6.11924,46.20092]]}},{"type":"Feature","properties":{"id":"allondon-ge","c":"GE","p":"patent","q":"derived","k":"river"},"geometry":{"type":"MultiLineString","coordinates":[[[5.99854,46.21905],[5.99889,46.21809],[5.99883,46.21721],[5.99656,46.21609],[5.99607,46.2137],[5.99451,46.21244],[5.99537,46.21141],[5.99448,46.2095],[5.99394,46.20916],[5.99243,46.20871],[5.99232,46.20849],[5.99308,46.20766],[5.99435,46.20729],[5.99492,46.20662],[5.99507,46.20509],[5.99603,46.20383],[5.99631,46.20264],[5.99682,46.20232],[5.9986,46.20189],[6.00035,46.2018],[6.00151,46.20063],[6.0015,46.19893],[6.00174,46.19848],[6.00226,46.19825],[6.0037,46.19817],[6.0043,46.19787],[6.0039,46.19598],[6.00297,46.19429],[6.0029,46.19368],[6.00306,46.1931],[6.00338,46.19287],[6.00501,46.19249],[6.0051,46.19158],[6.00471,46.19125],[6.00497,46.19056],[6.00489,46.18976],[6.00665,46.18873],[6.00712,46.1879],[6.00728,46.18691],[6.00898,46.1857],[6.01011,46.18422],[6.01025,46.18353],[6.01003,46.18273],[6.00797,46.18081],[6.00929,46.17918],[6.00968,46.17681]],[[6.01629,46.23181],[6.01526,46.23046],[6.01442,46.2306],[6.01334,46.23108],[6.0129,46.231],[6.01259,46.23016],[6.01341,46.2294],[6.01327,46.22898],[6.01282,46.22867],[6.01239,46.22852],[6.01155,46.22856],[6.00999,46.22904],[6.00962,46.22901],[6.00955,46.22863],[6.01026,46.22791],[6.00978,46.22733],[6.0081,46.22641],[6.00685,46.22666],[6.00656,46.22652],[6.00694,46.22553],[6.00714,46.22388],[6.00459,46.22335]]]}},{"type":"Feature","properties":{"id":"rhone-ge","c":"GE","p":"patent","q":"derived","k":"river"},"geometry":{"type":"MultiLineString","coordinates":[[[5.9661,46.14695],[5.96491,46.14595],[5.96439,46.14487],[5.96431,46.14282],[5.96477,46.14113],[5.96632,46.13919],[5.96637,46.13819]],[[6.02853,46.19304],[6.0307,46.19093],[6.03137,46.18994],[6.03143,46.18873],[6.03084,46.18762],[6.03027,46.18709],[6.02434,46.18354],[6.01781,46.18112],[6.0154,46.1786],[6.01405,46.1776],[6.01078,46.17687],[6.00937,46.17676],[6.00724,46.17594],[6.00461,46.17539],[6.00198,46.17567],[5.99794,46.17651],[5.99334,46.17714],[5.99257,46.17709],[5.99171,46.17678]],[[6.14767,46.20654],[6.14172,46.20508],[6.1389,46.20504],[6.13662,46.20527],[6.13424,46.20379],[6.13319,46.20334],[6.132,46.20312],[6.12862,46.20315],[6.12587,46.20276],[6.11924,46.20092],[6.11713,46.20106],[6.11576,46.20147],[6.11391,46.20239],[6.1123,46.20282],[6.10971,46.20274],[6.10858,46.20222],[6.10688,46.20087],[6.1061,46.19983],[6.10325,46.19731],[6.09901,46.19301],[6.09841,46.19277],[6.09509,46.19217],[6.09295,46.19228],[6.09164,46.19252],[6.08899,46.1935],[6.08806,46.19406],[6.08728,46.19498],[6.08707,46.19559],[6.08745,46.19692],[6.08993,46.19842],[6.09034,46.19897],[6.09033,46.20115],[6.09102,46.2034],[6.09226,46.20623],[6.0938,46.20819],[6.09373,46.20935],[6.09269,46.21059],[6.0919,46.2111],[6.09096,46.21138],[6.09025,46.21138],[6.08872,46.21093],[6.0872,46.21013],[6.08611,46.20945],[6.08418,46.20772],[6.08163,46.20457],[6.08018,46.20342],[6.079,46.20279],[6.07756,46.20237],[6.07604,46.20241]]]}}]}