{"type":"FeatureCollection","features":[{"type":"Feature","properties":{"id":"stausee-garichti-gl","c":"GL","p":"patent","q":"derived","k":"lake"},"geometry":{"type":"Polygon","coordinates":[[[9.09819,46.95784],[9.09969,46.95706],[9.10272,46.95592],[9.10287,46.95561],[9.10383,46.95515],[9.10345,46.95474],[9.10272,46.95464],[9.10252,46.95451],[9.10247,46.9542],[9.10288,46.9539],[9.10269,46.9536],[9.10234,46.95363],[9.10181,46.95327],[9.10138,46.95325],[9.10097,46.9534],[9.10063,46.95388],[9.10002,46.95417],[9.09958,46.95457],[9.09864,46.95485],[9.09809,46.95458],[9.09685,46.9554],[9.09671,46.95584],[9.09584,46.95641],[9.09603,46.95711],[9.09819,46.95784]]]}},{"type":"Feature","properties":{"id":"oberblegisee-gl","c":"GL","p":"patent","q":"derived","k":"lake"},"geometry":{"type":"Polygon","coordinates":[[[9.01141,46.98239],[9.01165,46.98298],[9.01248,46.98335],[9.01303,46.98299],[9.01374,46.98279],[9.0147,46.98275],[9.01461,46.98255],[9.01486,46.98219],[9.01465,46.9818],[9.01499,46.98134],[9.01574,46.98088],[9.01607,46.98049],[9.01569,46.97986],[9.01481,46.97927],[9.01464,46.979],[9.01439,46.97898],[9.01455,46.97858],[9.01506,46.97822],[9.01453,46.9781],[9.01308,46.97701],[9.01268,46.97708],[9.01274,46.97747],[9.01181,46.97801],[9.01114,46.97883],[9.0111,46.97924],[9.01135,46.97989],[9.01136,46.98121],[9.01153,46.9815],[9.01141,46.98239]]]}},{"type":"Feature","properties":{"id":"kloentalersee-gl","c":"GL","p":"patent","q":"derived","k":"lake"},"geometry":{"type":"Polygon","coordinates":[[[9.00647,47.03327],[9.00514,47.0321],[9.004,47.03193],[9.00221,47.03115],[9.00188,47.03113],[9.0018,47.03133],[9.00167,47.03132],[9.00118,47.03095],[9.00104,47.03056],[9.00022,47.03022],[8.99843,47.0283],[8.99691,47.0279],[8.99682,47.0277],[8.99641,47.02758],[8.9958,47.0277],[8.99542,47.02696],[8.9945,47.02675],[8.99383,47.02695],[8.99302,47.02694],[8.99186,47.02738],[8.99141,47.02738],[8.99009,47.0272],[8.98921,47.02695],[8.98864,47.02645],[8.98853,47.02612],[8.98811,47.02586],[8.98806,47.02559],[8.9872,47.02487],[8.98719,47.0247],[8.98753,47.02472],[8.98757,47.02464],[8.98553,47.02319],[8.98468,47.02282],[8.98348,47.02286],[8.9828,47.0233],[8.98224,47.0233],[8.98175,47.02302],[8.97922,47.02232],[8.97793,47.02243],[8.97605,47.02201],[8.97544,47.02144],[8.97371,47.02073],[8.97243,47.02142],[8.97207,47.02142],[8.97198,47.02125],[8.96858,47.02138],[8.9671,47.02102],[8.96609,47.02034],[8.96576,47.01995],[8.96587,47.01979],[8.96576,47.01922],[8.96536,47.019],[8.96454,47.01888],[8.96312,47.01898],[8.96235,47.01952],[8.96158,47.01968],[8.96118,47.01957],[8.9607,47.01914],[8.95606,47.01933],[8.95543,47.01969],[8.95489,47.01979],[8.95462,47.0203],[8.95388,47.02064],[8.95318,47.02066],[8.9527,47.02085],[8.95257,47.02064],[8.95173,47.02039],[8.95092,47.02052],[8.94977,47.0218],[8.94944,47.02187],[8.94914,47.02179],[8.94861,47.02196],[8.94653,47.02204],[8.946,47.02188],[8.94558,47.02146],[8.9455,47.02157],[8.94566,47.02169],[8.94482,47.02199],[8.94513,47.02223],[8.94589,47.02215],[8.94681,47.02242],[8.94828,47.02234],[8.94829,47.02248],[8.94777,47.02282],[8.94698,47.02271],[8.94612,47.0229],[8.94617,47.02305],[8.94657,47.02303],[8.94675,47.02329],[8.94705,47.02475],[8.94765,47.0252],[8.94689,47.02545],[8.94613,47.02605],[8.94633,47.02617],[8.9471,47.02555],[8.94754,47.02547],[8.94789,47.02616],[8.94884,47.02707],[8.95067,47.02659],[8.95152,47.02655],[8.95251,47.02633],[8.95479,47.02617],[8.95637,47.02636],[8.9596,47.02623],[8.96167,47.0257],[8.96335,47.026],[8.96498,47.02606],[8.96644,47.02595],[8.96695,47.02574],[8.96751,47.02568],[8.96892,47.02607],[8.96991,47.02606],[8.97106,47.02635],[8.97183,47.02639],[8.97253,47.02674],[8.97355,47.02697],[8.97476,47.02747],[8.97592,47.02761],[8.97705,47.02845],[8.9783,47.02872],[8.97946,47.02924],[8.98048,47.02948],[8.98111,47.02985],[8.98344,47.03051],[8.98432,47.03111],[8.98521,47.03146],[8.9861,47.03205],[8.98833,47.03214],[8.98854,47.03232],[8.98939,47.03257],[8.98944,47.03275],[8.99019,47.03321],[8.99171,47.03379],[8.99266,47.03472],[8.99281,47.03527],[8.99306,47.03545],[8.99729,47.03641],[8.99852,47.03641],[8.99915,47.03663],[8.99977,47.03662],[9.00029,47.03679],[9.00177,47.03636],[9.00444,47.03598],[9.00577,47.03517],[9.00666,47.03435],[9.00647,47.03327]]]}},{"type":"Feature","properties":{"id":"limmerensee-gl","c":"GL","p":"patent","q":"derived","k":"lake"},"geometry":{"type":"Polygon","coordinates":[[[9.00968,46.84707],[9.01106,46.8462],[9.01182,46.84594],[9.01278,46.84595],[9.01362,46.84569],[9.01376,46.84515],[9.014,46.84496],[9.01457,46.84497],[9.0157,46.84546],[9.01774,46.84498],[9.01749,46.84437],[9.0182,46.84208],[9.01846,46.84027],[9.01838,46.83997],[9.01876,46.83958],[9.01871,46.83945],[9.01847,46.83941],[9.0184,46.83899],[9.01858,46.83791],[9.01808,46.83747],[9.01807,46.83709],[9.0183,46.83687],[9.01804,46.83612],[9.01832,46.83588],[9.01799,46.83566],[9.01796,46.83482],[9.01773,46.83451],[9.01775,46.83435],[9.018,46.83423],[9.01749,46.83396],[9.01747,46.83367],[9.01719,46.83353],[9.01718,46.8333],[9.01692,46.83313],[9.01719,46.83287],[9.01694,46.83268],[9.01666,46.83177],[9.0164,46.83141],[9.01613,46.82984],[9.01592,46.8296],[9.0153,46.82748],[9.01507,46.82724],[9.0148,46.82651],[9.01445,46.82629],[9.01328,46.82446],[9.01174,46.82268],[9.01113,46.82217],[9.01036,46.82209],[9.00997,46.82308],[9.01003,46.82367],[9.00965,46.82532],[9.00995,46.82832],[9.00947,46.82918],[9.01009,46.83037],[9.00987,46.83119],[9.01017,46.8332],[9.01046,46.83399],[9.01041,46.8346],[9.01068,46.83529],[9.01076,46.83631],[9.01064,46.83655],[9.0109,46.83769],[9.01074,46.83782],[9.01082,46.83867],[9.01063,46.83894],[9.01053,46.83974],[9.00991,46.8405],[9.00956,46.84191],[9.00899,46.84307],[9.00725,46.84462],[9.00703,46.8453],[9.00799,46.84541],[9.00874,46.84568],[9.00928,46.84616],[9.00968,46.84707]]]}},{"type":"Feature","properties":{"id":"muttsee-gl","c":"GL","p":"patent","q":"derived","k":"lake"},"geometry":{"type":"Polygon","coordinates":[[[9.03134,46.86078],[9.03078,46.86081],[9.02918,46.86161],[9.02858,46.86171],[9.0276,46.86217],[9.02703,46.86213],[9.02606,46.86166],[9.02379,46.86113],[9.02144,46.86139],[9.02123,46.86151],[9.02101,46.86201],[9.0205,46.86201],[9.0208,46.86219],[9.02089,46.86263],[9.02156,46.86335],[9.02213,46.86446],[9.02309,46.8655],[9.02342,46.86561],[9.02365,46.86591],[9.02446,46.86592],[9.025,46.86574],[9.02518,46.86586],[9.02678,46.86564],[9.02835,46.8661],[9.03065,46.86622],[9.0316,46.86547],[9.03177,46.86455],[9.03209,46.86446],[9.03209,46.86433],[9.03238,46.86416],[9.03334,46.86235],[9.03331,46.8621],[9.03239,46.86105],[9.03224,46.86068],[9.03163,46.86065],[9.03134,46.86078]],[[9.02723,46.86227],[9.02729,46.86242],[9.02678,46.8623],[9.02686,46.86224],[9.02723,46.86227]],[[9.02823,46.86204],[9.02824,46.86218],[9.02801,46.86225],[9.02809,46.86205],[9.02823,46.86204]],[[9.02673,46.86203],[9.02643,46.86203],[9.02631,46.86193],[9.02673,46.86203]]]}},{"type":"Feature","properties":{"id":"walensee-gl","c":"GL","p":"patent","q":"derived","k":"lake"},"geometry":{"type":"Polygon","coordinates":[[[9.1888,47.11599],[9.18834,47.11603],[9.18797,47.11626],[9.18712,47.11594],[9.18661,47.11587],[9.18653,47.11602],[9.18624,47.11593],[9.18632,47.11579],[9.18544,47.11527],[9.18406,47.11529],[9.18359,47.11585],[9.18316,47.11604],[9.18321,47.11635],[9.18196,47.11617],[9.17812,47.11701],[9.17608,47.11711],[9.17502,47.11771],[9.17419,47.11842],[9.1738,47.11855],[9.1734,47.11853],[9.17331,47.11842],[9.17276,47.11831],[9.17229,47.11843],[9.17202,47.11831],[9.17155,47.11846],[9.1707,47.11811],[9.17044,47.11812],[9.17044,47.11825],[9.17027,47.11825],[9.17027,47.11814],[9.16977,47.11813],[9.1675,47.11888],[9.16718,47.11916],[9.16634,47.11951],[9.15883,47.12092],[9.15573,47.12231],[9.15404,47.12253],[9.15254,47.12248],[9.15155,47.12264],[9.15053,47.12252],[9.14798,47.12263],[9.14692,47.12279],[9.14615,47.12309],[9.14514,47.12313],[9.14293,47.12353],[9.14227,47.12372],[9.14181,47.1241],[9.14166,47.12452],[9.14136,47.1247],[9.13997,47.12502],[9.13776,47.12582],[9.13683,47.12602],[9.13198,47.12651],[9.12833,47.12596],[9.1235,47.12598],[9.12136,47.12581],[9.12082,47.12664],[9.11945,47.12651],[9.11927,47.12661],[9.11948,47.12677],[9.1194,47.1269],[9.11891,47.12717],[9.11867,47.12702],[9.11784,47.12693],[9.11708,47.12666],[9.11443,47.12803],[9.11385,47.12821],[9.11257,47.12831],[9.11198,47.12813],[9.11121,47.12825],[9.10928,47.12829],[9.10886,47.12821],[9.10883,47.12786],[9.10857,47.12801],[9.10789,47.12789],[9.10673,47.12833],[9.10565,47.129],[9.10545,47.12928],[9.10519,47.12923],[9.10372,47.12986],[9.10315,47.13042],[9.10094,47.13185],[9.10053,47.13254],[9.10003,47.13268],[9.09924,47.13265],[9.09998,47.13278],[9.10085,47.13318],[9.10157,47.13324],[9.10522,47.13186],[9.10676,47.13147],[9.10816,47.13132],[9.10981,47.13143],[9.11293,47.13224],[9.11543,47.13275],[9.13592,47.13198],[9.1477,47.12892],[9.18988,47.1237],[9.1888,47.11599]]]}},{"type":"Feature","properties":{"id":"hintergraben-gl","c":"GL","p":"patent","q":"derived","k":"river"},"geometry":{"type":"LineString","coordinates":[[9.0722,47.1011],[9.0723,47.10227],[9.07332,47.10524],[9.07963,47.11536],[9.08063,47.11659],[9.08251,47.1173],[9.10191,47.12057],[9.10269,47.12068],[9.10321,47.12056],[9.10388,47.12087],[9.10411,47.12131]]}},{"type":"Feature","properties":{"id":"ruestelirus-gl","c":"GL","p":"patent","q":"derived","k":"river"},"geometry":{"type":"LineString","coordinates":[[9.09291,47.07674],[9.09235,47.07835],[9.09101,47.0796],[9.0886,47.08091],[9.08798,47.0816],[9.08628,47.08218],[9.08532,47.08274],[9.08155,47.0857],[9.08089,47.08579],[9.07889,47.08556],[9.07709,47.08465],[9.07594,47.08445],[9.07484,47.08447],[9.07459,47.0841],[9.07384,47.08386],[9.07295,47.08377],[9.07267,47.08399],[9.07221,47.0848],[9.07262,47.08512],[9.07312,47.08507],[9.07354,47.08541],[9.07417,47.08716],[9.07396,47.08764],[9.0736,47.08767],[9.07351,47.08927],[9.07203,47.09087],[9.07179,47.09175],[9.07069,47.09217],[9.07256,47.09386],[9.07329,47.09493],[9.07369,47.09622],[9.07234,47.0977],[9.0722,47.1011]]}},{"type":"Feature","properties":{"id":"loentsch-gl","c":"GL","p":"patent","q":"derived","k":"river"},"geometry":{"type":"LineString","coordinates":[[9.00566,47.03575],[9.00744,47.03609],[9.0087,47.03671],[9.0097,47.03746],[9.0101,47.03844],[9.01197,47.0396],[9.01285,47.03978],[9.01421,47.04046],[9.01634,47.04071],[9.01816,47.04144],[9.01899,47.04226],[9.02212,47.04356],[9.0232,47.0443],[9.0257,47.04664],[9.02803,47.04767],[9.0301,47.04955],[9.03055,47.04951],[9.03237,47.04777],[9.03393,47.04664],[9.03571,47.04607],[9.03648,47.04656],[9.03754,47.04654],[9.04089,47.04782],[9.04218,47.04785],[9.04358,47.04814],[9.04486,47.04778],[9.04594,47.04773],[9.04672,47.04834],[9.04862,47.04844],[9.04913,47.04888],[9.04912,47.04968],[9.04964,47.05004],[9.05001,47.05144],[9.04994,47.05202],[9.05064,47.0533],[9.04956,47.05642],[9.04965,47.05699],[9.05441,47.05984],[9.05555,47.06083],[9.0578,47.06106],[9.06045,47.06271]]}},{"type":"Feature","properties":{"id":"linthkanal-gl","c":"GL","p":"patent","q":"derived","k":"river"},"geometry":{"type":"LineString","coordinates":[[9.09011,47.13153],[9.06899,47.12981]]}},{"type":"Feature","properties":{"id":"hintergraben-gl-2","c":"GL","p":"patent","q":"derived","k":"river"},"geometry":{"type":"LineString","coordinates":[[9.05281,47.12866],[9.05367,47.1289],[9.05404,47.1299],[9.05079,47.13247],[9.04689,47.13517],[9.03956,47.14118],[9.0344,47.14506],[9.03425,47.14552],[9.0354,47.152],[9.00448,47.17421]]}},{"type":"Feature","properties":{"id":"biltnerbach-gl","c":"GL","p":"patent","q":"derived","k":"river"},"geometry":{"type":"MultiLineString","coordinates":[[[8.9772,47.13594],[8.97866,47.13617],[8.97945,47.13606],[8.97994,47.13649],[8.9807,47.13651],[8.98149,47.13684],[8.98217,47.13785],[8.98249,47.13943],[8.98323,47.13996],[8.98454,47.1401],[8.98642,47.14068],[8.98833,47.14199],[8.98854,47.14235],[8.9889,47.14223],[8.98956,47.14239],[8.99289,47.14368],[8.99407,47.14377],[8.99586,47.14516],[8.99874,47.14632],[8.99944,47.14681],[9.00123,47.14734],[9.00201,47.14822],[9.00283,47.14849],[9.00497,47.14842],[9.00721,47.14876],[9.00856,47.14853],[9.01014,47.14878],[9.01152,47.14846],[9.01203,47.14862],[9.01344,47.14968],[9.01535,47.14989],[9.01795,47.15086],[9.02017,47.15139],[9.02073,47.15201],[9.02145,47.15234],[9.02526,47.15318]],[[9.02628,47.1535],[9.02751,47.15402],[9.02827,47.15456],[9.02946,47.15669]]]}},{"type":"Feature","properties":{"id":"muelibach-gl","c":"GL","p":"patent","q":"derived","k":"river"},"geometry":{"type":"LineString","coordinates":[[9.03876,47.06709],[9.04029,47.06708],[9.04123,47.06608],[9.04187,47.06572],[9.04497,47.06529],[9.04624,47.06569],[9.04772,47.06562],[9.05017,47.06643],[9.05077,47.06746],[9.05071,47.06863],[9.05095,47.06892],[9.05064,47.06955],[9.05075,47.0709],[9.05045,47.07133],[9.05213,47.07192],[9.05182,47.07282],[9.05279,47.07339],[9.05276,47.07418],[9.05396,47.07556],[9.05266,47.07745],[9.05322,47.07817],[9.05441,47.07881],[9.05438,47.07994],[9.05351,47.08184],[9.05435,47.08312],[9.05494,47.08361],[9.05468,47.08467],[9.05617,47.08813],[9.05613,47.08917],[9.05647,47.08968],[9.05644,47.09051],[9.056,47.09085],[9.05632,47.09134],[9.05705,47.0916],[9.05703,47.09198],[9.05799,47.09233],[9.05852,47.09297],[9.05907,47.09395],[9.05939,47.09573],[9.06058,47.09705],[9.06217,47.09745],[9.0654,47.09866],[9.06611,47.09975],[9.06554,47.09989],[9.06555,47.10028],[9.06693,47.10026],[9.06859,47.10126],[9.06694,47.10218],[9.06626,47.10214],[9.06565,47.10241],[9.06594,47.10281],[9.06528,47.10323],[9.06427,47.10331],[9.06337,47.10264],[9.06272,47.10278],[9.06203,47.10366],[9.06176,47.1045],[9.06168,47.10502],[9.06204,47.10522],[9.0619,47.10564],[9.06262,47.1063],[9.06196,47.107],[9.06169,47.10818],[9.06278,47.10886],[9.06257,47.10959],[9.06164,47.11004],[9.06147,47.11044],[9.06221,47.1116],[9.06195,47.11274],[9.06062,47.11404],[9.06189,47.11611],[9.06061,47.11662],[9.06002,47.11721],[9.05995,47.11823],[9.05937,47.11914],[9.05923,47.11987],[9.0598,47.12515],[9.06217,47.12956],[9.06247,47.13328]]}},{"type":"Feature","properties":{"id":"braendbach-gl","c":"GL","p":"patent","q":"derived","k":"river"},"geometry":{"type":"MultiLineString","coordinates":[[[8.97929,47.11278],[8.97952,47.11248],[8.97924,47.11081],[8.97971,47.10955],[8.98088,47.1086],[8.98123,47.10803],[8.98284,47.1071],[8.98403,47.10705],[8.98476,47.10754],[8.98496,47.10737],[8.98532,47.10756],[8.98546,47.10739],[8.98569,47.1075],[8.98652,47.10729],[8.98678,47.10743],[8.98711,47.10711],[8.98868,47.10753],[8.9892,47.10747],[8.99005,47.10787],[8.98978,47.10814],[8.99004,47.10818],[8.9898,47.10833],[8.99001,47.10857],[8.98988,47.10914],[8.99008,47.10934],[8.99086,47.10942],[8.99116,47.10968],[8.99279,47.10968],[8.99373,47.10941],[8.99569,47.10959],[8.9963,47.10945],[8.99675,47.10896],[8.99725,47.10903],[8.99794,47.10881],[8.99896,47.10774],[8.99969,47.10781],[9.00203,47.10709],[9.00286,47.10594],[9.00271,47.10565],[9.00297,47.10544],[9.00328,47.10546],[9.00352,47.10516],[9.00421,47.10502],[9.00469,47.10526],[9.00522,47.10517],[9.00574,47.10481],[9.00546,47.10477],[9.00556,47.10453],[9.00627,47.10435],[9.00705,47.1038],[9.00736,47.10391],[9.00786,47.10479],[9.00971,47.10434],[9.01,47.1047],[9.01077,47.10509],[9.01208,47.10535],[9.01255,47.10457],[9.01401,47.10522],[9.01521,47.1052],[9.01711,47.10467],[9.0176,47.10493],[9.0189,47.10489],[9.02224,47.10429],[9.02396,47.10431],[9.02412,47.10403],[9.0251,47.10367],[9.02521,47.1033],[9.02557,47.10341],[9.02592,47.10322]],[[9.02681,47.10311],[9.02803,47.102],[9.02976,47.10196],[9.03111,47.10135],[9.03203,47.10132],[9.03334,47.1004],[9.03472,47.10032],[9.03517,47.10013],[9.03585,47.10033],[9.03764,47.0995],[9.03909,47.09957],[9.04189,47.099],[9.04382,47.09783],[9.04519,47.09723],[9.04592,47.09619],[9.04605,47.09524],[9.04686,47.09512],[9.0469,47.09472],[9.04727,47.09507],[9.04682,47.09561],[9.04771,47.09632]]]}},{"type":"Feature","properties":{"id":"sulzbach-gl","c":"GL","p":"patent","q":"derived","k":"river"},"geometry":{"type":"MultiLineString","coordinates":[[[8.95632,47.05509],[8.9569,47.05544],[8.95823,47.05723],[8.95846,47.0585],[8.95922,47.05904],[8.95922,47.05962],[8.95948,47.05992],[8.96151,47.061],[8.96304,47.0613],[8.96336,47.06179],[8.96418,47.06218],[8.96609,47.06278],[8.96702,47.06248],[8.96857,47.06262],[8.96924,47.06286],[8.97079,47.06418],[8.97409,47.06509],[8.97488,47.06566],[8.97527,47.0666],[8.97578,47.06687],[8.976,47.0686],[8.97669,47.06929],[8.97733,47.06954],[8.9782,47.07121],[8.9804,47.07204]],[[8.98121,47.07286],[8.98225,47.07364],[8.98455,47.0738],[8.98496,47.07462],[8.98746,47.07573],[8.98728,47.07611],[8.98756,47.07636],[8.9886,47.07654],[8.98915,47.07719],[8.99034,47.07803],[8.99122,47.07935],[8.99261,47.07973],[8.99408,47.08138],[8.99447,47.08145],[8.99545,47.08086],[8.99702,47.08207],[8.99741,47.08342],[8.99808,47.08386]],[[8.99914,47.08429],[9.00324,47.08617],[9.00633,47.08709],[9.00814,47.0874],[9.00987,47.08716],[9.0107,47.08743]]]}},{"type":"Feature","properties":{"id":"linth-gl","c":"GL","p":"patent","q":"derived","k":"river"},"geometry":{"type":"LineString","coordinates":[[8.97963,46.86396],[8.98017,46.86467],[8.98042,46.86672],[8.98027,46.86718],[8.98075,46.86813],[8.98288,46.86947],[8.98315,46.87018],[8.98374,46.87044],[8.98395,46.87084],[8.98324,46.87133],[8.98267,46.87282],[8.98032,46.87519],[8.98029,46.87554],[8.98131,46.87669],[8.98146,46.8772],[8.98109,46.87786],[8.97935,46.87898],[8.97932,46.88001],[8.98024,46.88227],[8.98151,46.88389],[8.98237,46.88606],[8.98368,46.88695],[8.98526,46.88895],[8.98579,46.88914],[8.98751,46.88919],[8.9879,46.88941],[8.98857,46.89037],[8.98909,46.89186],[8.98899,46.89274],[8.98696,46.89497],[8.98704,46.89563],[8.98608,46.89678],[8.98603,46.89817],[8.98665,46.89901],[8.98685,46.89974],[8.98665,46.90212],[8.98509,46.90336],[8.98445,46.90504],[8.98377,46.90567],[8.98381,46.90609],[8.98344,46.90675],[8.98471,46.90873],[8.98463,46.90968],[8.98585,46.91054],[8.98689,46.9131],[8.98943,46.91524],[8.9928,46.91692],[8.99454,46.91823],[8.99789,46.92212],[9.00065,46.92622],[9.00319,46.92787],[9.00517,46.93139],[9.00574,46.93198],[9.00638,46.93229],[9.00816,46.93265],[9.01146,46.93394],[9.01515,46.9376],[9.0168,46.93854],[9.01771,46.93971],[9.0195,46.94106],[9.02198,46.94463],[9.02356,46.94745],[9.02487,46.94894],[9.02693,46.95063],[9.02868,46.95543],[9.03123,46.95951],[9.03274,46.96145],[9.03497,46.96291],[9.03887,46.96438],[9.03992,46.96498],[9.04601,46.97136],[9.04819,46.97417],[9.04883,46.97611],[9.04915,46.97827],[9.04984,46.98002],[9.05195,46.98213],[9.05265,46.98319],[9.05341,46.98355],[9.05654,46.98419],[9.05942,46.98507],[9.06244,46.98522],[9.06338,46.9856],[9.06399,46.98644],[9.06452,46.98999],[9.06658,46.99153],[9.06769,46.99187],[9.07006,46.99207],[9.07432,46.99352],[9.07762,46.99354],[9.07891,46.99411],[9.07886,46.99471],[9.07733,46.99505],[9.07599,46.99582],[9.07483,46.99839],[9.0752,46.99897],[9.07883,47.00165],[9.08082,47.00419],[9.0811,47.00515],[9.08098,47.00798],[9.08127,47.00933],[9.0822,47.01048],[9.08426,47.0114],[9.08427,47.01177],[9.08371,47.01214],[9.08349,47.01259],[9.08385,47.01361],[9.08462,47.0143],[9.08449,47.01574],[9.08632,47.01695],[9.08524,47.01752],[9.08425,47.01898],[9.08348,47.02101],[9.0832,47.02311],[9.08285,47.02342],[9.081,47.0242],[9.08099,47.02524],[9.0826,47.02698],[9.08258,47.02771],[9.08136,47.02833],[9.0788,47.02897],[9.07775,47.02957],[9.07776,47.03099],[9.07404,47.03307],[9.07335,47.03373],[9.07354,47.03795],[9.07247,47.04053],[9.07001,47.04533],[9.06674,47.04845],[9.06616,47.05014],[9.06469,47.05181],[9.06279,47.05315],[9.06086,47.05559],[9.06012,47.05699],[9.06042,47.058],[9.06182,47.05901],[9.06239,47.05978],[9.06213,47.06056],[9.06045,47.06271],[9.06024,47.06337],[9.06116,47.07111],[9.06091,47.08213],[9.06114,47.08341],[9.06371,47.08691],[9.06812,47.09155],[9.07136,47.09647],[9.07192,47.09806],[9.07181,47.10226],[9.07284,47.10532],[9.07817,47.11397],[9.07963,47.11618],[9.08031,47.11685],[9.08208,47.11761],[9.10483,47.12159],[9.11887,47.12638]]}},{"type":"Feature","properties":{"id":"schlattbach-gl","c":"GL","p":"patent","q":"derived","k":"river"},"geometry":{"type":"LineString","coordinates":[[9.10764,47.0646],[9.1069,47.06468],[9.10481,47.06387],[9.10372,47.06401],[9.10269,47.06393],[9.10145,47.06469],[9.10001,47.06484],[9.0992,47.06446],[9.09822,47.06365],[9.09771,47.06241],[9.09686,47.06207],[9.09607,47.06206],[9.09507,47.06156],[9.09448,47.06161],[9.09257,47.0613],[9.09202,47.06101],[9.09011,47.0611],[9.08931,47.06131],[9.08819,47.06124],[9.08353,47.06255],[9.08014,47.0628],[9.07743,47.06328],[9.07689,47.06376],[9.07613,47.06503],[9.07431,47.06573],[9.07398,47.0657],[9.07347,47.0652],[9.07245,47.06512],[9.06929,47.06617],[9.06637,47.06626],[9.06337,47.06774],[9.06288,47.06769],[9.06209,47.06846],[9.06119,47.06893]]}},{"type":"Feature","properties":{"id":"sulzbach-gl-2","c":"GL","p":"patent","q":"derived","k":"river"},"geometry":{"type":"LineString","coordinates":[[8.97266,47.04422],[8.97067,47.04383],[8.96949,47.0433],[8.96725,47.04269],[8.96549,47.04255],[8.96481,47.04205],[8.9632,47.04159],[8.96117,47.04116],[8.96047,47.04133],[8.95998,47.04105],[8.96003,47.04079],[8.95944,47.04049],[8.95747,47.03975],[8.95681,47.03967],[8.95542,47.03889],[8.95467,47.03869],[8.95423,47.03811],[8.95346,47.03808],[8.95327,47.03729],[8.95262,47.03708],[8.95225,47.03671],[8.95156,47.03658],[8.95107,47.03677],[8.95058,47.03672],[8.94968,47.036],[8.94806,47.03547],[8.94692,47.03477],[8.94362,47.03338],[8.94254,47.03297],[8.94101,47.03272],[8.94059,47.03199],[8.93998,47.0315],[8.94025,47.03052],[8.93979,47.02995],[8.93994,47.02948],[8.9403,47.02909],[8.94187,47.02823],[8.9425,47.02817],[8.94305,47.02763],[8.94386,47.02616],[8.94359,47.02521],[8.94377,47.02429],[8.94454,47.02337],[8.94562,47.02313]]}},{"type":"Feature","properties":{"id":"chlue-gl","c":"GL","p":"patent","q":"derived","k":"river"},"geometry":{"type":"LineString","coordinates":[[8.90331,47.02005],[8.90366,47.01988],[8.90476,47.02022],[8.907,47.02052],[8.90764,47.02102],[8.91264,47.02233],[8.91373,47.02288],[8.91402,47.02348],[8.91494,47.02409],[8.91803,47.02514],[8.9193,47.02479],[8.92099,47.02372],[8.92217,47.02344],[8.92299,47.02248],[8.9237,47.02209],[8.92573,47.02169],[8.92702,47.02114],[8.9308,47.02113],[8.93174,47.02074],[8.93231,47.02091],[8.93251,47.02134],[8.93298,47.0216],[8.93476,47.02179],[8.93666,47.02259],[8.93778,47.02263],[8.9395,47.02318],[8.9414,47.02256],[8.9428,47.0225],[8.94432,47.02219]]}},{"type":"Feature","properties":{"id":"rossmatter-chlue-gl","c":"GL","p":"patent","q":"derived","k":"river"},"geometry":{"type":"LineString","coordinates":[[8.95705,46.97925],[8.95579,46.98023],[8.95546,46.98069],[8.95563,46.98094],[8.95483,46.9819],[8.95356,46.98245],[8.95312,46.98298],[8.9505,46.98405],[8.95006,46.98472],[8.94931,46.98523],[8.95004,46.98682],[8.94978,46.98731],[8.94889,46.98784],[8.94845,46.98839],[8.94801,46.98864],[8.9453,46.98929],[8.94471,46.98998],[8.94461,46.99059],[8.94366,46.99078],[8.94259,46.99129],[8.9406,46.99302],[8.93973,46.99303],[8.93899,46.99326],[8.93921,46.99374],[8.93899,46.99443],[8.93812,46.99556],[8.93563,46.99683],[8.93461,46.99792],[8.93388,46.9983],[8.93318,46.99947],[8.93203,47.00055],[8.93145,47.00068],[8.93079,47.00127],[8.92927,47.00208],[8.92882,47.00271],[8.9262,47.00288],[8.9257,47.0041],[8.9243,47.00545],[8.92398,47.00637],[8.92334,47.00715],[8.92366,47.0082],[8.92332,47.00991],[8.9226,47.01069],[8.92243,47.01188],[8.92131,47.01226],[8.92143,47.01266],[8.9225,47.01347],[8.92214,47.01442],[8.92289,47.01531],[8.92287,47.01614],[8.92463,47.01724],[8.92473,47.01794],[8.92506,47.01829],[8.92492,47.01886],[8.92539,47.01937],[8.92632,47.01991],[8.9294,47.02035],[8.93008,47.0206],[8.93174,47.02074]]}},{"type":"Feature","properties":{"id":"guppenrus-gl","c":"GL","p":"patent","q":"derived","k":"river"},"geometry":{"type":"LineString","coordinates":[[9.03699,47.00942],[9.03782,47.00834],[9.03892,47.00752],[9.04024,47.00687],[9.0442,47.00639],[9.0449,47.00643],[9.04684,47.00699],[9.04906,47.00821],[9.04995,47.00845],[9.05183,47.00853],[9.05475,47.00814],[9.05673,47.00734],[9.06039,47.00491],[9.06323,47.00372],[9.06523,47.00349],[9.06933,47.00264],[9.0709,47.00282],[9.07414,47.00431],[9.07821,47.00406],[9.08079,47.00452]]}},{"type":"Feature","properties":{"id":"hellbach-gl","c":"GL","p":"patent","q":"derived","k":"river"},"geometry":{"type":"LineString","coordinates":[[9.13623,47.01775],[9.13461,47.01764],[9.13277,47.01722],[9.13215,47.0173],[9.13156,47.01707],[9.13006,47.01585],[9.12955,47.01573],[9.12949,47.01529],[9.12773,47.01454],[9.12768,47.01429],[9.12518,47.01335],[9.12326,47.01171],[9.12187,47.01131],[9.12076,47.01055],[9.1203,47.00965],[9.11739,47.00776],[9.11741,47.00715],[9.11659,47.00522],[9.11624,47.00258],[9.11589,47.00165],[9.11506,47.00091],[9.11462,47.00015],[9.1143,46.99797]]}},{"type":"Feature","properties":{"id":"berglibach-gl","c":"GL","p":"patent","q":"derived","k":"river"},"geometry":{"type":"LineString","coordinates":[[9.12888,46.95689],[9.13028,46.95625],[9.13105,46.95543],[9.13174,46.95507],[9.13264,46.95504],[9.13523,46.95436],[9.14074,46.95338],[9.14126,46.95319],[9.14177,46.95233],[9.14261,46.95206],[9.1457,46.95209],[9.14675,46.95177],[9.14795,46.95185],[9.14999,46.95158],[9.15141,46.95162],[9.15292,46.95207],[9.15444,46.95202],[9.15808,46.95265],[9.15894,46.95322],[9.16052,46.95351],[9.16293,46.95438],[9.1682,46.95541],[9.16943,46.95701]]}},{"type":"Feature","properties":{"id":"waldibachrus-gl","c":"GL","p":"patent","q":"derived","k":"river"},"geometry":{"type":"LineString","coordinates":[[9.19129,46.98038],[9.19059,46.9799],[9.18948,46.97845],[9.18815,46.97788],[9.18784,46.97742],[9.18788,46.977],[9.1873,46.97638],[9.18642,46.97563],[9.18477,46.97482],[9.18406,46.97422],[9.18319,46.97283],[9.18335,46.97243],[9.18312,46.97211],[9.18154,46.97085],[9.18119,46.97023],[9.18047,46.97004],[9.17918,46.97007],[9.17886,46.96973],[9.17856,46.96779],[9.17896,46.96652],[9.17942,46.96622],[9.18001,46.9653],[9.18194,46.96392],[9.18207,46.96329],[9.18282,46.9623],[9.18263,46.96118],[9.18189,46.96088],[9.18122,46.96008],[9.18088,46.95878]]}},{"type":"Feature","properties":{"id":"raminerbach-gl","c":"GL","p":"patent","q":"derived","k":"river"},"geometry":{"type":"LineString","coordinates":[[9.22373,46.9275],[9.22318,46.92715],[9.22271,46.92712],[9.22223,46.92674],[9.22138,46.92661],[9.22067,46.92609],[9.21998,46.92597],[9.21899,46.92491],[9.21791,46.9247],[9.21778,46.92429],[9.21752,46.92446],[9.21631,46.92434],[9.21577,46.92407],[9.21504,46.92407],[9.21408,46.92353],[9.21253,46.92334],[9.212,46.92348],[9.21067,46.92287],[9.20992,46.92297],[9.20893,46.92247],[9.20736,46.92251],[9.20567,46.92198],[9.20411,46.92185],[9.20326,46.92146],[9.20017,46.92112],[9.19874,46.92024],[9.19773,46.92058],[9.19709,46.9206],[9.19571,46.91982],[9.1941,46.91952],[9.19166,46.91852],[9.18715,46.9182],[9.18577,46.91756],[9.18517,46.91667],[9.18459,46.9164]]}},{"type":"Feature","properties":{"id":"tschinglenbach-gl","c":"GL","p":"patent","q":"derived","k":"river"},"geometry":{"type":"LineString","coordinates":[[9.19535,46.88967],[9.19267,46.88957],[9.19229,46.88933],[9.19107,46.88925],[9.18975,46.88881],[9.18853,46.88914],[9.18795,46.88965],[9.18665,46.89025],[9.18775,46.89131],[9.18764,46.89203],[9.18889,46.89467],[9.18865,46.8955],[9.18899,46.89578],[9.18837,46.89688],[9.1887,46.89874],[9.18852,46.89952],[9.18791,46.90002],[9.1874,46.90003],[9.18763,46.90122],[9.18809,46.90227],[9.1888,46.90247],[9.18934,46.9031],[9.18926,46.90415],[9.18955,46.90477],[9.1901,46.90515],[9.1905,46.9069],[9.19038,46.9072],[9.19112,46.90837],[9.19048,46.90865],[9.19032,46.90929],[9.18968,46.91009],[9.1897,46.91059],[9.18924,46.91109],[9.18885,46.91276],[9.18976,46.91371],[9.18995,46.91442],[9.18893,46.91493],[9.18801,46.916],[9.18573,46.91655],[9.18494,46.91625],[9.18459,46.9164]]}},{"type":"Feature","properties":{"id":"bischofbach-gl","c":"GL","p":"patent","q":"derived","k":"river"},"geometry":{"type":"LineString","coordinates":[[9.11066,46.92056],[9.11376,46.92087],[9.11528,46.92072],[9.11572,46.92052],[9.11682,46.91979],[9.11819,46.91828],[9.1202,46.91725],[9.12151,46.91617],[9.12257,46.91584],[9.12548,46.91446],[9.1258,46.91383],[9.12738,46.91243],[9.12802,46.91154],[9.12878,46.91129],[9.1301,46.91026],[9.13203,46.90957],[9.13458,46.90825],[9.13581,46.90642],[9.13711,46.90571],[9.13758,46.9058],[9.13905,46.9056],[9.14101,46.90637],[9.14207,46.90574],[9.14265,46.90506],[9.14253,46.90481]]}},{"type":"Feature","properties":{"id":"erbsbach-gl","c":"GL","p":"patent","q":"derived","k":"river"},"geometry":{"type":"LineString","coordinates":[[9.11067,46.91123],[9.11091,46.91094],[9.11247,46.91048],[9.11496,46.90845],[9.11541,46.90696],[9.11661,46.90646],[9.11765,46.90627],[9.11811,46.90628],[9.11944,46.90686],[9.12013,46.90675],[9.1204,46.90569],[9.12107,46.90489],[9.12297,46.90411],[9.1236,46.90405],[9.12479,46.90325],[9.12752,46.90259],[9.12765,46.90181],[9.1281,46.90109],[9.12894,46.90061],[9.13219,46.90094],[9.1346,46.90204],[9.13576,46.90211],[9.13629,46.90339],[9.13667,46.90369],[9.13713,46.90372],[9.13856,46.90307],[9.13913,46.90354]]}},{"type":"Feature","properties":{"id":"jetzbach-gl","c":"GL","p":"patent","q":"derived","k":"river"},"geometry":{"type":"LineString","coordinates":[[9.13963,46.87159],[9.13686,46.87166],[9.13628,46.87201],[9.1344,46.87231],[9.13376,46.87277],[9.13048,46.87271],[9.12868,46.87316],[9.12706,46.8747],[9.12726,46.87677],[9.12652,46.87715],[9.12624,46.87776],[9.12525,46.87823],[9.12577,46.8794],[9.12553,46.88003],[9.12573,46.88147],[9.12541,46.88219],[9.12597,46.88344],[9.12614,46.88453],[9.12659,46.88483],[9.1268,46.88546],[9.12717,46.88579],[9.12719,46.88696],[9.12771,46.8884],[9.12728,46.88961],[9.12778,46.89032],[9.12985,46.89137],[9.13086,46.89227],[9.13129,46.89228],[9.13229,46.89291],[9.13295,46.89405],[9.13251,46.89456],[9.13158,46.89511]]}},{"type":"Feature","properties":{"id":"wichlenbach-gl","c":"GL","p":"patent","q":"derived","k":"river"},"geometry":{"type":"LineString","coordinates":[[9.11199,46.89047],[9.11355,46.89049],[9.11505,46.89024],[9.11658,46.8904],[9.11806,46.89105],[9.12114,46.89072],[9.12268,46.89135],[9.12345,46.89115],[9.12421,46.8914],[9.1248,46.89138],[9.12658,46.89213],[9.12731,46.89293],[9.13009,46.89428],[9.13085,46.89489],[9.13158,46.89511]]}},{"type":"Feature","properties":{"id":"mattbach-gl","c":"GL","p":"patent","q":"derived","k":"river"},"geometry":{"type":"LineString","coordinates":[[9.0856,46.91151],[9.08509,46.91087],[9.08512,46.91014],[9.08447,46.90879],[9.08459,46.90833],[9.08418,46.90723],[9.08424,46.90483],[9.08473,46.90402],[9.08456,46.90278],[9.08412,46.90214],[9.08327,46.90153],[9.08378,46.90068],[9.0845,46.90022],[9.08442,46.8997],[9.08507,46.89899],[9.08557,46.89788],[9.08538,46.89749],[9.08551,46.89728],[9.08805,46.89726],[9.09036,46.89671],[9.09165,46.89682],[9.09336,46.89644],[9.09533,46.89649],[9.09654,46.89607],[9.0977,46.89498],[9.09855,46.89328],[9.09859,46.89205],[9.09926,46.89148],[9.1041,46.89116],[9.10601,46.89131],[9.10658,46.891],[9.10706,46.89105],[9.10801,46.89081],[9.11023,46.89098],[9.11154,46.89075],[9.11199,46.89047]]}},{"type":"Feature","properties":{"id":"baechibach-gl","c":"GL","p":"patent","q":"derived","k":"river"},"geometry":{"type":"LineString","coordinates":[[8.98627,46.96898],[8.98756,46.96925],[8.98939,46.97016],[8.99124,46.97027],[8.9923,46.97013],[8.9926,46.97032],[8.99343,46.97039],[8.99493,46.9701],[8.99753,46.97013],[8.9984,46.97035],[9.0007,46.97011],[9.00128,46.97033],[9.00198,46.97034],[9.00589,46.96939],[9.00907,46.96938],[9.01097,46.9691],[9.01462,46.96922],[9.01737,46.96901],[9.01931,46.9683],[9.02052,46.96828],[9.02154,46.96752],[9.02273,46.96732],[9.02582,46.96726],[9.02694,46.96745],[9.02776,46.96786],[9.0292,46.96795],[9.0323,46.96705],[9.0348,46.96591],[9.03545,46.96587],[9.03587,46.96611],[9.0373,46.96626],[9.03979,46.96504]]}},{"type":"Feature","properties":{"id":"diesbach-gl","c":"GL","p":"patent","q":"derived","k":"river"},"geometry":{"type":"LineString","coordinates":[[9.08162,46.91765],[9.0796,46.91714],[9.07877,46.91726],[9.07658,46.91686],[9.07598,46.91754],[9.07534,46.91756],[9.07504,46.91781],[9.07499,46.91899],[9.07419,46.91958],[9.07358,46.92043],[9.07066,46.92162],[9.06973,46.92179],[9.06991,46.92251],[9.06974,46.92274],[9.06928,46.92277],[9.06838,46.92329],[9.06722,46.92338],[9.06629,46.92442],[9.06622,46.92587],[9.06566,46.92632],[9.06365,46.92691],[9.06201,46.92702],[9.06128,46.92681],[9.06027,46.92697],[9.05888,46.92681],[9.05806,46.92718],[9.05704,46.92826],[9.05469,46.92947],[9.05436,46.93094],[9.05363,46.93195],[9.05131,46.93322],[9.05008,46.93326],[9.04962,46.93395],[9.04735,46.93499],[9.04507,46.93743],[9.04383,46.93826],[9.04268,46.93963],[9.0408,46.94078],[9.04073,46.94134],[9.04114,46.94178],[9.04096,46.94319],[9.04072,46.94359],[9.03869,46.94521],[9.03821,46.9455],[9.03696,46.94543],[9.03463,46.94588],[9.03413,46.94635],[9.03323,46.94654],[9.03268,46.94716],[9.03173,46.94717],[9.02899,46.94792],[9.0261,46.94969]]}},{"type":"Feature","properties":{"id":"uebelbach-gl","c":"GL","p":"patent","q":"derived","k":"river"},"geometry":{"type":"LineString","coordinates":[[9.07673,46.93148],[9.07579,46.93227],[9.07556,46.93319],[9.07463,46.93341],[9.07495,46.93385],[9.07603,46.93431],[9.07594,46.93488],[9.07513,46.93574],[9.07406,46.93623],[9.07106,46.93687],[9.07056,46.93776],[9.06918,46.93795],[9.06828,46.93832],[9.06745,46.93825],[9.06634,46.93845],[9.06353,46.94034],[9.06247,46.94018],[9.06132,46.94027],[9.05968,46.94074],[9.05927,46.94123],[9.05809,46.94148],[9.05763,46.94205],[9.05629,46.94219],[9.05526,46.94273],[9.05345,46.94277],[9.05141,46.94323],[9.04783,46.94299],[9.04373,46.94336],[9.04109,46.94284]]}},{"type":"Feature","properties":{"id":"durnagel-gl","c":"GL","p":"patent","q":"derived","k":"river"},"geometry":{"type":"LineString","coordinates":[[9.03753,46.87703],[9.0392,46.87794],[9.04086,46.87952],[9.0412,46.88007],[9.04107,46.881],[9.04181,46.88195],[9.04217,46.88292],[9.04266,46.88313],[9.04285,46.88392],[9.04372,46.88485],[9.04468,46.88511],[9.04459,46.88569],[9.04556,46.88656],[9.04532,46.88839],[9.0447,46.88948],[9.04458,46.89043],[9.04384,46.89213],[9.04391,46.89265],[9.0433,46.89298],[9.04269,46.89384],[9.0425,46.8947],[9.04208,46.89529],[9.04235,46.89612],[9.04218,46.89672],[9.04125,46.89793],[9.04047,46.89984],[9.04089,46.90117],[9.04127,46.90145],[9.04126,46.9021],[9.04084,46.90306],[9.03929,46.90383],[9.03889,46.90462],[9.0379,46.90523],[9.03705,46.90647],[9.03643,46.9067],[9.03407,46.90881],[9.03286,46.9093],[9.03234,46.91064],[9.03067,46.91221],[9.03049,46.91275],[9.02903,46.9137],[9.02731,46.91543],[9.02194,46.91699],[9.02098,46.91756],[9.02075,46.91805],[9.01907,46.91877],[9.01877,46.91928],[9.01811,46.9193],[9.0167,46.91998],[9.01567,46.91986],[9.01445,46.92017],[9.01382,46.92123],[9.01271,46.92126],[9.01196,46.9217],[9.01099,46.92304],[9.01097,46.92341],[9.0099,46.92408],[9.00976,46.92443],[9.00871,46.92513],[9.00783,46.92621],[9.00739,46.92643],[9.00719,46.92703],[9.00546,46.92875],[9.00469,46.93041]]}},{"type":"Feature","properties":{"id":"brummbach-gl","c":"GL","p":"patent","q":"derived","k":"river"},"geometry":{"type":"LineString","coordinates":[[8.96716,46.94244],[8.96854,46.94227],[8.96914,46.94248],[8.97132,46.94263],[8.97259,46.9426],[8.9749,46.94223],[8.97709,46.94212],[8.97811,46.94229],[8.97954,46.94199],[8.9809,46.94138],[8.98134,46.9407],[8.98145,46.93893],[8.9822,46.93827],[8.98242,46.93742],[8.9821,46.93687],[8.98136,46.93651],[8.98097,46.93557],[8.98172,46.93429],[8.98202,46.93226],[8.98275,46.93141],[8.98446,46.93104],[8.98536,46.93107],[8.98719,46.93072],[8.9886,46.93067],[8.98979,46.9302],[8.99124,46.93067],[8.99424,46.93069],[8.9951,46.93022],[8.99665,46.92981],[8.99746,46.92912],[8.99934,46.92865],[9.00036,46.92682],[9.00087,46.92671],[9.00128,46.92684]]}},{"type":"Feature","properties":{"id":"bodenbach-gl","c":"GL","p":"patent","q":"derived","k":"river"},"geometry":{"type":"LineString","coordinates":[[9.02155,46.89318],[9.01835,46.8933],[9.01633,46.89294],[9.01503,46.89299],[9.01366,46.89236],[9.01299,46.89224],[9.01124,46.89256],[9.01035,46.89238],[9.00723,46.89339],[9.00243,46.89314],[8.99901,46.89425],[8.99831,46.89555],[8.99781,46.89582],[8.99793,46.89643],[8.99751,46.89772],[8.99644,46.89794],[8.99485,46.89876],[8.98811,46.89821],[8.98673,46.89796],[8.98622,46.89823]]}},{"type":"Feature","properties":{"id":"walenbach-gl","c":"GL","p":"patent","q":"derived","k":"river"},"geometry":{"type":"LineString","coordinates":[[8.93436,46.86061],[8.93477,46.86108],[8.93445,46.86167],[8.93498,46.86187],[8.93764,46.86216],[8.93977,46.8633],[8.94109,46.86376],[8.94211,46.8639],[8.94422,46.86484],[8.94678,46.86478],[8.95093,46.86597],[8.95274,46.86622],[8.95483,46.86618],[8.95682,46.86669],[8.96204,46.86704],[8.96362,46.86754],[8.96601,46.86706],[8.9689,46.86717],[8.96978,46.867],[8.9705,46.86713],[8.97256,46.86683],[8.97563,46.86518],[8.97661,46.86439],[8.97701,46.8638],[8.97754,46.8637],[8.97952,46.86398]]}},{"type":"Feature","properties":{"id":"bifertenbach-gl","c":"GL","p":"patent","q":"derived","k":"river"},"geometry":{"type":"LineString","coordinates":[[8.94103,46.8205],[8.94327,46.82017],[8.94472,46.82046],[8.94897,46.82222],[8.9495,46.82305],[8.95092,46.82265],[8.95135,46.82269],[8.95314,46.82344],[8.95415,46.82345],[8.9554,46.82386],[8.95606,46.82454],[8.95606,46.82505],[8.95696,46.82668],[8.95883,46.82871],[8.95914,46.82961],[8.95856,46.83023],[8.95882,46.83106],[8.9583,46.83145],[8.95845,46.83192],[8.95828,46.83239],[8.95703,46.83324],[8.95653,46.83409],[8.95509,46.83551],[8.95452,46.83704],[8.95407,46.83743],[8.95421,46.83874],[8.95337,46.8396]]}},{"type":"Feature","properties":{"id":"oberstafelbach-gl","c":"GL","p":"patent","q":"derived","k":"river"},"geometry":{"type":"LineString","coordinates":[[8.90328,46.82147],[8.90338,46.82197],[8.90486,46.82349],[8.90529,46.82501],[8.90666,46.82721],[8.91006,46.82928],[8.91053,46.8298],[8.91223,46.83056],[8.91232,46.83089],[8.91267,46.83109],[8.91278,46.83178],[8.91392,46.83249],[8.91444,46.83318],[8.91438,46.83348],[8.91546,46.83454],[8.91519,46.8352],[8.91561,46.83589],[8.91629,46.83621],[8.91639,46.83668],[8.91706,46.83711],[8.91801,46.83715],[8.91863,46.83689],[8.91936,46.83687],[8.92064,46.83715],[8.92249,46.83667],[8.92311,46.83677],[8.9259,46.8363],[8.92763,46.83641],[8.92846,46.83688],[8.92943,46.83701],[8.93053,46.83667],[8.93291,46.8368],[8.93467,46.83624],[8.93612,46.83658],[8.93727,46.83656],[8.93889,46.83703],[8.94019,46.83706],[8.94062,46.83678],[8.94193,46.83702],[8.94473,46.83805],[8.9458,46.8387],[8.94705,46.83898],[8.94852,46.83963],[8.95054,46.83966],[8.95234,46.8392],[8.95313,46.83931],[8.95337,46.8396]]}},{"type":"Feature","properties":{"id":"chueetalbach-gl","c":"GL","p":"patent","q":"derived","k":"river"},"geometry":{"type":"LineString","coordinates":[[9.12832,47.05217],[9.13003,47.05437],[9.13122,47.05517],[9.13187,47.05526],[9.13276,47.05678],[9.13413,47.05837],[9.13465,47.05859],[9.13491,47.0585],[9.13658,47.05872],[9.13694,47.05905],[9.13745,47.06009],[9.1373,47.06059],[9.13783,47.06133],[9.13753,47.06178],[9.13758,47.06429],[9.13637,47.0652],[9.13569,47.06547],[9.13513,47.06541],[9.13462,47.06586],[9.13419,47.06594],[9.13378,47.06656],[9.1331,47.06683],[9.13236,47.06751],[9.13211,47.0685],[9.13155,47.06886],[9.13127,47.06954],[9.13147,47.07039],[9.13096,47.07105],[9.13117,47.07192],[9.1305,47.07287],[9.1305,47.07344]]}},{"type":"Feature","properties":{"id":"roetibach-gl","c":"GL","p":"patent","q":"derived","k":"river"},"geometry":{"type":"MultiLineString","coordinates":[[[9.18256,47.08284],[9.18275,47.08338],[9.18261,47.08526],[9.18216,47.08648],[9.18114,47.08787],[9.18147,47.08856],[9.18151,47.08943],[9.18527,47.09541],[9.18627,47.09748]],[[9.18641,47.09893],[9.18624,47.09996],[9.18674,47.10089],[9.18682,47.10224],[9.18788,47.10292],[9.18861,47.10424],[9.18892,47.10598],[9.18818,47.10738],[9.18923,47.10857],[9.18989,47.11015],[9.18978,47.11075],[9.18861,47.11219],[9.18855,47.11365],[9.18803,47.11574]]]}},{"type":"Feature","properties":{"id":"meerenbach-gl","c":"GL","p":"patent","q":"derived","k":"river"},"geometry":{"type":"LineString","coordinates":[[9.1705,47.07917],[9.16985,47.07935],[9.16898,47.07913],[9.16731,47.07927],[9.16573,47.07915],[9.16461,47.07941],[9.16389,47.07935],[9.16207,47.08058],[9.16124,47.08081],[9.16182,47.08142],[9.16181,47.0819],[9.16115,47.08264],[9.16177,47.08335],[9.16216,47.0844],[9.16171,47.08517],[9.16186,47.08649],[9.16112,47.08753],[9.15999,47.08794],[9.15852,47.08946],[9.15719,47.0904],[9.15679,47.09095],[9.15666,47.09254],[9.1553,47.09389],[9.15499,47.09468],[9.15515,47.09537],[9.15563,47.09586],[9.15548,47.09644],[9.15603,47.09715],[9.15633,47.09813],[9.15854,47.09948],[9.15854,47.10002],[9.1592,47.10076],[9.15911,47.10132],[9.15966,47.10167],[9.16079,47.10299],[9.16198,47.10552],[9.16323,47.10729],[9.16615,47.10789],[9.16703,47.10955],[9.16752,47.11],[9.16835,47.11023],[9.16863,47.11054],[9.16923,47.11151],[9.16901,47.11263],[9.1705,47.1144],[9.17261,47.1162],[9.17266,47.11684],[9.17191,47.11714],[9.17163,47.11801]]}},{"type":"Feature","properties":{"id":"auernbach-gl","c":"GL","p":"patent","q":"derived","k":"river"},"geometry":{"type":"LineString","coordinates":[[9.08299,46.93126],[9.08149,46.93179],[9.08078,46.93256],[9.08126,46.93375],[9.08236,46.93434],[9.08264,46.93503],[9.08417,46.93555],[9.08365,46.93742],[9.08397,46.93813],[9.08375,46.93854],[9.0841,46.93907],[9.08346,46.94027],[9.08224,46.94099],[9.08183,46.94169],[9.08145,46.94314],[9.08159,46.94349],[9.08113,46.9447],[9.08132,46.94529],[9.08085,46.94649],[9.08041,46.94935],[9.07974,46.95044],[9.07985,46.95077],[9.07883,46.95302],[9.07891,46.95419],[9.07918,46.95459],[9.07965,46.9547],[9.0805,46.95541],[9.08045,46.95589],[9.08097,46.95751],[9.0806,46.95824],[9.08095,46.95933],[9.08127,46.9596],[9.08171,46.95964],[9.08138,46.96021],[9.08191,46.96106],[9.08183,46.96142],[9.08239,46.96213],[9.08305,46.96249],[9.0837,46.9644],[9.08464,46.96474],[9.08493,46.96515],[9.08578,46.96539],[9.08607,46.96592],[9.08702,46.96621],[9.08768,46.9668],[9.08755,46.96748],[9.08785,46.96779],[9.08861,46.96803],[9.08998,46.96799],[9.09138,46.96898]]}},{"type":"Feature","properties":{"id":"niederenbach-gl","c":"GL","p":"patent","q":"derived","k":"river"},"geometry":{"type":"MultiLineString","coordinates":[[[9.08995,46.97865],[9.08989,46.97947],[9.08949,46.98038],[9.08868,46.98148],[9.08903,46.98214],[9.08879,46.98328],[9.08912,46.9839],[9.08894,46.98444],[9.08916,46.98479],[9.0889,46.98523],[9.08883,46.98696],[9.08853,46.98764],[9.08883,46.98796],[9.08878,46.98902],[9.08763,46.99097],[9.08747,46.99184],[9.08771,46.99268],[9.08745,46.99415],[9.0879,46.99607]],[[9.09673,46.95774],[9.09541,46.95843],[9.09476,46.9592],[9.09463,46.96005],[9.09399,46.96134],[9.094,46.9626],[9.09343,46.96342],[9.09349,46.96412],[9.09235,46.96521],[9.0922,46.9659],[9.09108,46.96722],[9.09165,46.96841],[9.09123,46.96929],[9.0913,46.96997],[9.09248,46.97041],[9.09273,46.97077],[9.09205,46.97127],[9.09219,46.97228],[9.09169,46.97329],[9.0917,46.97403],[9.09069,46.97558],[9.09053,46.97626],[9.09078,46.97713],[9.09017,46.97788]],[[9.10022,46.92486],[9.09948,46.92658],[9.09948,46.92721],[9.09975,46.92769],[9.10101,46.92842],[9.10249,46.92983],[9.10254,46.93089],[9.10209,46.93157],[9.10266,46.93294],[9.10282,46.93434],[9.10343,46.93489],[9.10359,46.93619],[9.10331,46.93692],[9.10341,46.93799],[9.10285,46.93908],[9.10293,46.93953],[9.10242,46.94006],[9.10299,46.94089],[9.1028,46.94162],[9.10317,46.94176],[9.10321,46.94214],[9.10391,46.94292],[9.10412,46.94429],[9.10337,46.94533],[9.10237,46.94588],[9.1023,46.94834],[9.1026,46.94955],[9.1024,46.95004],[9.10284,46.95145],[9.10239,46.9525],[9.10193,46.95292]]]}},{"type":"Feature","properties":{"id":"gsponbach-gl","c":"GL","p":"patent","q":"derived","k":"river"},"geometry":{"type":"LineString","coordinates":[[9.14424,47.04653],[9.14406,47.04725],[9.14444,47.04795],[9.14443,47.04868],[9.14505,47.04978],[9.14559,47.05004],[9.14553,47.0505],[9.14517,47.0507],[9.14566,47.05119],[9.14554,47.05157],[9.1463,47.05306],[9.14649,47.05396],[9.14613,47.05415],[9.14706,47.0558],[9.14762,47.05571],[9.14797,47.05627],[9.1486,47.05665],[9.14869,47.05695],[9.15019,47.05834],[9.15129,47.05851],[9.15322,47.05765],[9.15385,47.0578],[9.15424,47.05771],[9.15589,47.05855],[9.15635,47.05946],[9.15626,47.06006],[9.15733,47.06033],[9.1576,47.06077],[9.15957,47.0622],[9.16096,47.06271],[9.16129,47.06369],[9.16222,47.0643],[9.1624,47.06499],[9.16129,47.06578],[9.16297,47.06713],[9.16328,47.06821],[9.16604,47.06953],[9.16822,47.07012],[9.16981,47.07098],[9.17065,47.07118],[9.17203,47.07079],[9.1723,47.07025],[9.17395,47.06985],[9.17488,47.07006],[9.1756,47.07],[9.17694,47.07073],[9.17794,47.07098],[9.18037,47.07068],[9.18131,47.07094],[9.18183,47.07064],[9.18255,47.0706],[9.18294,47.07086],[9.18374,47.07077],[9.18722,47.07145],[9.18802,47.07114],[9.19018,47.07166],[9.19093,47.07204]]}},{"type":"Feature","properties":{"id":"filzbach-gl","c":"GL","p":"patent","q":"derived","k":"river"},"geometry":{"type":"LineString","coordinates":[[9.11609,47.09658],[9.11761,47.09754],[9.11793,47.09829],[9.11963,47.10012],[9.12314,47.1028],[9.1244,47.10346],[9.12427,47.1039],[9.12344,47.10426],[9.123,47.10489],[9.12326,47.10579],[9.1241,47.10685],[9.12361,47.10795],[9.12447,47.10932],[9.12461,47.11073],[9.1243,47.11126],[9.12455,47.11237],[9.12617,47.11449],[9.12555,47.11568],[9.12559,47.11643],[9.12639,47.11741],[9.1276,47.11788],[9.12856,47.11921],[9.12954,47.12007],[9.13272,47.1208],[9.13283,47.12161],[9.13334,47.12225],[9.13246,47.12351],[9.1335,47.12495],[9.13378,47.12594]]}},{"type":"Feature","properties":{"id":"sernft-gl","c":"GL","p":"patent","q":"derived","k":"river"},"geometry":{"type":"LineString","coordinates":[[9.13158,46.89511],[9.13172,46.89601],[9.13247,46.89702],[9.13321,46.89743],[9.13378,46.89743],[9.13402,46.89809],[9.13516,46.89836],[9.13555,46.89907],[9.13683,46.89986],[9.13711,46.90047],[9.13801,46.90074],[9.1383,46.90219],[9.1394,46.90314],[9.13926,46.9038],[9.13996,46.90432],[9.14226,46.90475],[9.1434,46.90461],[9.14488,46.9055],[9.14572,46.90576],[9.14611,46.90635],[9.14674,46.90668],[9.14764,46.90669],[9.14851,46.90636],[9.14948,46.90651],[9.1524,46.90767],[9.15299,46.90746],[9.15469,46.90751],[9.15585,46.90816],[9.15598,46.9089],[9.15714,46.90925],[9.15854,46.9101],[9.15966,46.91041],[9.16058,46.91091],[9.1614,46.91167],[9.16324,46.91211],[9.16507,46.91348],[9.16623,46.91386],[9.16798,46.91408],[9.16901,46.91524],[9.17133,46.9151],[9.17199,46.9159],[9.1731,46.91647],[9.17407,46.91924],[9.17381,46.92055],[9.17504,46.92586],[9.17458,46.92741],[9.17265,46.93054],[9.17256,46.93139],[9.17094,46.9329],[9.17115,46.93349],[9.17104,46.93405],[9.17187,46.93471],[9.17164,46.93571],[9.17112,46.93618],[9.17086,46.93679],[9.1711,46.94323],[9.17221,46.94459],[9.17237,46.9452],[9.17179,46.94634],[9.17225,46.94782],[9.17209,46.95016],[9.17166,46.95214],[9.17178,46.95369],[9.1712,46.95568],[9.17061,46.95646],[9.16908,46.95743],[9.16764,46.96558],[9.16692,46.96725],[9.16595,46.96859],[9.16282,46.9714],[9.15702,46.97575],[9.15089,46.9794],[9.14819,46.98043],[9.14603,46.98222],[9.14237,46.9864],[9.13973,46.98744],[9.13935,46.98746],[9.13872,46.98718],[9.13788,46.98756],[9.137,46.98827],[9.13671,46.98895],[9.13489,46.99],[9.13329,46.99138],[9.13159,46.99204],[9.13064,46.9929],[9.12664,46.99473],[9.12588,46.99534],[9.12501,46.99568],[9.12339,46.99598],[9.1227,46.99656],[9.1219,46.9969],[9.12084,46.99684],[9.11886,46.99754],[9.11757,46.9973],[9.11547,46.99814],[9.11409,46.99777],[9.11249,46.99768],[9.11061,46.99858],[9.10931,46.99818],[9.10739,46.99834],[9.10607,46.99795],[9.105,46.99829],[9.10328,46.99828],[9.1024,46.99853],[9.10094,46.99854],[9.09699,46.99725],[9.09602,46.99673],[9.09454,46.99646],[9.09393,46.99616],[9.0928,46.99614],[9.0917,46.99651],[9.08957,46.99643],[9.08599,46.99583],[9.0839,46.99596],[9.08137,46.99491],[9.07886,46.99471]]}},{"type":"Feature","properties":{"id":"chrauchbach-gl","c":"GL","p":"patent","q":"derived","k":"river"},"geometry":{"type":"LineString","coordinates":[[9.2316,47.02365],[9.23299,47.02246],[9.23321,47.0195],[9.23297,47.01941],[9.23294,47.01903],[9.23353,47.01762],[9.23434,47.01647],[9.23418,47.01551],[9.23467,47.01336],[9.23458,47.01222],[9.23552,47.00971],[9.23483,47.00911],[9.23348,47.00873],[9.23221,47.00738],[9.23148,47.00704],[9.23123,47.00661],[9.23112,47.00509],[9.22959,47.0038],[9.22887,47.00348],[9.22696,47.00345],[9.22643,47.00303],[9.22641,47.00218],[9.22739,47.00086],[9.22746,46.99973],[9.22673,46.99934],[9.2268,46.99894],[9.22619,46.99802],[9.22566,46.9978],[9.22591,46.9973],[9.22532,46.99657],[9.22237,46.99471],[9.2208,46.99128],[9.2207,46.99055],[9.22204,46.9868],[9.2216,46.9851],[9.22216,46.98452],[9.22159,46.98055],[9.22173,46.9802],[9.22244,46.97992],[9.22312,46.97878],[9.22332,46.97808],[9.22305,46.97726],[9.22344,46.97531],[9.22339,46.97499],[9.22266,46.97427],[9.22166,46.97195],[9.22176,46.97131],[9.22137,46.97078],[9.22154,46.97026],[9.22138,46.96975],[9.2198,46.96789],[9.21968,46.96624],[9.21793,46.96558],[9.21689,46.96498],[9.21556,46.96482],[9.21432,46.96429],[9.21399,46.9639],[9.21321,46.96354],[9.2124,46.96343],[9.21188,46.96305],[9.21039,46.96267],[9.20962,46.96209],[9.20811,46.96193],[9.2071,46.96147],[9.20646,46.96164],[9.20604,46.96129],[9.2054,46.96126],[9.20511,46.96103],[9.204,46.96116],[9.20242,46.96092],[9.2015,46.96105],[9.19983,46.96085],[9.19744,46.96004],[9.19714,46.96007],[9.19659,46.96052],[9.19514,46.96038],[9.19337,46.96062],[9.19258,46.96046],[9.19217,46.96003],[9.19122,46.95991],[9.19057,46.95921],[9.18994,46.95919],[9.18947,46.95947],[9.18819,46.95955],[9.18707,46.95923],[9.18638,46.95873],[9.18543,46.95852],[9.18382,46.9585],[9.18221,46.95898],[9.18088,46.95878],[9.17986,46.95842],[9.17931,46.95866],[9.17773,46.95849],[9.17628,46.95878],[9.1734,46.95787],[9.17067,46.95653]]}},{"type":"Feature","properties":{"id":"muehlebach-gl","c":"GL","p":"patent","q":"derived","k":"river"},"geometry":{"type":"LineString","coordinates":[[9.21774,47.02951],[9.21574,47.02948],[9.21512,47.02907],[9.21475,47.02895],[9.21416,47.02907],[9.21295,47.02851],[9.21159,47.02845],[9.21093,47.02939],[9.21015,47.02963],[9.20886,47.02918],[9.20774,47.02913],[9.20643,47.02845],[9.20609,47.02743],[9.20522,47.02702],[9.20399,47.02557],[9.20333,47.02512],[9.20283,47.02505],[9.20235,47.02429],[9.20255,47.02386],[9.20163,47.02302],[9.20151,47.02218],[9.20098,47.02182],[9.20044,47.02078],[9.19994,47.02053],[9.2002,47.02016],[9.19971,47.01956],[9.19943,47.01767],[9.19919,47.01738],[9.19955,47.01639],[9.19916,47.01499],[9.19726,47.01308],[9.19703,47.01251],[9.1964,47.01237],[9.1953,47.01164],[9.19479,47.01156],[9.19361,47.01071],[9.192,47.0101],[9.19151,47.00935],[9.18892,47.00815],[9.18826,47.00803],[9.18799,47.00777],[9.1869,47.00758],[9.18602,47.00681],[9.18414,47.00665],[9.1834,47.00617],[9.18235,47.0062],[9.18166,47.00668],[9.18074,47.0066],[9.17904,47.007],[9.17582,47.00658],[9.17537,47.00701],[9.17439,47.00714],[9.17364,47.00747],[9.17143,47.00718],[9.1706,47.00674],[9.16881,47.00648],[9.1677,47.00605],[9.16688,47.00509],[9.16677,47.00464],[9.16563,47.00406],[9.16535,47.00296],[9.16424,47.00213],[9.16364,47.00095],[9.16376,47.00061],[9.16281,47.00031],[9.16293,46.99965],[9.16185,46.99877],[9.16139,46.99747],[9.16045,46.99679],[9.15968,46.99572],[9.15974,46.99461],[9.16007,46.99414],[9.15933,46.99315],[9.15939,46.99275],[9.15865,46.99152],[9.1582,46.99127],[9.15815,46.99075],[9.15735,46.99041],[9.15632,46.98903],[9.15588,46.98886],[9.15582,46.98845],[9.15519,46.98818],[9.15536,46.98764],[9.15448,46.98709],[9.15455,46.98654],[9.1518,46.98463],[9.14843,46.98176],[9.1474,46.98126]]}},{"type":"Feature","properties":{"id":"niederurner-dorfbach-gl","c":"GL","p":"patent","q":"derived","k":"river"},"geometry":{"type":"MultiLineString","coordinates":[[[8.97462,47.12917],[8.97881,47.12791],[8.98023,47.12786],[8.98203,47.12746],[8.98388,47.12776],[8.98526,47.12722],[8.98592,47.12726],[8.98723,47.12643],[8.98817,47.12612],[8.98869,47.12533],[8.98852,47.12481],[8.98912,47.12454],[8.99232,47.12476],[8.99346,47.12451],[8.99447,47.12472],[8.99617,47.12479],[8.99791,47.12446],[9.00019,47.12445],[9.00072,47.12471],[9.00142,47.12465],[9.00179,47.12487],[9.00243,47.12489],[9.00316,47.12468],[9.00506,47.12456],[9.00538,47.12431],[9.00646,47.12483],[9.00807,47.12448],[9.00924,47.12443],[9.00982,47.12494],[9.0105,47.12518],[9.01102,47.12509],[9.01162,47.12523],[9.01315,47.12504],[9.01387,47.12538],[9.01443,47.12544],[9.01524,47.1252],[9.01577,47.12549],[9.01727,47.12518],[9.01827,47.12519],[9.01871,47.12529],[9.01955,47.12591],[9.02068,47.12573],[9.02258,47.12603],[9.02373,47.12643],[9.02524,47.12613],[9.02609,47.12562],[9.02726,47.1253],[9.02947,47.12553],[9.03108,47.12502],[9.03178,47.1252],[9.03444,47.1253],[9.03672,47.12451],[9.03786,47.12443],[9.03926,47.12385],[9.04104,47.12361],[9.04204,47.12414],[9.04699,47.1252],[9.04855,47.12601],[9.04938,47.12622],[9.05333,47.12617],[9.05668,47.12576]],[[9.05731,47.12567],[9.0599,47.12541]]]}},{"type":"Feature","properties":{"id":"faetschbach-gl","c":"GL","p":"patent","q":"derived","k":"river"},"geometry":{"type":"LineString","coordinates":[[8.9456,46.90656],[8.9466,46.90697],[8.94922,46.90736],[8.95027,46.90594],[8.95151,46.90495],[8.95181,46.90493],[8.9528,46.90524],[8.95402,46.90526],[8.95429,46.90565],[8.95387,46.90644],[8.95405,46.90679],[8.95615,46.90759],[8.95966,46.90737],[8.96012,46.90709],[8.96209,46.90757],[8.96365,46.90744],[8.96482,46.90789],[8.96612,46.90812],[8.96735,46.90802],[8.96874,46.90822],[8.96936,46.90859],[8.97016,46.90875],[8.9716,46.90839],[8.97248,46.90839],[8.97348,46.90865],[8.97404,46.90841],[8.97529,46.90852],[8.97574,46.90818],[8.97837,46.90817],[8.97976,46.90791],[8.98104,46.90819],[8.98114,46.90784],[8.98154,46.90776],[8.98395,46.90804]]}},{"type":"Feature","properties":{"id":"sandbach-gl","c":"GL","p":"patent","q":"derived","k":"river"},"geometry":{"type":"LineString","coordinates":[[8.95337,46.8396],[8.95355,46.84024],[8.95439,46.84081],[8.95528,46.84184],[8.95571,46.84285],[8.95548,46.8432],[8.95676,46.84431],[8.95787,46.84662],[8.95918,46.84827],[8.96015,46.84883],[8.96058,46.84932],[8.96052,46.8512],[8.9613,46.8522],[8.96252,46.85259],[8.96465,46.85278],[8.96524,46.85307],[8.96666,46.85335],[8.96938,46.85519],[8.97052,46.85739],[8.97116,46.85795],[8.97257,46.85804],[8.97396,46.85865],[8.97504,46.85885],[8.97583,46.85948],[8.97814,46.86067],[8.97894,46.86209],[8.97976,46.8629],[8.97954,46.86331],[8.97963,46.86396]]}},{"type":"Feature","properties":{"id":"limmerenbach-gl","c":"GL","p":"patent","q":"derived","k":"river"},"geometry":{"type":"MultiLineString","coordinates":[[[9.00836,46.84594],[9.00767,46.84658],[9.00575,46.84731],[9.00434,46.84776],[9.00366,46.84769],[9.00318,46.84818],[9.00033,46.84994],[8.99987,46.85118],[8.99933,46.85131],[8.99792,46.85294],[8.99725,46.85314],[8.9967,46.85362],[8.99646,46.85436],[8.99572,46.85513],[8.99441,46.85627],[8.99272,46.85724],[8.99185,46.8583],[8.99112,46.85862],[8.9907,46.85903],[8.9903,46.86048],[8.98966,46.86145],[8.98966,46.86219],[8.98904,46.86306],[8.98895,46.86385],[8.9892,46.86418],[8.98883,46.86456],[8.98714,46.8652],[8.98671,46.86503],[8.9857,46.86509],[8.98486,46.86461],[8.98302,46.8644],[8.98031,46.86591]],[[8.99356,46.81825],[8.99416,46.81826],[8.99627,46.81902],[8.99852,46.81827],[9.00087,46.8179],[9.00141,46.81746],[9.00386,46.8176],[9.00526,46.81806],[9.00606,46.81877],[9.00667,46.81903],[9.00776,46.81917],[9.00978,46.82097],[9.01006,46.82179]]]}},{"type":"Feature","properties":{"id":"aeschenbach-gl","c":"GL","p":"patent","q":"derived","k":"river"},"geometry":{"type":"LineString","coordinates":[[8.99581,47.1495],[8.99663,47.14982],[8.99696,47.15034],[8.99753,47.15069],[8.99809,47.15202],[8.99813,47.15331],[8.99845,47.15373],[8.99964,47.15429],[9.00118,47.15647],[9.00149,47.15759],[9.00336,47.15927],[9.00824,47.16236],[9.00932,47.16492],[9.00984,47.16679],[9.00703,47.16922],[9.00411,47.17117],[9.00448,47.17421]]}}]}