{"type":"FeatureCollection","features":[{"type":"Feature","properties":{"id":"doubs-ju","c":"JU","p":"patent","q":"derived","k":"river"},"geometry":{"type":"MultiLineString","coordinates":[[[6.84618,47.17364],[6.84853,47.17465],[6.85057,47.17525],[6.85343,47.17678],[6.85668,47.17769],[6.85859,47.17853],[6.86362,47.18023],[6.86525,47.18186],[6.8659,47.18443],[6.86726,47.18537],[6.86835,47.18543],[6.87008,47.18509],[6.87168,47.185],[6.87381,47.18549],[6.87409,47.18587],[6.87405,47.18643],[6.87348,47.18781]],[[7.00777,47.30108],[7.00921,47.30031],[7.01004,47.30022],[7.01152,47.30074],[7.01278,47.30229],[7.01311,47.30312],[7.01488,47.30399],[7.01684,47.3042],[7.01971,47.30396],[7.02191,47.30398],[7.02284,47.30443],[7.02491,47.30446],[7.03123,47.30621],[7.03165,47.30791],[7.03264,47.30895],[7.03282,47.30945],[7.0324,47.31003],[7.03154,47.31024],[7.03055,47.31086],[7.03037,47.31166],[7.03132,47.31336],[7.03203,47.31415],[7.03493,47.31582],[7.03708,47.31565],[7.03899,47.31481],[7.0397,47.31425],[7.0423,47.31319],[7.04283,47.31263],[7.04275,47.31117],[7.0446,47.3085],[7.04511,47.30827],[7.04637,47.30846],[7.04991,47.30704],[7.05173,47.30661],[7.05859,47.30689],[7.05997,47.30764],[7.06053,47.30852],[7.06334,47.31012],[7.06498,47.31177],[7.06813,47.31293],[7.06972,47.31413],[7.07232,47.31492],[7.07794,47.31538],[7.08029,47.31601]],[[7.09954,47.32028],[7.1007,47.31994],[7.10256,47.319],[7.1035,47.31901],[7.10462,47.32042],[7.10522,47.32243],[7.10651,47.32295],[7.10845,47.32344],[7.11141,47.32365],[7.11451,47.32506],[7.12174,47.3268],[7.12636,47.3283],[7.12925,47.32881],[7.13256,47.32891],[7.1335,47.32914],[7.13411,47.32942],[7.13475,47.33046],[7.1349,47.33139],[7.13415,47.33352],[7.13421,47.33453],[7.1345,47.33533],[7.13538,47.33577],[7.13623,47.33578],[7.13966,47.33509],[7.14038,47.33486],[7.14255,47.33357],[7.14434,47.3331],[7.14871,47.3331],[7.15065,47.33381],[7.15394,47.33648],[7.1556,47.33872],[7.15649,47.34031],[7.15621,47.34191],[7.15708,47.34409],[7.15706,47.34506],[7.159,47.347],[7.16054,47.34799],[7.1622,47.34875],[7.16402,47.34907],[7.16631,47.34904],[7.16759,47.34927],[7.16981,47.3507],[7.17091,47.35244],[7.17107,47.35319],[7.17044,47.35437],[7.17041,47.35519],[7.17064,47.35556],[7.17253,47.35678],[7.17278,47.35783],[7.17219,47.35846],[7.16978,47.35983],[7.16778,47.36417],[7.16557,47.36603],[7.16394,47.36681],[7.16293,47.36686],[7.16191,47.36661],[7.16129,47.36614],[7.1602,47.36577],[7.15769,47.36535],[7.15482,47.36409],[7.15294,47.36217],[7.15043,47.36046],[7.14822,47.3597],[7.14627,47.35994],[7.14548,47.35985],[7.14221,47.35884],[7.14029,47.35873],[7.1356,47.35922],[7.13443,47.35903],[7.13138,47.35805],[7.12863,47.35787],[7.12728,47.35824],[7.1251,47.36003],[7.12428,47.36026],[7.1207,47.35987],[7.1165,47.35843],[7.10908,47.35745],[7.10759,47.35755],[7.106,47.35702],[7.1047,47.35609],[7.1027,47.35567],[7.09871,47.35598],[7.09671,47.35672],[7.09596,47.35673],[7.09369,47.35602],[7.09271,47.35545],[7.09239,47.35369],[7.09287,47.35181],[7.09222,47.35076],[7.09085,47.34963],[7.08775,47.34849],[7.08313,47.34757],[7.08127,47.34771],[7.07895,47.34842],[7.07256,47.35278],[7.07187,47.35283],[7.07023,47.3512],[7.06978,47.35041],[7.0697,47.34944],[7.07061,47.34821],[7.07074,47.34762],[7.07034,47.34579],[7.06972,47.34516],[7.06889,47.34473],[7.06629,47.34402],[7.06466,47.34388],[7.06289,47.34409],[7.05561,47.34752],[7.04992,47.34786]],[[7.08029,47.31601],[7.08302,47.31623],[7.08549,47.31685],[7.0874,47.31709],[7.08885,47.31753]],[[7.08029,47.31601],[7.08139,47.3168],[7.08506,47.31752],[7.08885,47.31753]],[[7.08885,47.31753],[7.09031,47.31792],[7.09155,47.31849],[7.09373,47.31904],[7.09461,47.31969]],[[7.09461,47.31969],[7.09519,47.32003],[7.09755,47.32046],[7.09954,47.32028]],[[7.09461,47.31969],[7.09517,47.32063],[7.09571,47.32105],[7.09763,47.32113],[7.09855,47.321],[7.09954,47.32028]]]}},{"type":"Feature","properties":{"id":"ruisseau-de-bavelier-ju","c":"JU","p":"patent","q":"derived","k":"river"},"geometry":{"type":"MultiLineString","coordinates":[[[7.29658,47.42468],[7.29645,47.42503],[7.29694,47.42554],[7.29703,47.42608],[7.29652,47.42756],[7.29705,47.42794],[7.29752,47.42948],[7.29903,47.43051],[7.30001,47.43162],[7.30042,47.43247],[7.30044,47.4333],[7.30001,47.43393],[7.29957,47.43613]],[[7.30364,47.41106],[7.30603,47.41167],[7.30607,47.4123],[7.30667,47.41297],[7.30657,47.41351],[7.3032,47.41626],[7.30182,47.41681],[7.30097,47.41739],[7.30053,47.41833],[7.29905,47.41937],[7.29819,47.42089],[7.2983,47.42136],[7.29767,47.42244],[7.29778,47.42287],[7.29698,47.42372]]]}},{"type":"Feature","properties":{"id":"bief-de-la-cote-de-mai-ju","c":"JU","p":"patent","q":"derived","k":"river"},"geometry":{"type":"LineString","coordinates":[[7.28354,47.40504],[7.28082,47.4045],[7.27919,47.40464],[7.27771,47.4045],[7.27599,47.40478],[7.27469,47.40487],[7.2743,47.40473],[7.27395,47.40488],[7.27252,47.40494],[7.27034,47.40466],[7.26954,47.40508],[7.26885,47.40517],[7.2682,47.40478],[7.26751,47.40474],[7.26607,47.40484],[7.26588,47.40519],[7.26503,47.40512],[7.26472,47.40494],[7.26357,47.40505],[7.26039,47.40492],[7.25962,47.40512],[7.25863,47.40508],[7.2572,47.40543],[7.25365,47.40493],[7.25034,47.40551],[7.24792,47.40544],[7.24627,47.4059],[7.24505,47.40588],[7.24448,47.40623],[7.24357,47.40619],[7.24207,47.40675]]}},{"type":"Feature","properties":{"id":"ruisseau-de-mettemberg-ju","c":"JU","p":"patent","q":"derived","k":"river"},"geometry":{"type":"LineString","coordinates":[[7.27247,47.39144],[7.27583,47.39191],[7.27882,47.39202],[7.28336,47.39326],[7.2836,47.39314],[7.28491,47.39338],[7.2862,47.39328],[7.28855,47.39356],[7.2935,47.39505],[7.29479,47.39579],[7.29777,47.39639],[7.29913,47.39629],[7.30217,47.39702],[7.30392,47.39674],[7.30681,47.39594],[7.30899,47.39597],[7.31006,47.39538],[7.31471,47.39417],[7.31902,47.39402],[7.32291,47.39419],[7.32466,47.39456],[7.33258,47.39471],[7.33426,47.39494],[7.33706,47.39497],[7.343,47.39543],[7.34752,47.39546],[7.35001,47.39521],[7.3538,47.39562],[7.35536,47.39563],[7.36109,47.39484],[7.36297,47.39414],[7.36579,47.39443],[7.36779,47.39401],[7.36903,47.39412],[7.3699,47.39378],[7.37031,47.39347],[7.37045,47.39286],[7.36998,47.39167],[7.37055,47.39129],[7.3706,47.38999],[7.37123,47.38873]]}},{"type":"Feature","properties":{"id":"pran-ju","c":"JU","p":"patent","q":"derived","k":"river"},"geometry":{"type":"LineString","coordinates":[[7.26116,47.36675],[7.26499,47.36495],[7.26747,47.36417],[7.26934,47.36401],[7.2711,47.36412],[7.27262,47.36349],[7.27506,47.36307],[7.27596,47.36225],[7.27706,47.3619],[7.28125,47.36111],[7.28243,47.36072],[7.28469,47.36056],[7.28494,47.36018],[7.28612,47.35982],[7.28796,47.35642],[7.28891,47.35572],[7.29033,47.35521],[7.29298,47.35489],[7.29551,47.35609],[7.29614,47.35574],[7.29678,47.35572],[7.30067,47.35714],[7.30478,47.35815],[7.30767,47.35862],[7.31406,47.35938],[7.31825,47.35941],[7.32238,47.35891],[7.32612,47.35779],[7.32894,47.35655],[7.33149,47.35405],[7.33288,47.35376]]}},{"type":"Feature","properties":{"id":"ruisseau-de-chatillon-ju","c":"JU","p":"patent","q":"derived","k":"river"},"geometry":{"type":"LineString","coordinates":[[7.33384,47.30785],[7.3368,47.30724],[7.33925,47.30719],[7.34057,47.30752],[7.34124,47.30817],[7.34145,47.30893],[7.34239,47.30947],[7.34288,47.31055],[7.34319,47.31233],[7.34206,47.31583],[7.34235,47.31702],[7.34211,47.31806],[7.34142,47.31892],[7.34025,47.31906],[7.34011,47.31939],[7.3404,47.3204],[7.34017,47.32092],[7.341,47.32197],[7.34118,47.32254],[7.34085,47.32692],[7.34211,47.32997],[7.34107,47.33024],[7.34049,47.33063],[7.34001,47.33244],[7.33838,47.33511],[7.33845,47.33603],[7.33886,47.33656],[7.33504,47.33791],[7.33391,47.33752],[7.33232,47.33807],[7.32979,47.33841],[7.32854,47.33832],[7.32748,47.33857],[7.32721,47.33895],[7.32556,47.33922],[7.32453,47.33904],[7.32387,47.33928],[7.32297,47.34057],[7.32226,47.34069],[7.32252,47.34135],[7.32175,47.34181],[7.32163,47.34267],[7.32069,47.34298],[7.32059,47.34345],[7.31971,47.34463],[7.31987,47.34558]]}},{"type":"Feature","properties":{"id":"ruisseau-du-sacy-ju","c":"JU","p":"patent","q":"derived","k":"river"},"geometry":{"type":"LineString","coordinates":[[7.33118,47.3082],[7.32615,47.30828],[7.32473,47.30848],[7.32361,47.30915],[7.32263,47.31079],[7.32243,47.31223],[7.32266,47.31308],[7.32416,47.31411],[7.32473,47.31816],[7.32389,47.31929],[7.32329,47.31973],[7.32432,47.32094],[7.3255,47.32171],[7.32568,47.32394],[7.32606,47.32473],[7.3258,47.32518],[7.32401,47.3262],[7.32372,47.3269],[7.32256,47.32749],[7.3209,47.32955],[7.32061,47.33105],[7.32132,47.33191],[7.32117,47.33254],[7.32045,47.33326],[7.31995,47.33438],[7.3188,47.33499],[7.31811,47.33572],[7.31695,47.33615],[7.31722,47.33719],[7.31621,47.33876],[7.31598,47.33985],[7.31465,47.34184],[7.31388,47.34217]]}},{"type":"Feature","properties":{"id":"rouge-eau-ju","c":"JU","p":"patent","q":"derived","k":"river"},"geometry":{"type":"LineString","coordinates":[[7.25533,47.3772],[7.25434,47.37699],[7.25316,47.37704],[7.25242,47.37673],[7.25169,47.37695],[7.2503,47.37703],[7.24685,47.37795],[7.24501,47.37776],[7.24421,47.3761],[7.24445,47.37431],[7.24292,47.37188],[7.24321,47.36903],[7.2436,47.36765],[7.24412,47.36702],[7.24343,47.36474],[7.24344,47.36352],[7.24393,47.36217],[7.24314,47.36159],[7.24304,47.36108],[7.2434,47.36065],[7.24367,47.35926],[7.24489,47.35853],[7.2463,47.35603],[7.24712,47.35575],[7.24786,47.35477],[7.24901,47.35396],[7.2502,47.35356],[7.25043,47.3532],[7.25082,47.35311],[7.25099,47.35286],[7.25128,47.35288],[7.2523,47.35155],[7.25407,47.35109],[7.25642,47.34957],[7.25702,47.34856],[7.25688,47.34816],[7.25712,47.34764],[7.25648,47.34638],[7.25753,47.34496],[7.25748,47.34451]]}},{"type":"Feature","properties":{"id":"ruisseau-de-boecourt-ju","c":"JU","p":"patent","q":"derived","k":"river"},"geometry":{"type":"MultiLineString","coordinates":[[[7.22099,47.35556],[7.22161,47.35437],[7.22058,47.35304],[7.22055,47.352],[7.2208,47.35151],[7.22059,47.35063],[7.2196,47.34917],[7.21842,47.34822],[7.21893,47.34772],[7.21847,47.34584],[7.21935,47.34557],[7.21947,47.34475],[7.21759,47.34292],[7.2169,47.34314],[7.2168,47.34302],[7.21694,47.34269],[7.21671,47.34186],[7.21703,47.34172],[7.21717,47.34126],[7.21786,47.3411],[7.21825,47.34071]],[[7.21868,47.34051],[7.21884,47.34045]],[[7.22022,47.33991],[7.22049,47.33973],[7.22172,47.33972],[7.22286,47.34003],[7.22374,47.34068],[7.22553,47.34118],[7.23371,47.34208],[7.24213,47.34401],[7.24811,47.34502],[7.25063,47.3453],[7.25322,47.34417]]]}},{"type":"Feature","properties":{"id":"folpotat-ju","c":"JU","p":"patent","q":"derived","k":"river"},"geometry":{"type":"LineString","coordinates":[[7.33256,47.30163],[7.32822,47.30111],[7.32607,47.30114],[7.32412,47.30191],[7.32226,47.30212],[7.32041,47.30189],[7.31807,47.30129],[7.31622,47.30148],[7.31519,47.30127],[7.31197,47.30179],[7.30737,47.30223],[7.30628,47.30204],[7.30577,47.30162],[7.30494,47.30145],[7.30061,47.30211],[7.298,47.302],[7.29747,47.30179],[7.2937,47.30204],[7.29264,47.30154],[7.29092,47.30146],[7.29044,47.30126],[7.28997,47.30155],[7.28736,47.30223],[7.28465,47.30227],[7.28427,47.3021],[7.28128,47.30243],[7.27765,47.30209],[7.27696,47.30278],[7.27607,47.30268],[7.27504,47.30312],[7.2714,47.30325],[7.26857,47.30378],[7.2595,47.30403],[7.25781,47.30338],[7.25655,47.30252],[7.25495,47.30237],[7.2531,47.30158],[7.25215,47.30137],[7.25069,47.30042],[7.24864,47.30054],[7.24738,47.30006],[7.24669,47.30034],[7.245,47.30009],[7.24335,47.30088],[7.24034,47.30163],[7.23758,47.30172],[7.23574,47.30158],[7.23157,47.30189],[7.22697,47.30254],[7.22592,47.30297],[7.22452,47.30386]]}},{"type":"Feature","properties":{"id":"combe-chavat-ju","c":"JU","p":"patent","q":"derived","k":"river"},"geometry":{"type":"MultiLineString","coordinates":[[[7.16797,47.36639],[7.16613,47.36639],[7.16576,47.36623]],[[7.16853,47.3665],[7.16846,47.36647]],[[7.20557,47.36666],[7.20586,47.36739],[7.20566,47.36764],[7.20612,47.36869],[7.20607,47.37096],[7.20591,47.37158],[7.20522,47.37227],[7.20412,47.37223],[7.20171,47.37162],[7.19986,47.37156],[7.19778,47.37087],[7.19589,47.37047],[7.19555,47.37005],[7.19373,47.36995],[7.19156,47.36931],[7.19002,47.36922],[7.18912,47.36946],[7.18657,47.36953],[7.18389,47.37005],[7.18219,47.36957],[7.18041,47.36933],[7.17498,47.36947],[7.17424,47.36927],[7.17231,47.36814],[7.17091,47.36761],[7.17028,47.36712],[7.16885,47.36658]]]}},{"type":"Feature","properties":{"id":"bief-de-vautenaivre-ju","c":"JU","p":"patent","q":"derived","k":"river"},"geometry":{"type":"LineString","coordinates":[[6.98157,47.2781],[6.981,47.27783],[6.97871,47.27797],[6.97735,47.27712],[6.97637,47.27713],[6.9758,47.27736],[6.97472,47.27719],[6.97224,47.27764],[6.97089,47.27763],[6.96826,47.27876],[6.96593,47.27894],[6.96553,47.27969],[6.96482,47.28006],[6.96437,47.2808],[6.96371,47.28042],[6.96116,47.28178],[6.95553,47.28075],[6.95476,47.28042],[6.95199,47.28029],[6.95117,47.27995],[6.95077,47.27963],[6.95075,47.27934],[6.94922,47.27848],[6.94702,47.27765],[6.94636,47.27723]]}},{"type":"Feature","properties":{"id":"gabiare-ju","c":"JU","p":"patent","q":"derived","k":"river"},"geometry":{"type":"LineString","coordinates":[[7.49753,47.30228],[7.49659,47.3028],[7.49689,47.30354],[7.49622,47.30452],[7.49648,47.30517],[7.49598,47.30599],[7.49399,47.3068],[7.49299,47.30757],[7.49248,47.30824],[7.49291,47.30959],[7.49234,47.31027],[7.49235,47.31155],[7.49162,47.31253],[7.49175,47.31295],[7.49152,47.31334],[7.49176,47.31367],[7.49129,47.31409],[7.49139,47.31471],[7.49092,47.31481],[7.48982,47.31553],[7.48824,47.3159],[7.48655,47.31571],[7.48617,47.3162],[7.48488,47.31624],[7.48389,47.3179],[7.48288,47.318],[7.4826,47.31835],[7.48138,47.31858],[7.48034,47.31916],[7.48013,47.32],[7.47926,47.32063],[7.47928,47.32114],[7.47872,47.32164],[7.47895,47.32357],[7.47832,47.32409],[7.47777,47.32505],[7.47643,47.3258],[7.47664,47.32654],[7.47618,47.32701],[7.47602,47.32798],[7.47541,47.32886],[7.47449,47.32891],[7.47325,47.32869],[7.47199,47.32884],[7.47072,47.32968],[7.46978,47.32933],[7.46717,47.32894],[7.46607,47.32851],[7.46519,47.3284],[7.46484,47.32817],[7.46378,47.32795],[7.46267,47.32721],[7.46224,47.32719],[7.46132,47.3276],[7.46007,47.32676],[7.45931,47.32699],[7.45809,47.32682],[7.45719,47.32712],[7.45551,47.32666],[7.45413,47.32682],[7.45258,47.32665],[7.45073,47.32764],[7.44931,47.32787],[7.44668,47.3304],[7.44565,47.33071],[7.44469,47.33133],[7.44318,47.33175],[7.44327,47.33297],[7.44287,47.33344],[7.44325,47.33445],[7.44206,47.3367],[7.44185,47.33766],[7.44145,47.33809],[7.44025,47.33836],[7.44008,47.33859],[7.44039,47.33909],[7.44023,47.33946],[7.43839,47.34021],[7.43765,47.34114],[7.43767,47.34163],[7.43679,47.34189],[7.43689,47.34217],[7.43742,47.3425],[7.43746,47.34337],[7.43711,47.34347],[7.43551,47.34327],[7.43491,47.34379],[7.43437,47.34471],[7.43495,47.346],[7.43463,47.34632],[7.43345,47.34646],[7.43314,47.34697],[7.4334,47.34769]]}},{"type":"Feature","properties":{"id":"ruisseau-de-vermes-ju","c":"JU","p":"patent","q":"derived","k":"river"},"geometry":{"type":"LineString","coordinates":[[7.52872,47.32462],[7.52614,47.32453],[7.5237,47.32373],[7.51847,47.32385],[7.51678,47.32341],[7.51496,47.3235],[7.51331,47.32391],[7.51272,47.32425],[7.51176,47.32437],[7.51047,47.32428],[7.50777,47.32463],[7.50632,47.3246],[7.50453,47.32566],[7.50382,47.32573],[7.50322,47.32657],[7.50328,47.32688],[7.50234,47.3273],[7.50248,47.32746],[7.50212,47.3278],[7.50061,47.32817],[7.49959,47.33025],[7.49879,47.33109],[7.49802,47.33157],[7.49767,47.33213],[7.49758,47.33314],[7.49639,47.33404],[7.49487,47.33387],[7.49421,47.33411],[7.49341,47.33403],[7.49212,47.3336],[7.49154,47.33286],[7.49059,47.33268],[7.48991,47.33276],[7.48754,47.33161],[7.48499,47.33158],[7.4844,47.33137],[7.48307,47.33125],[7.48271,47.33087],[7.48187,47.33047],[7.48156,47.32965],[7.48099,47.32931],[7.47753,47.3284],[7.4759,47.32819]]}},{"type":"Feature","properties":{"id":"vendline-ju","c":"JU","p":"patent","q":"derived","k":"river"},"geometry":{"type":"LineString","coordinates":[[7.1498,47.45383],[7.15012,47.45418],[7.15229,47.45531],[7.15275,47.45583],[7.15296,47.45757],[7.15177,47.46183],[7.15481,47.46661],[7.15558,47.46943],[7.15454,47.47213],[7.15441,47.47408],[7.15206,47.47567],[7.15125,47.47703],[7.14949,47.47806],[7.14797,47.4785],[7.14481,47.48013],[7.14405,47.48223],[7.1407,47.48278],[7.1397,47.48367],[7.13822,47.48583],[7.1382,47.48654],[7.13784,47.487],[7.13814,47.48738],[7.13852,47.48739],[7.1388,47.48769],[7.13861,47.48881],[7.13978,47.48974],[7.13829,47.49077],[7.13758,47.49163],[7.13573,47.49273],[7.13488,47.49384],[7.13473,47.49483],[7.13404,47.49579],[7.1326,47.49646],[7.13137,47.49741],[7.13067,47.49762],[7.12919,47.49856],[7.12858,47.49871],[7.1284,47.49857],[7.12699,47.49864],[7.12632,47.49892],[7.12633,47.49927],[7.12607,47.49941],[7.12554,47.49931],[7.12489,47.49943],[7.12458,47.49916],[7.12409,47.49924],[7.12255,47.49987],[7.12233,47.50018]]}},{"type":"Feature","properties":{"id":"coeuvatte-ju","c":"JU","p":"patent","q":"derived","k":"river"},"geometry":{"type":"LineString","coordinates":[[7.09986,47.45817],[7.10142,47.46066],[7.10581,47.4639],[7.10662,47.46516],[7.10636,47.46613],[7.10378,47.46728],[7.10147,47.46972],[7.10151,47.47],[7.10243,47.47089],[7.10171,47.47209],[7.10283,47.47296],[7.10266,47.47357],[7.10458,47.4737],[7.10495,47.47398],[7.10479,47.47477],[7.10369,47.47605],[7.10208,47.47616],[7.10144,47.47658],[7.10134,47.47738],[7.10182,47.47811],[7.10162,47.47842],[7.10084,47.47872],[7.09926,47.4819],[7.0986,47.48387],[7.09663,47.48493],[7.09564,47.48656],[7.09395,47.48724],[7.09342,47.48729],[7.09304,47.48681],[7.09245,47.48672],[7.0917,47.4876],[7.09045,47.48786],[7.09027,47.48808],[7.08941,47.48793],[7.08764,47.48869],[7.08719,47.48856],[7.08657,47.4889],[7.08331,47.48977],[7.08248,47.48974],[7.08218,47.49018]]}},{"type":"Feature","properties":{"id":"erveratte-ju","c":"JU","p":"patent","q":"derived","k":"river"},"geometry":{"type":"LineString","coordinates":[[7.22348,47.38826],[7.22297,47.38846],[7.22224,47.38939],[7.22148,47.38966],[7.22035,47.38977],[7.2191,47.3905],[7.21805,47.39044],[7.21706,47.39075],[7.21653,47.39113],[7.21582,47.39114],[7.21503,47.39078],[7.21394,47.39081],[7.21258,47.39116],[7.21057,47.39114],[7.21016,47.39134],[7.20952,47.39135],[7.20876,47.3911],[7.20848,47.39127],[7.20716,47.39131],[7.20642,47.39212],[7.20608,47.39326],[7.20696,47.39453],[7.20805,47.39537],[7.20937,47.39691],[7.21164,47.39845],[7.21144,47.39875],[7.21165,47.39935],[7.21124,47.40081],[7.21012,47.40286],[7.21042,47.4038],[7.21068,47.40392],[7.20976,47.40562],[7.20967,47.40818],[7.20911,47.40968],[7.20771,47.41122],[7.20498,47.41098],[7.201,47.4116],[7.20065,47.41199],[7.19985,47.41186],[7.19937,47.41224],[7.19819,47.41259],[7.19695,47.41224],[7.19586,47.41156],[7.19467,47.41126],[7.19284,47.41141],[7.19177,47.41184],[7.19061,47.41148],[7.1897,47.41255],[7.18805,47.41335],[7.18746,47.41333],[7.18648,47.41363],[7.18603,47.41351],[7.18328,47.41363],[7.18125,47.41537],[7.1792,47.41504],[7.17875,47.41525],[7.17758,47.41532],[7.17638,47.41504],[7.17597,47.41624],[7.17526,47.41668],[7.17497,47.41755],[7.17392,47.41763],[7.17268,47.41931],[7.17207,47.41943],[7.17191,47.41978],[7.17048,47.41973],[7.16908,47.42104],[7.16771,47.42096],[7.16741,47.42168],[7.16632,47.42197],[7.16445,47.42329],[7.15842,47.42481],[7.15182,47.42533],[7.15101,47.42498],[7.14992,47.4251],[7.14696,47.42466],[7.14408,47.42519],[7.14008,47.42455],[7.13952,47.42462]]}},{"type":"Feature","properties":{"id":"ruisseau-du-jonc-ju","c":"JU","p":"patent","q":"derived","k":"river"},"geometry":{"type":"LineString","coordinates":[[7.16238,47.38327],[7.1616,47.38426],[7.16101,47.3845],[7.15826,47.38481],[7.15748,47.38527],[7.15648,47.3854],[7.15593,47.38574],[7.15232,47.38632],[7.15173,47.38682],[7.1515,47.38739],[7.15194,47.38899],[7.15081,47.38981],[7.14865,47.39266],[7.14833,47.39477],[7.14883,47.39529],[7.14887,47.39607],[7.14822,47.3962],[7.14611,47.39787],[7.14608,47.39809],[7.14555,47.39806],[7.1443,47.39854],[7.14356,47.39953],[7.14183,47.4004],[7.14111,47.4014],[7.1385,47.40256],[7.13812,47.40362],[7.136,47.40396],[7.13411,47.40497],[7.13365,47.40544],[7.13375,47.40567],[7.13311,47.40616],[7.13221,47.40784],[7.13168,47.40839],[7.13082,47.40865],[7.1302,47.40932],[7.12991,47.41035],[7.12862,47.41256],[7.1286,47.41324],[7.13082,47.41421],[7.13066,47.41518],[7.13119,47.41552],[7.12792,47.41686],[7.12596,47.41743],[7.12114,47.41804],[7.12001,47.41835],[7.11469,47.41846],[7.11373,47.41858],[7.1133,47.4189],[7.11229,47.4186],[7.11051,47.41859]]}},{"type":"Feature","properties":{"id":"tabeillon-ju","c":"JU","p":"patent","q":"derived","k":"river"},"geometry":{"type":"MultiLineString","coordinates":[[[7.09586,47.28718],[7.09797,47.2875],[7.09985,47.28827],[7.10168,47.28827],[7.10258,47.28878],[7.10294,47.28864],[7.10356,47.28871]],[[7.10468,47.28894],[7.10479,47.28895]],[[7.10566,47.28907],[7.10741,47.28956],[7.11024,47.29074],[7.11849,47.29333],[7.11984,47.29412],[7.1217,47.29489],[7.12329,47.29498]],[[7.12589,47.29581],[7.12747,47.29786],[7.12738,47.29839],[7.12774,47.29883],[7.12877,47.29845],[7.13028,47.29956],[7.13065,47.30013],[7.13392,47.3009],[7.13685,47.3019],[7.13816,47.30179],[7.13986,47.30237],[7.14143,47.30316],[7.14183,47.30382],[7.14259,47.30416],[7.14337,47.30427],[7.14382,47.30513],[7.14465,47.30538],[7.14582,47.30621],[7.14716,47.30674],[7.14795,47.30762],[7.14797,47.30822],[7.14827,47.30853],[7.15022,47.30888],[7.15441,47.31087],[7.15483,47.31125],[7.15661,47.31194],[7.15752,47.313],[7.16266,47.31629],[7.1651,47.31706],[7.16731,47.318],[7.16781,47.31833],[7.16804,47.31898],[7.16896,47.31956],[7.17132,47.32037],[7.17238,47.32045],[7.17732,47.32341],[7.17881,47.32365],[7.18056,47.32448],[7.18241,47.32482],[7.18371,47.32556],[7.18589,47.32589],[7.18931,47.32768],[7.19005,47.32833],[7.19285,47.32967],[7.19358,47.32984],[7.19621,47.33205],[7.19902,47.33338],[7.2032,47.33322],[7.2049,47.3335],[7.20663,47.33347],[7.20861,47.33316],[7.21276,47.33297],[7.21394,47.33307],[7.21552,47.33294],[7.21854,47.33208],[7.2222,47.33208],[7.22253,47.33221],[7.22258,47.33282],[7.22347,47.33312],[7.22556,47.33441],[7.22559,47.3348],[7.22891,47.33678],[7.22992,47.3377],[7.2311,47.33959],[7.23213,47.34007],[7.23359,47.34042],[7.23673,47.34073],[7.24216,47.3428],[7.24331,47.34281],[7.24473,47.34307],[7.24768,47.34274],[7.2488,47.34292],[7.24999,47.34351],[7.25294,47.34403]]]}},{"type":"Feature","properties":{"id":"birs-ju","c":"JU","p":"patent","q":"derived","k":"river"},"geometry":{"type":"MultiLineString","coordinates":[[[7.34602,47.24699],[7.34546,47.24756],[7.34446,47.24936],[7.34351,47.25038],[7.34318,47.25148],[7.34332,47.25292],[7.34283,47.25406],[7.34344,47.25457],[7.34418,47.25612],[7.34492,47.25665],[7.3453,47.25813],[7.34611,47.25904],[7.347,47.25945],[7.34906,47.25982],[7.35034,47.26055],[7.35105,47.26175],[7.35147,47.26451],[7.35209,47.26483],[7.3534,47.26507],[7.35532,47.26494],[7.3567,47.2654],[7.35875,47.26549],[7.36006,47.2661],[7.36096,47.26705],[7.36229,47.2672],[7.36289,47.26743],[7.3638,47.26808],[7.36371,47.26834],[7.36294,47.26876],[7.36273,47.26938],[7.36366,47.27023],[7.36482,47.27181],[7.36396,47.27438],[7.36426,47.27491],[7.36679,47.27616],[7.36847,47.27655],[7.36909,47.2771],[7.37214,47.27835],[7.37391,47.27867],[7.37554,47.27964],[7.37893,47.28012],[7.37924,47.28119],[7.38033,47.28183],[7.38187,47.2819],[7.38241,47.28238],[7.38174,47.28639],[7.38169,47.28809],[7.38123,47.28889],[7.38228,47.29085],[7.38164,47.29165],[7.38069,47.29216],[7.38005,47.29289]],[[7.3903,47.31334],[7.39103,47.3144],[7.38924,47.31552],[7.38635,47.31642],[7.38416,47.31647],[7.38259,47.31681],[7.38171,47.31728],[7.38032,47.31866],[7.37697,47.32329],[7.37615,47.32489],[7.3762,47.3254],[7.37768,47.32667],[7.37859,47.32866],[7.37843,47.32962],[7.37436,47.33241],[7.37245,47.33408],[7.37122,47.33592],[7.37195,47.33724],[7.37136,47.33774],[7.36962,47.33843],[7.3693,47.33872],[7.36949,47.33921],[7.37048,47.33924],[7.37157,47.33965],[7.37241,47.33971],[7.37254,47.341],[7.3715,47.34237],[7.37127,47.34412],[7.37253,47.34484],[7.37413,47.34505],[7.3744,47.3453],[7.37309,47.34709],[7.3713,47.3484],[7.37051,47.3487],[7.36885,47.34883],[7.36759,47.34936],[7.36767,47.34973],[7.36826,47.35013],[7.36956,47.35047],[7.36969,47.35082],[7.36905,47.35233],[7.37025,47.35286],[7.37086,47.35338],[7.37074,47.35458],[7.37001,47.35534],[7.37006,47.35713],[7.37058,47.35826],[7.37015,47.35971],[7.36997,47.36293],[7.36941,47.36369],[7.36692,47.36503],[7.36584,47.36504],[7.36327,47.36415],[7.3626,47.3644],[7.36215,47.36484],[7.36198,47.36576],[7.36218,47.36741],[7.36192,47.3691],[7.36083,47.37183],[7.36187,47.37437],[7.36214,47.37633],[7.36184,47.37694],[7.36016,47.37822],[7.35984,47.37898],[7.35991,47.37978],[7.36085,47.38074],[7.36107,47.38168],[7.36182,47.38282],[7.36488,47.38571],[7.36678,47.38721],[7.3664,47.388],[7.3666,47.38828],[7.36884,47.38883],[7.3716,47.38859],[7.37469,47.38866],[7.37748,47.38925],[7.37945,47.39067],[7.38143,47.39075],[7.38306,47.39019],[7.38429,47.39054],[7.3865,47.39065],[7.38762,47.39105],[7.38925,47.39087],[7.39201,47.39154],[7.3946,47.39177],[7.39608,47.39272],[7.39701,47.39359],[7.39733,47.39439],[7.397,47.39567],[7.3974,47.39627],[7.3981,47.39667],[7.39941,47.39686],[7.40106,47.3968],[7.40336,47.39616],[7.40552,47.3952],[7.40912,47.39498],[7.41059,47.3947],[7.41262,47.3948],[7.41426,47.39441],[7.41483,47.39398]]]}},{"type":"Feature","properties":{"id":"lucelle-ju","c":"JU","p":"patent","q":"derived","k":"river"},"geometry":{"type":"MultiLineString","coordinates":[[[7.26317,47.38437],[7.25822,47.38578],[7.2536,47.3887],[7.24933,47.38968],[7.24823,47.38971],[7.24664,47.39005],[7.24238,47.39216],[7.24029,47.39295],[7.23894,47.3932],[7.23833,47.3938],[7.23779,47.39486],[7.23771,47.39568],[7.23817,47.39719],[7.2377,47.39866],[7.23788,47.40205],[7.23869,47.40367],[7.24063,47.40437],[7.24207,47.40675],[7.24102,47.40798],[7.24108,47.40857],[7.24387,47.40961],[7.24581,47.41074],[7.24598,47.4117],[7.24561,47.41193],[7.24514,47.41272],[7.24506,47.41351],[7.24535,47.41417]],[[7.24535,47.41515],[7.24563,47.41807]],[[7.2456,47.41994],[7.24632,47.42053]],[[7.27216,47.42823],[7.27376,47.42985],[7.27491,47.43058],[7.27615,47.43104],[7.27647,47.43138],[7.27759,47.43181],[7.27802,47.43247],[7.27972,47.43269],[7.28064,47.43319],[7.28171,47.43474],[7.28474,47.4352],[7.28696,47.43514],[7.28753,47.43481],[7.28866,47.43477],[7.29152,47.43362],[7.29277,47.43337],[7.29485,47.43445],[7.29587,47.4357],[7.29792,47.43586],[7.29869,47.4361],[7.29936,47.43606],[7.30047,47.43648],[7.30223,47.43848]],[[7.30573,47.43881],[7.30742,47.43889],[7.31032,47.43811],[7.31231,47.43797],[7.31361,47.43819],[7.31432,47.43855],[7.31628,47.43873],[7.31762,47.43862],[7.31944,47.43878],[7.31999,47.43866],[7.32052,47.43827],[7.32114,47.43857],[7.32264,47.43886],[7.32355,47.43868],[7.32493,47.43938],[7.32597,47.43952],[7.3265,47.43989],[7.3273,47.44002]]]}},{"type":"Feature","properties":{"id":"sorne-ju","c":"JU","p":"patent","q":"derived","k":"river"},"geometry":{"type":"MultiLineString","coordinates":[[[7.13147,47.25701],[7.13507,47.25769],[7.14101,47.25804],[7.14392,47.25869],[7.14854,47.25891],[7.15263,47.2589],[7.15443,47.2587]],[[7.22289,47.29033],[7.22272,47.29141],[7.22339,47.29187],[7.22384,47.29263],[7.22244,47.29377],[7.22233,47.29431],[7.22122,47.2947],[7.22024,47.29584],[7.22009,47.29732],[7.22018,47.29772],[7.22071,47.29821],[7.22227,47.29853],[7.22283,47.29897],[7.22266,47.30132],[7.22231,47.30168],[7.2232,47.30196],[7.22452,47.30386],[7.21984,47.30588],[7.21979,47.30715],[7.2204,47.30808],[7.22045,47.30859],[7.21943,47.30952],[7.21947,47.30984],[7.21891,47.31052],[7.21886,47.31205],[7.21673,47.31314],[7.21575,47.31478],[7.2165,47.31578],[7.21648,47.3172],[7.217,47.31825],[7.21785,47.31882],[7.21809,47.31968],[7.21906,47.32028],[7.21888,47.32057],[7.21768,47.32112],[7.21749,47.32204],[7.21764,47.32263],[7.21904,47.32364],[7.21959,47.32454],[7.22009,47.3249],[7.22067,47.32518],[7.22202,47.32525],[7.22262,47.32567],[7.22301,47.32608],[7.22268,47.32639],[7.22277,47.32673],[7.22475,47.32787],[7.226,47.3301],[7.22673,47.33037],[7.22792,47.33035],[7.22972,47.33104],[7.22947,47.33172],[7.2301,47.33227],[7.23102,47.33223],[7.23283,47.33279],[7.23386,47.33361],[7.23477,47.33366],[7.23631,47.33343],[7.23757,47.33417],[7.23902,47.3345],[7.24024,47.33547],[7.24031,47.33664],[7.24108,47.33727],[7.24152,47.33732],[7.24214,47.33678],[7.24257,47.33667],[7.24456,47.33756],[7.24534,47.33806],[7.24681,47.34014],[7.24751,47.34073],[7.24819,47.34102],[7.25005,47.34133],[7.2504,47.34156],[7.25082,47.34248],[7.25321,47.34409],[7.25584,47.34455],[7.26142,47.34446],[7.26144,47.34408],[7.26082,47.34296],[7.26082,47.34269],[7.26117,47.34257],[7.26493,47.34208],[7.26808,47.34245],[7.26944,47.34202],[7.27013,47.34148],[7.27007,47.34031],[7.27057,47.3388],[7.27151,47.338],[7.27305,47.33827],[7.27325,47.33906],[7.27506,47.33889],[7.27528,47.33864],[7.27485,47.33819],[7.27567,47.33755],[7.27879,47.33708],[7.28063,47.33699],[7.28308,47.33621],[7.28533,47.33581],[7.2867,47.33526],[7.2883,47.33526],[7.28887,47.33572],[7.28995,47.33599],[7.29043,47.33707],[7.29133,47.33652],[7.2934,47.33592],[7.29459,47.33674],[7.29561,47.33675],[7.29668,47.33702],[7.29901,47.33693],[7.30023,47.33727],[7.30064,47.33758],[7.30029,47.33807],[7.30054,47.33823],[7.30152,47.33823],[7.30272,47.33762],[7.30364,47.33767],[7.30398,47.33791],[7.30354,47.33853],[7.30377,47.33911],[7.30423,47.33924],[7.30545,47.33854],[7.30618,47.33858],[7.30872,47.34054],[7.30875,47.34087],[7.30929,47.34116],[7.31008,47.34212],[7.3107,47.3422],[7.31136,47.34199],[7.31178,47.34109],[7.31221,47.34114],[7.31356,47.34189],[7.31378,47.34219],[7.31354,47.34336],[7.31504,47.34372],[7.31557,47.34413],[7.31557,47.34568],[7.31722,47.34583],[7.31932,47.34559],[7.32001,47.34573],[7.32016,47.34613],[7.31984,47.34703],[7.32018,47.34763],[7.32268,47.34856],[7.32463,47.34966],[7.32527,47.35062],[7.32732,47.35077],[7.32815,47.3505],[7.33019,47.35062],[7.33103,47.35088],[7.33215,47.35183],[7.33319,47.35425],[7.33411,47.35532],[7.33517,47.35588],[7.33583,47.35591],[7.33641,47.35568],[7.33733,47.35602],[7.33707,47.35678],[7.33825,47.3593],[7.33895,47.35937],[7.33991,47.35868],[7.34029,47.35873],[7.34389,47.36094],[7.34491,47.36257],[7.34641,47.36315],[7.34937,47.36294],[7.35076,47.36318],[7.35104,47.36373],[7.35072,47.36588],[7.35088,47.36657],[7.35215,47.36735],[7.3538,47.36744],[7.35435,47.36881],[7.35605,47.3698],[7.35806,47.37019],[7.35928,47.37016],[7.36114,47.37089]],[[7.22425,47.28811],[7.2233,47.28868],[7.2232,47.28957]]]}},{"type":"Feature","properties":{"id":"scheulte-ju","c":"JU","p":"patent","q":"derived","k":"river"},"geometry":{"type":"LineString","coordinates":[[7.53423,47.3334],[7.53332,47.33334],[7.53129,47.3338],[7.5299,47.33471],[7.52679,47.33419],[7.52576,47.33424],[7.52437,47.33489],[7.52325,47.33463],[7.52222,47.33476],[7.52184,47.33517],[7.51834,47.3345],[7.51712,47.33472],[7.51602,47.3356],[7.51356,47.33551],[7.51098,47.33596],[7.50777,47.33783],[7.50707,47.33893],[7.50738,47.33942],[7.50726,47.3397],[7.50682,47.34],[7.50613,47.34001],[7.5058,47.34046],[7.50508,47.34062],[7.50508,47.34112],[7.50391,47.34206],[7.50244,47.34233],[7.50248,47.3427],[7.50203,47.34318],[7.49931,47.34364],[7.49872,47.34363],[7.49792,47.34331],[7.49753,47.34333],[7.4972,47.34359],[7.49625,47.34348],[7.49567,47.34415],[7.49489,47.34456],[7.49464,47.34511],[7.49339,47.34513],[7.49203,47.34568],[7.49068,47.34545],[7.48975,47.34575],[7.48813,47.34592],[7.48737,47.34627],[7.48535,47.34674],[7.48499,47.34669],[7.48481,47.34627],[7.48397,47.34594],[7.48089,47.34577],[7.48023,47.3459],[7.47928,47.34553],[7.47836,47.34565],[7.47768,47.34617],[7.47662,47.34609],[7.47606,47.34623],[7.47419,47.34714],[7.47343,47.3473],[7.47197,47.34646],[7.4706,47.34702],[7.4693,47.34689],[7.46736,47.34633],[7.46519,47.34643],[7.4642,47.34691],[7.46195,47.34698],[7.46129,47.34726],[7.46,47.34736],[7.45888,47.34781],[7.45861,47.34817],[7.4567,47.34825],[7.45515,47.3491],[7.45355,47.34954],[7.45279,47.35068],[7.45009,47.35045],[7.44889,47.34999],[7.4476,47.34909],[7.44603,47.34899],[7.44317,47.34722],[7.44025,47.34711],[7.43989,47.34723],[7.43949,47.34792],[7.43662,47.34845],[7.43484,47.34774],[7.4334,47.34769],[7.43152,47.34822],[7.43066,47.34793],[7.42982,47.34788],[7.42903,47.34749],[7.42778,47.34745],[7.42685,47.34798],[7.42622,47.3495],[7.42495,47.34961],[7.42376,47.34892],[7.42316,47.34881],[7.41939,47.35039],[7.41825,47.35042],[7.41538,47.34944],[7.41429,47.34975],[7.41268,47.34979],[7.41245,47.35035],[7.41219,47.35045],[7.40816,47.35066],[7.40783,47.35093],[7.4079,47.35178],[7.40595,47.35278],[7.40487,47.35287],[7.40511,47.35335],[7.40495,47.35361],[7.40224,47.35488],[7.40184,47.35524],[7.40192,47.35566],[7.40279,47.35622],[7.40258,47.35693],[7.40202,47.35711],[7.39983,47.35697],[7.39909,47.35744],[7.39897,47.35778],[7.40008,47.35854],[7.39994,47.35878],[7.39885,47.35907],[7.39697,47.3583],[7.39588,47.35871],[7.39531,47.35958],[7.3931,47.35959],[7.39178,47.36047],[7.38952,47.36158],[7.388,47.36166],[7.38727,47.36267],[7.38604,47.36358],[7.38489,47.36364],[7.38379,47.36401],[7.37952,47.36465],[7.37754,47.36468],[7.37713,47.36447],[7.37673,47.36376],[7.37433,47.36395],[7.37115,47.36322],[7.36983,47.36325]]}},{"type":"Feature","properties":{"id":"ruisseau-de-montsevelier-ju","c":"JU","p":"patent","q":"derived","k":"river"},"geometry":{"type":"MultiLineString","coordinates":[[[7.49506,47.35682],[7.49479,47.35661],[7.49532,47.35644],[7.49391,47.35616],[7.494,47.35559],[7.49317,47.35563],[7.49243,47.35424],[7.49128,47.35339],[7.48959,47.35315],[7.48809,47.35251],[7.48662,47.35242],[7.48643,47.35267],[7.48589,47.3525],[7.48407,47.35292],[7.48331,47.35277],[7.48193,47.35339],[7.47964,47.35319],[7.47575,47.35244],[7.47403,47.35234],[7.4714,47.35326],[7.47093,47.353],[7.47054,47.35237],[7.46865,47.3512],[7.46781,47.35101],[7.46645,47.35096],[7.46549,47.35114],[7.4637,47.35097],[7.46298,47.3515],[7.46195,47.35124],[7.45919,47.35148],[7.45674,47.35098],[7.45492,47.35107],[7.45406,47.35137],[7.45368,47.35113],[7.4529,47.35113],[7.45281,47.35074]],[[7.49531,47.3569],[7.4952,47.35684]],[[7.53922,47.35816],[7.53283,47.35731],[7.53091,47.35686],[7.52892,47.35601],[7.52803,47.35543],[7.52811,47.35517],[7.52723,47.35504],[7.5265,47.35522],[7.52608,47.35445],[7.52571,47.35429],[7.52377,47.3548],[7.52282,47.35466],[7.52246,47.35479],[7.52233,47.3551],[7.52136,47.35573],[7.52123,47.35667],[7.52075,47.35697],[7.52028,47.35697],[7.52014,47.35734],[7.51933,47.35794],[7.518,47.35993],[7.51604,47.35997],[7.51532,47.36023],[7.51445,47.36008],[7.51406,47.36021],[7.51283,47.36018],[7.51204,47.36055],[7.51131,47.36035],[7.50979,47.36063],[7.50923,47.36042],[7.50857,47.3607],[7.5065,47.36086],[7.50548,47.36045],[7.50475,47.35971],[7.49989,47.35902],[7.49972,47.35865],[7.49724,47.35719],[7.49615,47.35694],[7.49581,47.35698],[7.49559,47.35729],[7.49537,47.35717]]]}},{"type":"Feature","properties":{"id":"allaine-ju","c":"JU","p":"patent","q":"derived","k":"river"},"geometry":{"type":"MultiLineString","coordinates":[[[7.09828,47.41796],[7.09591,47.41797],[7.08413,47.4173],[7.08225,47.41748],[7.081,47.41795],[7.08065,47.41779],[7.07953,47.41781],[7.07821,47.41735],[7.07653,47.41751],[7.07395,47.41881],[7.07502,47.4199],[7.07818,47.4216],[7.07994,47.42478],[7.08147,47.42582],[7.08305,47.4263],[7.08377,47.42695],[7.08389,47.42804],[7.08328,47.42982],[7.083,47.42998],[7.08352,47.43021],[7.083,47.43043],[7.08308,47.43103],[7.08266,47.43173],[7.08294,47.43211],[7.08257,47.43217],[7.08225,47.43254],[7.08177,47.43244],[7.08152,47.43298],[7.08002,47.43294],[7.07866,47.43331],[7.07794,47.4332],[7.07731,47.43384],[7.07518,47.43332],[7.07493,47.43362],[7.0753,47.43381],[7.07514,47.434],[7.07399,47.43363],[7.07025,47.43526],[7.07011,47.43578],[7.06936,47.43596],[7.06841,47.43576],[7.06778,47.43515],[7.06676,47.43509],[7.0665,47.43438],[7.06556,47.43409],[7.06399,47.43325],[7.0635,47.43323],[7.06329,47.43301],[7.06354,47.43287],[7.06363,47.43229],[7.06336,47.43201],[7.06244,47.43201],[7.06218,47.43255],[7.06117,47.43229],[7.06065,47.43244],[7.06033,47.43362],[7.06109,47.43494],[7.06104,47.43549],[7.06007,47.43636],[7.05849,47.43689],[7.05863,47.43782],[7.0582,47.43827],[7.05784,47.4383],[7.05711,47.43775],[7.05677,47.43782],[7.05674,47.43907],[7.05709,47.43945],[7.05732,47.4408],[7.05607,47.44224],[7.05564,47.44235],[7.0544,47.44218],[7.05422,47.44233],[7.05435,47.44277],[7.05508,47.4433],[7.05641,47.44398],[7.05735,47.44408],[7.05806,47.44436],[7.05867,47.44524],[7.05856,47.44587],[7.05768,47.4461],[7.05779,47.44653],[7.0575,47.44711],[7.05798,47.44809],[7.05758,47.44854],[7.05776,47.44999],[7.05755,47.45035],[7.05806,47.45132],[7.0576,47.45215],[7.05765,47.45265],[7.05713,47.45305],[7.05649,47.45297],[7.05609,47.4532],[7.05452,47.45278],[7.05416,47.45372],[7.05288,47.45368],[7.05249,47.45444],[7.05112,47.45439],[7.04911,47.45668],[7.04934,47.45959],[7.04886,47.46038],[7.0484,47.46054],[7.04883,47.46141],[7.0485,47.46166],[7.04805,47.46154],[7.04777,47.46166],[7.04742,47.46291],[7.04767,47.46329],[7.04826,47.46343],[7.04823,47.46377],[7.04863,47.46427],[7.04913,47.46421],[7.04941,47.46436],[7.04865,47.46522],[7.04906,47.46612],[7.04954,47.46624],[7.05028,47.46682],[7.05003,47.46772],[7.05038,47.46834],[7.04906,47.46894],[7.04851,47.4698],[7.04854,47.47082],[7.04831,47.47103],[7.04658,47.47117],[7.04402,47.47107],[7.04282,47.47122],[7.04081,47.47182],[7.04013,47.47217],[7.03966,47.47278],[7.0398,47.47358],[7.04048,47.47414],[7.03945,47.475],[7.03792,47.47511],[7.03663,47.47544],[7.03472,47.47555],[7.0345,47.47617],[7.03253,47.47726],[7.03161,47.4785],[7.03013,47.47955],[7.02953,47.48078],[7.03008,47.48149],[7.02998,47.48173],[7.02769,47.48318],[7.02757,47.48386],[7.02677,47.48415],[7.02589,47.48509],[7.02457,47.48502],[7.02412,47.48542],[7.02358,47.48547],[7.02323,47.48577],[7.02301,47.48619],[7.02374,47.48655],[7.02371,47.48675],[7.02316,47.4869],[7.02155,47.48678],[7.02007,47.48622],[7.01765,47.48634],[7.01646,47.48602],[7.01617,47.48637],[7.01466,47.48677],[7.0135,47.48827],[7.01339,47.48873],[7.01374,47.48891],[7.01439,47.48874],[7.01582,47.48899],[7.01644,47.48984],[7.01662,47.49083],[7.01511,47.49455],[7.01511,47.49756],[7.01443,47.49807],[7.012,47.49872],[7.01141,47.4995],[7.01149,47.50019],[7.01264,47.50181],[7.01224,47.50264]],[[7.23921,47.42589],[7.23653,47.4257],[7.23371,47.42524],[7.22956,47.42505],[7.22673,47.42417],[7.2258,47.42357],[7.22443,47.42361],[7.22253,47.42325],[7.22056,47.42411],[7.21836,47.42443],[7.21394,47.42325],[7.21272,47.42316],[7.21128,47.42341],[7.21094,47.42271],[7.21037,47.42245],[7.20932,47.42254],[7.20862,47.42235],[7.20766,47.4225],[7.20732,47.42273],[7.20645,47.4227],[7.20632,47.42252],[7.20399,47.42234],[7.20216,47.42161],[7.2019,47.42187],[7.2013,47.42176],[7.20036,47.42218],[7.19883,47.42348],[7.19619,47.4229],[7.19544,47.42288],[7.19533,47.42582],[7.19125,47.42626],[7.18896,47.42628],[7.18661,47.4269],[7.18446,47.42797],[7.1834,47.42789],[7.18291,47.42809],[7.18225,47.42792],[7.18088,47.42813],[7.17962,47.42788],[7.17723,47.42785],[7.17701,47.42773],[7.17717,47.42708],[7.17362,47.42738],[7.1718,47.42717],[7.16686,47.42873],[7.16302,47.42853],[7.1618,47.42872],[7.16128,47.42846],[7.15959,47.42848],[7.15895,47.42866],[7.15853,47.4284],[7.15835,47.42871],[7.15789,47.42885],[7.157,47.42835],[7.15563,47.42826],[7.15514,47.42806],[7.15437,47.42825],[7.15413,47.42878],[7.15206,47.42889],[7.15156,47.42836],[7.1473,47.42751],[7.1469,47.42714],[7.14592,47.42673],[7.14531,47.42682],[7.14503,47.4266],[7.14429,47.42648],[7.14386,47.42605],[7.13986,47.42511],[7.13976,47.4248],[7.13935,47.42459],[7.13849,47.42489],[7.13793,47.42538],[7.13744,47.42635],[7.1369,47.42672],[7.13524,47.42653],[7.13477,47.42723],[7.13349,47.42763],[7.13192,47.42707],[7.12908,47.42651],[7.12764,47.42586],[7.12732,47.42532],[7.12554,47.42459],[7.12414,47.42423],[7.12224,47.42321],[7.11688,47.42181],[7.11547,47.42103],[7.11407,47.41983],[7.11359,47.41968],[7.11175,47.41965],[7.11161,47.4194],[7.11096,47.41933],[7.11051,47.41859],[7.10863,47.41876],[7.1084,47.41907],[7.10806,47.41905],[7.1076,47.41871],[7.10526,47.41895],[7.10232,47.4195],[7.10182,47.41924],[7.10137,47.41817],[7.10057,47.4179],[7.09998,47.41797],[7.0992,47.41751]]]}}]}