{"type":"FeatureCollection","features":[{"type":"Feature","properties":{"id":"bielersee-ne","c":"NE","p":"patent","q":"derived","k":"lake"},"geometry":{"type":"Polygon","coordinates":[[[7.07829,47.05202],[7.07739,47.05198],[7.07638,47.05135],[7.07492,47.0518],[7.07436,47.0523],[7.07245,47.05456],[7.07291,47.05529],[7.07448,47.05628],[7.07388,47.05682],[7.07471,47.0569],[7.07505,47.05721],[7.07604,47.05742],[7.07638,47.05775],[7.07597,47.05789],[7.07589,47.05814],[7.07649,47.05828],[7.07757,47.05849],[7.07774,47.0584],[7.07773,47.0582],[7.07736,47.05792],[7.07927,47.05824],[7.0794,47.0585],[7.08012,47.05879],[7.08158,47.05914],[7.08255,47.05958],[7.08484,47.06006],[7.08602,47.0601],[7.08729,47.05988],[7.0876,47.05994],[7.08765,47.05974],[7.07829,47.05202]]]}},{"type":"Feature","properties":{"id":"doubs-lac-des-brenets-ne","c":"NE","p":"patent","q":"derived","k":"lake"},"geometry":{"type":"Polygon","coordinates":[[[6.7103,47.08432],[6.70971,47.08425],[6.7091,47.08436],[6.70854,47.08409],[6.70859,47.08375],[6.70928,47.08299],[6.70916,47.08278],[6.70799,47.08246],[6.70634,47.08232],[6.70405,47.08192],[6.70368,47.08169],[6.70411,47.08118],[6.70448,47.08101],[6.70726,47.08065],[6.70803,47.08014],[6.70848,47.0795],[6.70853,47.07886],[6.70826,47.07819],[6.70719,47.07706],[6.70628,47.07657],[6.70617,47.07631],[6.70757,47.07491],[6.70767,47.07456],[6.70744,47.07423],[6.70694,47.0738],[6.70594,47.07339],[6.70478,47.0733],[6.70454,47.07338],[6.70432,47.07321],[6.70374,47.07315],[6.70374,47.07284],[6.70317,47.07181],[6.70322,47.07082],[6.70189,47.0695],[6.70132,47.06917],[6.7008,47.06904],[6.70055,47.06884],[6.69991,47.0689],[6.69752,47.06841],[6.69653,47.06852],[6.69599,47.06827],[6.69395,47.06815],[6.69303,47.06743],[6.69322,47.06643],[6.69365,47.06594],[6.69445,47.0654],[6.69478,47.06485],[6.69489,47.0643],[6.69469,47.06422],[6.69487,47.06369],[6.69471,47.0633],[6.69431,47.06354],[6.69388,47.06424],[6.69387,47.06475],[6.69365,47.06504],[6.69151,47.06667],[6.69219,47.06795],[6.69341,47.06894],[6.69404,47.06901],[6.69464,47.06887],[6.69542,47.06888],[6.69694,47.06928],[6.6992,47.06954],[6.70061,47.06985],[6.70115,47.07011],[6.70159,47.07052],[6.70331,47.07345],[6.70409,47.07384],[6.70534,47.07385],[6.70577,47.07393],[6.70624,47.07421],[6.70656,47.07466],[6.70651,47.07482],[6.70524,47.07605],[6.70521,47.07639],[6.7055,47.07686],[6.70663,47.07761],[6.70737,47.07831],[6.70761,47.07883],[6.70754,47.07945],[6.70723,47.07977],[6.70666,47.08004],[6.70454,47.08027],[6.70355,47.08056],[6.70267,47.08129],[6.70258,47.08193],[6.70302,47.0823],[6.7037,47.08253],[6.70791,47.08315],[6.70836,47.08416],[6.70907,47.08465],[6.70985,47.08434],[6.7103,47.08432]]]}},{"type":"Feature","properties":{"id":"neuenburgersee-ne","c":"NE","p":"patent","q":"derived","k":"lake","fr":1},"geometry":{"type":"Polygon","coordinates":[[[6.75509,46.87047],[6.75651,46.87416],[6.75679,46.87433],[6.75719,46.87437],[6.75869,46.87526],[6.75891,46.87543],[6.75862,46.87539],[6.75874,46.8757],[6.75923,46.87598],[6.75916,46.8761],[6.75971,46.87644],[6.76049,46.87722],[6.76078,46.87731],[6.76076,46.87745],[6.76034,46.87736],[6.76038,46.87756],[6.76063,46.8775],[6.76079,46.87764],[6.76086,46.87791],[6.76058,46.87802],[6.76128,46.87805],[6.76098,46.8789],[6.76159,46.88004],[6.7621,46.88038],[6.76268,46.88124],[6.76322,46.8817],[6.76342,46.88247],[6.76396,46.88287],[6.764,46.88356],[6.76419,46.88371],[6.76452,46.88489],[6.76487,46.88482],[6.76501,46.88539],[6.7664,46.8867],[6.76702,46.88693],[6.76778,46.88768],[6.76827,46.88852],[6.76862,46.88857],[6.76875,46.8887],[6.76844,46.88879],[6.7685,46.88899],[6.76898,46.88881],[6.77014,46.88947],[6.77056,46.89018],[6.77059,46.8906],[6.77125,46.89096],[6.77146,46.89098],[6.77167,46.89075],[6.77254,46.89089],[6.77281,46.89069],[6.77356,46.89098],[6.7734,46.89122],[6.77405,46.89151],[6.77447,46.89128],[6.77455,46.8917],[6.77548,46.89197],[6.77585,46.89183],[6.77596,46.89146],[6.77642,46.8914],[6.77655,46.89146],[6.7763,46.89175],[6.77645,46.8918],[6.77668,46.89156],[6.77687,46.89158],[6.77697,46.89166],[6.77681,46.89194],[6.77704,46.89215],[6.77719,46.89182],[6.77789,46.89186],[6.77812,46.89152],[6.77845,46.89171],[6.77863,46.8925],[6.77947,46.89313],[6.77994,46.89329],[6.77964,46.89344],[6.77964,46.89357],[6.78018,46.8934],[6.78037,46.89376],[6.78107,46.89439],[6.78145,46.89512],[6.78164,46.8952],[6.7816,46.89535],[6.7818,46.89527],[6.78204,46.89554],[6.78164,46.89587],[6.78195,46.89595],[6.78211,46.89612],[6.78238,46.89705],[6.78275,46.8975],[6.78307,46.89763],[6.78306,46.89784],[6.78353,46.89774],[6.78386,46.89804],[6.78396,46.89798],[6.78423,46.89816],[6.78453,46.89818],[6.78457,46.89836],[6.7858,46.89905],[6.78648,46.89998],[6.78703,46.90017],[6.78733,46.89994],[6.78774,46.90031],[6.78777,46.90099],[6.78763,46.90108],[6.78788,46.90108],[6.78773,46.90127],[6.78791,46.90131],[6.78798,46.90159],[6.78812,46.90156],[6.78844,46.9026],[6.78914,46.90342],[6.78968,46.90372],[6.79066,46.90391],[6.79209,46.90479],[6.79371,46.90528],[6.79442,46.90582],[6.79699,46.90831],[6.799,46.9095],[6.79889,46.90955],[6.79975,46.9102],[6.80325,46.91371],[6.8045,46.91532],[6.80503,46.91576],[6.80588,46.91624],[6.80631,46.91634],[6.80632,46.91646],[6.80771,46.91684],[6.80808,46.9168],[6.80885,46.91715],[6.80954,46.91715],[6.81022,46.91729],[6.81035,46.91756],[6.8107,46.91751],[6.81097,46.91729],[6.81303,46.91736],[6.81349,46.91763],[6.81383,46.91765],[6.81422,46.91869],[6.81445,46.91893],[6.815,46.91909],[6.81539,46.91984],[6.8155,46.91955],[6.81588,46.91952],[6.81645,46.92024],[6.81628,46.92044],[6.81635,46.92059],[6.81693,46.92101],[6.81765,46.92118],[6.81868,46.92201],[6.8183,46.92229],[6.81854,46.92243],[6.81893,46.92214],[6.81946,46.92223],[6.81989,46.92281],[6.81993,46.92313],[6.82009,46.92319],[6.82045,46.92309],[6.82065,46.92288],[6.82114,46.92301],[6.8211,46.9231],[6.82123,46.92304],[6.82165,46.92316],[6.82201,46.92266],[6.82189,46.92312],[6.82244,46.92314],[6.82302,46.92345],[6.82273,46.92378],[6.82558,46.92423],[6.82691,46.92428],[6.82832,46.9252],[6.82839,46.92544],[6.829,46.92585],[6.82966,46.92601],[6.83053,46.92642],[6.83186,46.92647],[6.83275,46.92692],[6.83312,46.9269],[6.83662,46.92595],[6.83716,46.92569],[6.83784,46.92623],[6.83801,46.92696],[6.8383,46.92737],[6.83849,46.92863],[6.83892,46.92872],[6.83907,46.92908],[6.83904,46.92926],[6.83874,46.9293],[6.8387,46.9297],[6.83908,46.93129],[6.83943,46.93143],[6.8394,46.93195],[6.83923,46.93211],[6.83943,46.93216],[6.83938,46.9324],[6.84046,46.93414],[6.84084,46.93428],[6.84169,46.93506],[6.84239,46.93528],[6.8424,46.93546],[6.84409,46.93642],[6.84492,46.93723],[6.84584,46.9378],[6.84667,46.93829],[6.84715,46.93829],[6.84747,46.93849],[6.84753,46.93868],[6.84737,46.93882],[6.8482,46.93909],[6.84846,46.93859],[6.84916,46.93861],[6.85043,46.93896],[6.85018,46.93934],[6.8503,46.93945],[6.85042,46.93937],[6.85082,46.93943],[6.85097,46.93913],[6.85183,46.93878],[6.85169,46.93833],[6.85206,46.93817],[6.85242,46.93818],[6.85206,46.93868],[6.85214,46.9394],[6.8532,46.93951],[6.85389,46.93894],[6.8539,46.93879],[6.85411,46.93879],[6.85414,46.93902],[6.85316,46.9397],[6.85363,46.93973],[6.85465,46.9403],[6.85447,46.9404],[6.85477,46.94069],[6.85522,46.94064],[6.85501,46.94043],[6.85521,46.94016],[6.85562,46.94017],[6.85643,46.9404],[6.85707,46.94045],[6.85722,46.94056],[6.857,46.94067],[6.8571,46.94085],[6.85754,46.94098],[6.85932,46.94078],[6.85978,46.94084],[6.86032,46.94106],[6.86042,46.94138],[6.86066,46.94152],[6.86019,46.94184],[6.86028,46.94192],[6.86086,46.9418],[6.86226,46.94214],[6.86377,46.943],[6.86393,46.94287],[6.86457,46.94322],[6.86424,46.9435],[6.86436,46.94358],[6.86475,46.94333],[6.8655,46.94375],[6.86596,46.94375],[6.86622,46.94387],[6.86685,46.94433],[6.86957,46.94496],[6.8695,46.94508],[6.87094,46.94516],[6.87114,46.94567],[6.87109,46.9466],[6.87053,46.94761],[6.87056,46.94842],[6.87083,46.94912],[6.87097,46.94916],[6.87093,46.95],[6.87152,46.95142],[6.87206,46.95189],[6.87178,46.9522],[6.87191,46.95229],[6.87187,46.95256],[6.87239,46.95322],[6.87283,46.95441],[6.87378,46.95481],[6.87381,46.95562],[6.87403,46.95595],[6.87418,46.95597],[6.87425,46.95628],[6.8742,46.95758],[6.8746,46.95815],[6.87421,46.96041],[6.87362,46.96177],[6.87352,46.9628],[6.87367,46.96307],[6.87345,46.96322],[6.87356,46.96337],[6.87406,46.96353],[6.8744,46.96504],[6.87467,46.96538],[6.87458,46.96546],[6.87449,46.96526],[6.87427,46.96523],[6.87424,46.96533],[6.87444,46.96537],[6.87441,46.96556],[6.87424,46.96555],[6.87404,46.96605],[6.87342,46.96659],[6.87319,46.96732],[6.87331,46.96732],[6.87326,46.96757],[6.87342,46.96759],[6.87343,46.96788],[6.87322,46.96801],[6.87363,46.96799],[6.87382,46.96871],[6.87398,46.96875],[6.87398,46.96905],[6.87414,46.96905],[6.87423,46.96975],[6.87365,46.97028],[6.87446,46.9707],[6.87394,46.97118],[6.87451,46.97072],[6.87531,46.97096],[6.87567,46.97042],[6.87582,46.9704],[6.87588,46.97051],[6.87554,46.97104],[6.87591,46.97115],[6.87601,46.97105],[6.87623,46.97112],[6.87569,46.97194],[6.87859,46.97299],[6.87933,46.97306],[6.87944,46.97335],[6.8798,46.97356],[6.88018,46.97353],[6.88029,46.97322],[6.88055,46.97319],[6.88086,46.97403],[6.8815,46.97378],[6.88177,46.97386],[6.88195,46.97411],[6.88336,46.97487],[6.88227,46.97554],[6.88248,46.97588],[6.88356,46.97658],[6.88432,46.97674],[6.88506,46.97705],[6.88553,46.97706],[6.88616,46.97685],[6.8884,46.9777],[6.88973,46.97751],[6.89181,46.9782],[6.89393,46.97869],[6.89418,46.97912],[6.89466,46.97927],[6.89523,46.97818],[6.89899,46.9789],[6.89997,46.97923],[6.90014,46.98009],[6.90238,46.98058],[6.90244,46.98082],[6.90347,46.98079],[6.90374,46.9802],[6.90391,46.98015],[6.90481,46.98049],[6.90744,46.98079],[6.90972,46.9819],[6.91245,46.98406],[6.91293,46.98421],[6.91365,46.98419],[6.91373,46.98432],[6.91344,46.98493],[6.91422,46.98559],[6.91517,46.98605],[6.91909,46.98751],[6.91981,46.98794],[6.92155,46.98862],[6.92212,46.98845],[6.92186,46.98886],[6.92198,46.98891],[6.92267,46.98821],[6.9238,46.98875],[6.92374,46.98941],[6.92424,46.98973],[6.9258,46.98989],[6.92723,46.98957],[6.92761,46.98937],[6.92755,46.9887],[6.92776,46.98857],[6.93005,46.98871],[6.93275,46.99003],[6.93327,46.98961],[6.93396,46.98979],[6.93389,46.98989],[6.93327,46.98972],[6.93252,46.99057],[6.9341,46.99129],[6.93479,46.99059],[6.93444,46.9903],[6.93465,46.99033],[6.93465,46.98984],[6.93605,46.98969],[6.93597,46.98984],[6.93487,46.98991],[6.93476,46.99042],[6.93621,46.9913],[6.9373,46.99056],[6.93686,46.99029],[6.936,46.99022],[6.93631,46.99012],[6.93726,46.9902],[6.93851,46.99072],[6.94008,46.99191],[6.94065,46.99191],[6.94196,46.99251],[6.94227,46.99252],[6.94222,46.99261],[6.94241,46.99269],[6.94447,46.99331],[6.94814,46.99413],[6.94885,46.99394],[6.94889,46.99404],[6.94804,46.99461],[6.94812,46.99469],[6.94752,46.99503],[6.94748,46.99536],[6.94729,46.99542],[6.9475,46.99578],[6.94767,46.99582],[6.94774,46.99572],[6.94827,46.99585],[6.94844,46.99556],[6.94873,46.99564],[6.94853,46.99603],[6.95036,46.99642],[6.9508,46.99645],[6.95111,46.99578],[6.95131,46.99584],[6.95115,46.99625],[6.95152,46.99644],[6.95246,46.99607],[6.95372,46.99621],[6.95457,46.99617],[6.95474,46.99604],[6.9551,46.99613],[6.95517,46.99631],[6.95547,46.99617],[6.9557,46.99622],[6.95632,46.99663],[6.95686,46.99757],[6.95847,46.99853],[6.9584,46.99877],[6.95794,46.99904],[6.95791,46.9993],[6.95819,46.9997],[6.95806,47.0001],[6.95763,47.00051],[6.95814,47.00102],[6.95912,47.00145],[6.95943,47.00173],[6.95971,47.00169],[6.96057,47.00211],[6.96131,47.00271],[6.96204,47.00296],[6.96196,47.00317],[6.96211,47.00328],[6.96238,47.0034],[6.96265,47.00324],[6.96281,47.0034],[6.96363,47.0037],[6.96389,47.00352],[6.96393,47.0038],[6.96484,47.00407],[6.96665,47.00503],[6.96718,47.00512],[6.96761,47.00506],[6.96808,47.00546],[6.96849,47.00557],[6.97074,47.00567],[6.97102,47.00626],[6.97195,47.00688],[6.97263,47.0071],[6.97366,47.00695],[6.97368,47.00704],[6.97266,47.00738],[6.97313,47.00763],[6.97323,47.00754],[6.97337,47.0076],[6.97278,47.00816],[6.97417,47.00888],[6.97497,47.00831],[6.97496,47.00808],[6.9757,47.00842],[6.97586,47.00862],[6.97642,47.0086],[6.97642,47.0087],[6.97579,47.00878],[6.97646,47.00943],[6.97716,47.00955],[6.97729,47.0098],[6.97867,47.00989],[6.978,47.01023],[6.97826,47.01051],[6.97887,47.01052],[6.97888,47.0102],[6.98065,47.01055],[6.9805,47.01088],[6.97981,47.01102],[6.97979,47.01118],[6.98004,47.01128],[6.98052,47.01136],[6.98075,47.01106],[6.98063,47.0109],[6.98085,47.01076],[6.98095,47.01031],[6.98105,47.01055],[6.98131,47.01059],[6.98148,47.01048],[6.98141,47.01035],[6.98235,47.01009],[6.98182,47.01036],[6.98252,47.0103],[6.98281,47.01012],[6.98351,47.01014],[6.98308,47.01033],[6.98356,47.01103],[6.98456,47.01104],[6.9856,47.01068],[6.98525,47.0097],[6.98483,47.00971],[6.9853,47.00951],[6.98542,47.00933],[6.98618,47.00931],[6.98708,47.009],[6.9871,47.0091],[6.98633,47.00945],[6.98766,47.01014],[6.98683,47.01025],[6.98689,47.01047],[6.98774,47.01029],[6.98775,47.01047],[6.98813,47.01064],[6.98872,47.01063],[6.98893,47.01043],[6.98945,47.0107],[6.98987,47.01074],[6.99151,47.01041],[6.99226,47.00986],[6.99205,47.00963],[6.9929,47.0092],[6.99352,47.00905],[6.99352,47.00882],[6.99324,47.00857],[6.99334,47.0084],[6.99406,47.00839],[6.99403,47.00817],[6.99343,47.00788],[6.99338,47.00775],[6.99361,47.00756],[6.99386,47.0068],[6.99465,47.00637],[6.99524,47.00569],[6.99514,47.00541],[6.99468,47.00545],[6.99425,47.00534],[6.9946,47.00503],[6.99601,47.0049],[6.99635,47.00501],[6.99694,47.00484],[6.99848,47.00488],[6.9989,47.00473],[6.99953,47.00479],[6.99965,47.00456],[7.00019,47.0043],[7.00184,47.00444],[7.00241,47.0041],[7.00261,47.00446],[7.00292,47.00456],[7.0027,47.0043],[7.00306,47.00395],[7.00352,47.00381],[7.00372,47.00337],[7.00406,47.00309],[7.00464,47.00278],[7.00586,47.00257],[7.00634,47.00234],[7.00778,47.00237],[7.00846,47.0021],[7.00983,47.00272],[7.01081,47.00266],[7.01107,47.00276],[7.0115,47.00223],[7.01141,47.00267],[7.01113,47.00281],[7.01152,47.00337],[7.01255,47.00403],[7.01346,47.00402],[7.01354,47.00427],[7.01375,47.00437],[7.01405,47.00417],[7.01447,47.00466],[7.01487,47.0046],[7.01554,47.0049],[7.01718,47.00492],[7.01749,47.00472],[7.01782,47.00476],[7.01787,47.00469],[7.01838,47.00481],[7.01847,47.00503],[7.01973,47.00494],[7.02043,47.00448],[7.02016,47.00447],[7.0203,47.00256],[7.01497,46.99814],[7.01592,46.99761],[7.01902,47.00023],[7.01927,47.00018],[7.01937,47.00037],[7.02025,47.00043],[7.0211,47.00106],[7.0221,47.00147],[7.02222,47.00183],[7.02289,47.00201],[7.02324,47.00224],[7.02336,47.00259],[7.02385,47.00286],[7.02395,47.00328],[7.02429,47.00337],[7.02439,47.00365],[7.02492,47.00402],[7.02526,47.00446],[7.02572,47.0044],[7.02623,47.00462],[7.03931,46.98137],[7.03909,46.98128],[7.039,46.98105],[7.03799,46.98062],[7.03726,46.98096],[7.03718,46.98064],[7.03698,46.98052],[7.02913,46.98205],[7.02899,46.98174],[7.00243,46.98691],[6.9282,46.9534],[6.89623,46.92549],[6.86569,46.90958],[6.77983,46.85296],[6.75526,46.87046],[6.75509,46.87047]],[[6.87678,46.97079],[6.87897,46.97178],[6.87964,46.97215],[6.87953,46.97225],[6.87626,46.97067],[6.87678,46.97079]],[[6.87985,46.97225],[6.88054,46.97302],[6.88016,46.9731],[6.87978,46.9729],[6.87944,46.97307],[6.87935,46.97293],[6.87976,46.97251],[6.87972,46.97236],[6.87985,46.97225]],[[6.95196,46.99596],[6.94953,46.99473],[6.94894,46.99469],[6.94921,46.99458],[6.94963,46.99463],[6.95141,46.9955],[6.95196,46.99596]],[[7.0369,46.98292],[7.03775,46.9834],[7.03768,46.98357],[7.03732,46.98357],[7.03661,46.98327],[7.03654,46.98299],[7.0369,46.98292]],[[6.98493,47.00898],[6.98485,47.00921],[6.98429,47.00968],[6.98347,47.01004],[6.9831,47.01007],[6.98415,47.00956],[6.98473,47.00901],[6.98493,47.00898]],[[6.75679,46.87323],[6.75718,46.87323],[6.75753,46.87362],[6.75767,46.87421],[6.75679,46.87323]],[[6.97368,47.0073],[6.97502,47.00776],[6.97512,47.00787],[6.97482,47.00792],[6.97359,47.00752],[6.97338,47.00736],[6.97368,47.0073]],[[6.75676,46.87209],[6.75699,46.87264],[6.75679,46.87297],[6.75656,46.87307],[6.7566,46.87209],[6.75676,46.87209]],[[6.87442,46.96994],[6.87475,46.97022],[6.87458,46.97033],[6.8742,46.9701],[6.87442,46.96994]],[[6.87521,46.97025],[6.87549,46.97052],[6.87547,46.97057],[6.87521,46.97025]],[[7.03775,46.98122],[7.03767,46.98134],[7.03753,46.98134],[7.03753,46.98123],[7.03775,46.98122]],[[7.03807,46.98253],[7.03819,46.9826],[7.03808,46.98258],[7.03807,46.98253]]]}},{"type":"Feature","properties":{"id":"lac-de-moron-ne","c":"NE","p":"patent","q":"derived","k":"lake"},"geometry":{"type":"Polygon","coordinates":[[[6.74526,47.1015],[6.74583,47.10155],[6.74682,47.10103],[6.74717,47.10034],[6.74778,47.09975],[6.74812,47.09829],[6.74804,47.09712],[6.74656,47.09503],[6.74646,47.09361],[6.74627,47.09319],[6.74433,47.09113],[6.74355,47.09107],[6.74328,47.09068],[6.74299,47.0907],[6.74051,47.08951],[6.73704,47.08926],[6.73525,47.08876],[6.73334,47.0888],[6.73116,47.08861],[6.7297,47.08875],[6.72879,47.08921],[6.72834,47.08982],[6.72747,47.09007],[6.72705,47.09006],[6.72681,47.09056],[6.72652,47.09062],[6.72611,47.09109],[6.72597,47.09156],[6.72617,47.09183],[6.72499,47.09117],[6.72517,47.09048],[6.72455,47.08988],[6.72418,47.0899],[6.72427,47.08964],[6.72269,47.08895],[6.72192,47.08878],[6.71893,47.08876],[6.71855,47.08865],[6.71829,47.08886],[6.71796,47.08893],[6.71668,47.0884],[6.71527,47.08823],[6.71472,47.08791],[6.71401,47.08719],[6.71379,47.08716],[6.71373,47.08723],[6.71459,47.08808],[6.71508,47.08841],[6.7169,47.08889],[6.71767,47.08922],[6.72072,47.08952],[6.72233,47.08949],[6.7236,47.08991],[6.72408,47.09033],[6.72428,47.09102],[6.72516,47.09162],[6.72618,47.09199],[6.72665,47.09195],[6.72795,47.09102],[6.72893,47.09054],[6.72958,47.09002],[6.73079,47.08965],[6.73199,47.08947],[6.7334,47.08966],[6.73518,47.08961],[6.73685,47.09018],[6.73844,47.0904],[6.73925,47.09038],[6.74157,47.09093],[6.74217,47.09155],[6.74457,47.09269],[6.74527,47.09536],[6.74589,47.09649],[6.7466,47.09727],[6.74668,47.0981],[6.74632,47.09866],[6.74651,47.09953],[6.74572,47.10015],[6.74499,47.10104],[6.74526,47.1015]],[[6.71917,47.08906],[6.71905,47.0892],[6.71892,47.08914],[6.71898,47.08903],[6.71917,47.08906]]]}},{"type":"Feature","properties":{"id":"lac-des-tailleres-ne","c":"NE","p":"patent","q":"derived","k":"lake"},"geometry":{"type":"Polygon","coordinates":[[[6.5631,46.96326],[6.56267,46.96367],[6.56276,46.96385],[6.56338,46.96423],[6.5644,46.9643],[6.56482,46.96411],[6.56495,46.96417],[6.5647,46.96446],[6.56525,46.96454],[6.56569,46.96569],[6.56657,46.96591],[6.56796,46.96652],[6.56926,46.9668],[6.56985,46.96674],[6.57009,46.96697],[6.57232,46.96783],[6.57683,46.96898],[6.57739,46.96929],[6.57923,46.96992],[6.5816,46.97032],[6.58257,46.97078],[6.58339,46.97096],[6.58364,46.97081],[6.5847,46.97081],[6.58534,46.97062],[6.58527,46.96933],[6.58509,46.96892],[6.58473,46.96855],[6.58319,46.96801],[6.58216,46.96778],[6.58104,46.96778],[6.5789,46.96735],[6.57671,46.96646],[6.57611,46.96605],[6.57406,46.96584],[6.57361,46.96605],[6.57334,46.96548],[6.57194,46.96505],[6.5715,46.96479],[6.56987,46.96463],[6.5687,46.96356],[6.56777,46.96324],[6.56598,46.96329],[6.56542,46.96318],[6.56447,46.96333],[6.56394,46.96309],[6.5631,46.96326]]]}},{"type":"Feature","properties":{"id":"bied-ne","c":"NE","p":"patent","q":"derived","k":"river"},"geometry":{"type":"LineString","coordinates":[[6.78691,47.06039],[6.78687,47.06109],[6.78644,47.06172],[6.78416,47.06346],[6.78502,47.0658],[6.7862,47.06756],[6.78594,47.06878],[6.78509,47.06948],[6.78414,47.06969],[6.78351,47.06957],[6.781,47.07041],[6.77892,47.0704],[6.774,47.06863],[6.77312,47.0685],[6.77272,47.06876],[6.7717,47.06886],[6.77081,47.06869],[6.76869,47.06782],[6.76613,47.06706],[6.76437,47.06629],[6.75743,47.0617],[6.75432,47.06084],[6.75222,47.05977],[6.75055,47.05825],[6.74657,47.05611],[6.74266,47.055],[6.73593,47.05213],[6.72471,47.04903],[6.72298,47.04961],[6.72288,47.04989],[6.71953,47.0521]]}},{"type":"Feature","properties":{"id":"ranconniere-ne","c":"NE","p":"patent","q":"derived","k":"river"},"geometry":{"type":"LineString","coordinates":[[6.71953,47.0521],[6.71701,47.05248],[6.71206,47.05364],[6.711,47.05438],[6.70965,47.05632],[6.70886,47.05809],[6.70762,47.05777],[6.70493,47.05904],[6.70435,47.05914],[6.70317,47.05866],[6.70164,47.05876],[6.70023,47.05965],[6.69951,47.06049],[6.69951,47.06133],[6.69893,47.06184],[6.69626,47.06361],[6.69537,47.06356]]}},{"type":"Feature","properties":{"id":"buttes-ne","c":"NE","p":"patent","q":"derived","k":"river"},"geometry":{"type":"LineString","coordinates":[[6.51396,46.85567],[6.5142,46.85637],[6.5129,46.85862],[6.51344,46.85956],[6.51294,46.86007],[6.51323,46.86104],[6.51452,46.86214],[6.51582,46.86232],[6.51657,46.86287],[6.51753,46.86314],[6.51811,46.86359],[6.51859,46.86364],[6.52008,46.86443],[6.52024,46.86538],[6.51989,46.86562],[6.52047,46.86614],[6.52054,46.86651],[6.52055,46.8675],[6.52016,46.86855],[6.52087,46.86924],[6.52067,46.86972],[6.52081,46.87044],[6.52157,46.87206],[6.52833,46.8749],[6.52929,46.87559],[6.53026,46.87674],[6.53139,46.87725],[6.53336,46.87872],[6.5353,46.87971],[6.5359,46.88026],[6.5365,46.88143],[6.53863,46.88268],[6.54365,46.88508],[6.54597,46.88599],[6.54995,46.88681],[6.55291,46.88677],[6.55368,46.88691],[6.55543,46.88771],[6.55882,46.88872],[6.56175,46.88994],[6.5694,46.89123],[6.57077,46.89165],[6.57199,46.89242],[6.57355,46.89456],[6.57559,46.89533],[6.5762,46.89574],[6.57745,46.89964],[6.5796,46.90163],[6.57968,46.90258],[6.57928,46.90514],[6.57984,46.90613]]}},{"type":"Feature","properties":{"id":"doubs-ne","c":"NE","p":"patent","q":"derived","k":"river"},"geometry":{"type":"MultiLineString","coordinates":[[[6.7107,47.08468],[6.71177,47.08572],[6.71252,47.08611],[6.71391,47.08648],[6.71416,47.08683]],[[6.74469,47.10136],[6.74179,47.10387],[6.74091,47.10545]],[[6.77211,47.12146],[6.77379,47.12116],[6.77466,47.12118]],[[6.80239,47.12966],[6.80387,47.13021],[6.80586,47.13067],[6.80667,47.13124],[6.80718,47.13229],[6.80738,47.13451],[6.80797,47.13532],[6.80899,47.1357],[6.81429,47.13548],[6.81571,47.13593],[6.8163,47.13629],[6.81857,47.13911],[6.8197,47.14012],[6.82075,47.14069],[6.82304,47.14123],[6.82464,47.14197],[6.8259,47.14324],[6.82711,47.14535],[6.82845,47.14653],[6.82914,47.14659],[6.82971,47.14626],[6.83059,47.14627],[6.83287,47.14758],[6.83969,47.15043],[6.83992,47.15075],[6.83968,47.15221],[6.84044,47.154]]]}},{"type":"Feature","properties":{"id":"canal-de-la-thielle-ne","c":"NE","p":"patent","q":"derived","k":"river"},"geometry":{"type":"MultiLineString","coordinates":[[[7.01576,46.99817],[7.02516,47.00605]],[[7.05101,47.04252],[7.05343,47.04334]],[[7.05936,47.04427],[7.06247,47.04441],[7.06558,47.04503],[7.06939,47.04716],[7.07167,47.04884],[7.07525,47.05015],[7.07773,47.05167]]]}},{"type":"Feature","properties":{"id":"areuse-ne","c":"NE","p":"patent","q":"derived","k":"river"},"geometry":{"type":"MultiLineString","coordinates":[[[6.54891,46.91169],[6.54899,46.91117],[6.54932,46.91099],[6.55294,46.91171],[6.55577,46.91135],[6.55609,46.91119],[6.55663,46.91015],[6.55728,46.9099],[6.55756,46.90991],[6.55798,46.91043],[6.5585,46.91063],[6.56,46.90994],[6.56117,46.91051],[6.56281,46.90978],[6.56383,46.91015],[6.56446,46.91019],[6.56604,46.90968],[6.56784,46.90872],[6.57095,46.90777],[6.57153,46.90715],[6.57182,46.90629],[6.57215,46.90619],[6.5733,46.90611],[6.57389,46.90625],[6.57628,46.90588],[6.57916,46.90597],[6.58049,46.90635],[6.5822,46.90743],[6.58391,46.90783],[6.58499,46.90766],[6.58839,46.90609],[6.58941,46.90592],[6.59004,46.90603]],[[6.59004,46.90603],[6.60345,46.91054],[6.6052,46.9113],[6.6075,46.91283],[6.61,46.91553]],[[6.59004,46.90603],[6.59041,46.90591],[6.59698,46.90601],[6.59914,46.90673],[6.60224,46.90837],[6.60392,46.90819],[6.60453,46.90834],[6.60845,46.91057],[6.60867,46.91119],[6.60956,46.91219],[6.60937,46.91367],[6.61006,46.91471],[6.61,46.91553]],[[6.61,46.91553],[6.61351,46.91936],[6.61545,46.92048],[6.61645,46.92071],[6.62255,46.92129],[6.62585,46.92062],[6.62801,46.92056],[6.63023,46.9212],[6.6348,46.9229],[6.63514,46.92316],[6.63561,46.9251],[6.63601,46.92552],[6.63968,46.92755],[6.64182,46.92908],[6.64342,46.92981],[6.64469,46.93077],[6.64658,46.93159],[6.65041,46.93194],[6.65276,46.93174],[6.65552,46.93237],[6.65853,46.93266],[6.6612,46.93356],[6.66492,46.93348],[6.66623,46.93368],[6.66802,46.93427],[6.66953,46.93517],[6.67019,46.93605],[6.67034,46.93722],[6.67064,46.93759],[6.67183,46.93815],[6.67326,46.93842],[6.67676,46.9375],[6.67724,46.93758],[6.67949,46.93836],[6.68113,46.93937],[6.68308,46.93922],[6.68367,46.93932],[6.68511,46.94011],[6.68777,46.94088],[6.68843,46.94146],[6.68894,46.94269],[6.68988,46.94323],[6.69103,46.94427],[6.69146,46.94453],[6.69424,46.94477],[6.69508,46.94546],[6.69522,46.94664],[6.6947,46.9507],[6.69772,46.95307],[6.69716,46.95463],[6.69771,46.95527],[6.70055,46.95545],[6.70103,46.95534],[6.70174,46.95478],[6.7022,46.95472],[6.70411,46.95506],[6.70791,46.95482],[6.70881,46.95423],[6.71103,46.952],[6.71291,46.95166],[6.71492,46.952],[6.71695,46.95102],[6.71776,46.95096],[6.71903,46.95119],[6.72231,46.95069],[6.72307,46.95075],[6.72499,46.9521],[6.72702,46.95289],[6.73045,46.95247],[6.73183,46.95305],[6.73222,46.95359],[6.73267,46.9538],[6.73392,46.95405],[6.73664,46.95383],[6.73771,46.95329],[6.74238,46.95328],[6.74623,46.95203],[6.7468,46.95143],[6.747,46.95069],[6.74998,46.94949],[6.75134,46.94927],[6.75248,46.94957],[6.75353,46.95097],[6.75596,46.95264],[6.75847,46.9529],[6.76221,46.95356],[6.76372,46.95435],[6.76459,46.95544],[6.76694,46.95592],[6.77117,46.95859],[6.77262,46.95882],[6.77411,46.95869],[6.77574,46.95906],[6.77685,46.95964],[6.77837,46.95991],[6.77908,46.96022],[6.78085,46.96038],[6.78171,46.95988],[6.7837,46.9604],[6.78422,46.96088],[6.78427,46.96126],[6.78361,46.96243],[6.78376,46.96294],[6.78413,46.9631],[6.78585,46.96273],[6.78733,46.96295],[6.78761,46.96313],[6.78755,46.96384],[6.78789,46.96398],[6.78974,46.96391],[6.79097,46.96427],[6.79167,46.96425],[6.79363,46.96351],[6.79731,46.96265],[6.80011,46.96227],[6.80345,46.96227],[6.80753,46.96131],[6.80954,46.96039],[6.81044,46.96016],[6.81083,46.95986],[6.81162,46.96003],[6.81247,46.96101],[6.81403,46.96113],[6.81485,46.96179],[6.81679,46.96185],[6.81816,46.96232],[6.81902,46.96283],[6.82028,46.96298],[6.82105,46.96275],[6.82235,46.96123],[6.82277,46.96115],[6.82484,46.96182],[6.82532,46.96183],[6.82681,46.96028],[6.82741,46.96011],[6.82788,46.96023],[6.82871,46.95978],[6.83087,46.95629],[6.83041,46.95447],[6.83046,46.95344],[6.83103,46.95301],[6.83288,46.95298],[6.83423,46.95238],[6.83562,46.9511],[6.83585,46.94973],[6.83638,46.94933],[6.83979,46.94901],[6.84118,46.94932],[6.8433,46.95073],[6.84327,46.95208],[6.84352,46.95243],[6.8453,46.95333],[6.84744,46.95388],[6.85153,46.95302],[6.85403,46.95195],[6.86807,46.94888],[6.86902,46.94812],[6.87062,46.94582]]]}},{"type":"Feature","properties":{"id":"merdasson-ne","c":"NE","p":"patent","q":"derived","k":"river"},"geometry":{"type":"LineString","coordinates":[[6.8178,46.97396],[6.81897,46.97356],[6.81981,46.97251],[6.82187,46.97089],[6.82306,46.97044],[6.82379,46.9704],[6.82572,46.969],[6.82646,46.96893],[6.82821,46.96824],[6.82929,46.96831],[6.8305,46.96756],[6.83184,46.96752],[6.83296,46.96643],[6.83291,46.96588],[6.83401,46.96533],[6.83453,46.96474],[6.83596,46.96403],[6.83823,46.96242],[6.83916,46.96236],[6.84013,46.96177],[6.84098,46.96165],[6.84322,46.95853],[6.84365,46.95831],[6.84422,46.95757],[6.84503,46.9574],[6.84571,46.95614],[6.84738,46.95472],[6.84786,46.95392]]}},{"type":"Feature","properties":{"id":"seyon-ne","c":"NE","p":"patent","q":"derived","k":"river"},"geometry":{"type":"LineString","coordinates":[[6.97959,47.07189],[6.97517,47.07291],[6.97466,47.07332],[6.97144,47.07454],[6.968,47.07179],[6.94232,47.06091],[6.94197,47.061],[6.93821,47.05415],[6.93717,47.05264],[6.93725,47.05202],[6.93556,47.05036],[6.93457,47.04849],[6.93457,47.04695],[6.93353,47.04373],[6.93364,47.04249],[6.93391,47.04216],[6.93351,47.04155],[6.932,47.0408],[6.93023,47.04079],[6.92739,47.03893],[6.92683,47.03815],[6.9265,47.0381],[6.9261,47.03771],[6.92593,47.03723],[6.92515,47.03703],[6.92463,47.03588],[6.92356,47.03559],[6.92243,47.03441],[6.92203,47.03426],[6.92188,47.0337],[6.92038,47.03299],[6.91873,47.03294],[6.91755,47.03261],[6.91698,47.03152],[6.91571,47.03079],[6.91497,47.03007],[6.91478,47.02952],[6.91391,47.02922],[6.91394,47.02851],[6.91335,47.02816],[6.91363,47.02772],[6.91348,47.02706],[6.9121,47.02649],[6.91175,47.02607],[6.91228,47.02561],[6.91217,47.02512],[6.91147,47.02503],[6.9111,47.0248],[6.91122,47.0241],[6.91046,47.02336],[6.90938,47.02286],[6.90911,47.02213],[6.90962,47.01933],[6.90922,47.01887],[6.90902,47.01745],[6.90849,47.01647],[6.90778,47.01575],[6.90786,47.01481],[6.90766,47.01435],[6.90452,47.01331],[6.90447,47.01183],[6.90408,47.01054],[6.90203,47.00843],[6.90193,47.00673],[6.90245,47.00533],[6.90238,47.00456],[6.90297,47.00403],[6.90327,47.003],[6.90326,47.00079],[6.9052,46.99852],[6.90567,46.99689],[6.90704,46.99562],[6.90768,46.99451],[6.9081,46.99294],[6.90872,46.99194],[6.90837,46.99069],[6.90927,46.98943],[6.90977,46.98941],[6.91089,46.98987],[6.91223,46.98947],[6.91387,46.99017],[6.91926,46.99118],[6.92159,46.98917]]}},{"type":"Feature","properties":{"id":"grand-bied-ne","c":"NE","p":"patent","q":"derived","k":"river"},"geometry":{"type":"LineString","coordinates":[[6.82306,47.03408],[6.82235,47.03428],[6.82173,47.03479],[6.82127,47.03591],[6.82353,47.03831],[6.82405,47.03948],[6.82313,47.04015],[6.82083,47.04058],[6.81927,47.04137],[6.81776,47.04149],[6.81701,47.04137],[6.81461,47.04015],[6.81146,47.03792],[6.80815,47.03631],[6.80046,47.0313],[6.79995,47.0308],[6.79927,47.02952],[6.79678,47.02775],[6.79513,47.02684],[6.79098,47.0254],[6.78976,47.02474],[6.78633,47.02034],[6.78184,47.01849],[6.77849,47.01783],[6.77123,47.01279],[6.76241,47.00858],[6.76123,47.00732],[6.76039,47.00461],[6.75995,47.00413],[6.75919,47.00381],[6.75628,47.00356],[6.75511,47.00325],[6.75447,47.00268],[6.7541,47.00115],[6.75324,47.00013],[6.75104,46.99948],[6.75041,46.99857],[6.74977,46.99817],[6.74852,46.99802],[6.7475,46.99763],[6.74559,46.996],[6.74436,46.99601],[6.7441,46.99536],[6.74329,46.99493],[6.74352,46.994],[6.74289,46.99362],[6.74272,46.99328],[6.74272,46.99297],[6.74321,46.99272],[6.74323,46.99243],[6.74239,46.99218],[6.74178,46.99112],[6.74106,46.99082],[6.74117,46.99036],[6.74065,46.99013],[6.73958,46.98891],[6.73888,46.98854],[6.73908,46.98804],[6.73876,46.98792],[6.73875,46.98768],[6.73852,46.98785],[6.73825,46.9877],[6.73768,46.98785],[6.73706,46.98778],[6.73664,46.98814],[6.73694,46.98814],[6.73657,46.98882],[6.73669,46.98899],[6.73703,46.98894],[6.73706,46.98921],[6.73593,46.98946],[6.73588,46.98977],[6.73482,46.9898],[6.73406,46.9903],[6.73327,46.99011],[6.73252,46.99066],[6.73146,46.99053],[6.73111,46.99116],[6.73006,46.99142],[6.72975,46.99171],[6.72869,46.99186],[6.72843,46.99217],[6.72761,46.99217],[6.72749,46.99251],[6.7269,46.99216],[6.72627,46.99222],[6.72597,46.99238],[6.72617,46.993],[6.72591,46.99305],[6.72583,46.99336],[6.72512,46.99327],[6.72511,46.99299]]}},{"type":"Feature","properties":{"id":"sucre-ne","c":"NE","p":"patent","q":"derived","k":"river"},"geometry":{"type":"LineString","coordinates":[[6.59495,46.94201],[6.59546,46.94072],[6.59663,46.93966],[6.59755,46.93834],[6.59884,46.9371],[6.60063,46.93624],[6.60155,46.93626],[6.60168,46.93602],[6.60353,46.93545],[6.60524,46.9352],[6.60734,46.93544],[6.60751,46.93456],[6.60787,46.93414],[6.60843,46.93378],[6.60939,46.93383],[6.60947,46.93334],[6.60974,46.93321],[6.61257,46.93323],[6.61331,46.93351],[6.61527,46.93375],[6.61712,46.93367],[6.6195,46.93424],[6.62284,46.9345],[6.62474,46.93498],[6.62557,46.93489],[6.62605,46.93296],[6.6271,46.93187],[6.62781,46.93057],[6.629,46.93003],[6.62995,46.92913],[6.63067,46.92874],[6.63131,46.92794],[6.63167,46.92645],[6.63101,46.92545],[6.63128,46.92456],[6.63236,46.92374],[6.63422,46.92279]]}},{"type":"Feature","properties":{"id":"ruisseau-des-cambudes-ne","c":"NE","p":"patent","q":"derived","k":"river"},"geometry":{"type":"LineString","coordinates":[[6.64227,46.96001],[6.63876,46.95795],[6.63787,46.9572],[6.63418,46.95554],[6.63319,46.9548],[6.63124,46.95211],[6.6295,46.9511],[6.62891,46.94984],[6.62803,46.9492],[6.62791,46.94845],[6.62905,46.94754],[6.6299,46.94742],[6.63048,46.94759],[6.6318,46.94721],[6.63258,46.94582],[6.63338,46.94479],[6.63432,46.94423],[6.6347,46.94353],[6.63372,46.94279],[6.63322,46.94184],[6.63256,46.94147],[6.63002,46.93862],[6.62883,46.93647],[6.62785,46.93569],[6.62575,46.93475]]}},{"type":"Feature","properties":{"id":"bied-ne-2","c":"NE","p":"patent","q":"derived","k":"river"},"geometry":{"type":"MultiLineString","coordinates":[[[6.60895,46.8874],[6.60831,46.88795],[6.60762,46.88804],[6.60698,46.88841],[6.60614,46.88955],[6.60546,46.891],[6.60477,46.89141],[6.60351,46.89297],[6.60364,46.89366],[6.60326,46.89454],[6.60397,46.89513],[6.60662,46.89592],[6.60805,46.89614],[6.6095,46.89699],[6.61145,46.89775],[6.61231,46.89863],[6.61238,46.89946],[6.61288,46.89956],[6.61325,46.90022],[6.61507,46.90129],[6.6151,46.90152],[6.61651,46.90256],[6.61642,46.90342],[6.61717,46.90421],[6.61781,46.90549]],[[6.6175,46.9057],[6.617,46.90587],[6.61575,46.90757],[6.61493,46.90826],[6.61478,46.90932],[6.61285,46.91143],[6.6129,46.91235],[6.61194,46.91393],[6.61166,46.91506],[6.61174,46.91643],[6.61215,46.91768]]]}},{"type":"Feature","properties":{"id":"vivier-ne","c":"NE","p":"patent","q":"derived","k":"river"},"geometry":{"type":"LineString","coordinates":[[6.8433,46.95073],[6.84487,46.95175],[6.84678,46.95262],[6.84887,46.95282],[6.84991,46.95258],[6.85045,46.95214],[6.85046,46.95147],[6.85242,46.94887],[6.85343,46.94793],[6.85564,46.94722],[6.85627,46.94683],[6.85694,46.94597],[6.85787,46.94551],[6.85857,46.94567],[6.86114,46.94507],[6.86338,46.94325]]}}]}