{"type":"FeatureCollection","features":[{"type":"Feature","properties":{"id":"vierwaldstaettersee-nw","c":"NW","p":"patent","q":"derived","k":"lake"},"geometry":{"type":"MultiPolygon","coordinates":[[[[8.57419,46.98381],[8.57025,46.98279],[8.5686,46.98209],[8.56725,46.98126],[8.56546,46.98065],[8.564,46.98042],[8.56297,46.97959],[8.56108,46.97906],[8.56071,46.97861],[8.56038,46.97761],[8.56013,46.9775],[8.55991,46.97708],[8.55833,46.97637],[8.55739,46.97624],[8.5569,46.97596],[8.55642,46.97606],[8.55607,46.97592],[8.55413,46.97505],[8.55415,46.97461],[8.55395,46.97461],[8.55392,46.97496],[8.55335,46.97484],[8.55141,46.97387],[8.54994,46.97345],[8.54886,46.97294],[8.54841,46.97284],[8.54732,46.97292],[8.54624,46.97284],[8.54517,46.97252],[8.54459,46.97216],[8.54386,46.97222],[8.5429,46.97199],[8.54106,46.97175],[8.54024,46.97129],[8.53941,46.97118],[8.53877,46.97126],[8.53646,46.97091],[8.53477,46.97028],[8.53393,46.97039],[8.53209,46.96979],[8.53113,46.96985],[8.53023,46.96956],[8.52884,46.96947],[8.52753,46.96909],[8.5272,46.96913],[8.52455,46.96828],[8.52463,46.96812],[8.52433,46.96805],[8.52428,46.96818],[8.52396,46.96821],[8.51864,46.9659],[8.51542,46.9648],[8.51382,46.9641],[8.51227,46.96375],[8.51152,46.96376],[8.51082,46.96363],[8.51012,46.96368],[8.50832,46.96318],[8.50752,46.96316],[8.50754,46.96276],[8.5073,46.96267],[8.50738,46.96255],[8.50791,46.96261],[8.50808,46.96252],[8.5077,46.96233],[8.50721,46.96239],[8.5071,46.96263],[8.50701,46.96259],[8.50703,46.96299],[8.50619,46.96285],[8.50623,46.96272],[8.5053,46.96273],[8.50529,46.96256],[8.50459,46.96251],[8.50453,46.96276],[8.50351,46.96261],[8.5034,46.96244],[8.50337,46.9626],[8.50237,46.96236],[8.50091,46.96253],[8.50087,46.96231],[8.50072,46.96232],[8.50073,46.96251],[8.49986,46.96248],[8.49932,46.9624],[8.49905,46.96221],[8.49848,46.96231],[8.49693,46.96213],[8.49661,46.96222],[8.49599,46.96204],[8.49403,46.96227],[8.49339,46.96269],[8.49164,46.96299],[8.49163,46.96312],[8.49123,46.96312],[8.4911,46.96287],[8.49083,46.96284],[8.48979,46.96289],[8.48975,46.96279],[8.48967,46.96291],[8.48917,46.96283],[8.48827,46.9631],[8.4859,46.96341],[8.4855,46.96366],[8.48518,46.96363],[8.48364,46.96416],[8.48308,46.96404],[8.48116,46.96427],[8.47963,46.96402],[8.47963,46.96419],[8.47937,46.96418],[8.47936,46.96403],[8.47928,46.96419],[8.47777,46.96448],[8.47733,46.9652],[8.47699,46.96529],[8.47716,46.96546],[8.47662,46.96579],[8.47637,46.96628],[8.47578,46.96671],[8.47554,46.96667],[8.47574,46.96686],[8.47424,46.96802],[8.47323,46.96855],[8.47268,46.969],[8.47252,46.96896],[8.47263,46.96907],[8.47214,46.96931],[8.47185,46.96925],[8.47117,46.96986],[8.47026,46.97021],[8.47031,46.9703],[8.46932,46.97092],[8.46832,46.97081],[8.46796,46.9711],[8.46735,46.97134],[8.46733,46.97148],[8.46656,46.97176],[8.46643,46.97192],[8.46608,46.97196],[8.46602,46.9721],[8.46463,46.97144],[8.46394,46.97161],[8.46352,46.97157],[8.4627,46.97181],[8.46247,46.97169],[8.46218,46.9718],[8.46215,46.97171],[8.46137,46.97183],[8.46135,46.97173],[8.46117,46.97175],[8.46117,46.97193],[8.4606,46.97189],[8.4606,46.97198],[8.45922,46.97207],[8.45713,46.97159],[8.45718,46.97146],[8.45639,46.97161],[8.45494,46.97127],[8.45494,46.97115],[8.45463,46.97131],[8.45463,46.97109],[8.45437,46.9711],[8.45438,46.97132],[8.45243,46.97141],[8.45233,46.9711],[8.45207,46.97114],[8.45213,46.97144],[8.44891,46.97177],[8.44886,46.97157],[8.44836,46.9717],[8.44828,46.97189],[8.44602,46.97249],[8.44554,46.97283],[8.44556,46.97317],[8.44517,46.97343],[8.44296,46.97405],[8.44275,46.97397],[8.44161,46.97454],[8.44092,46.97472],[8.43934,46.97477],[8.43934,46.97488],[8.43784,46.975],[8.43547,46.97497],[8.4338,46.97515],[8.43148,46.97446],[8.42936,46.97473],[8.42936,46.97482],[8.42888,46.9748],[8.42889,46.97489],[8.42704,46.97502],[8.42637,46.97524],[8.42647,46.97538],[8.42628,46.97543],[8.42616,46.97526],[8.42599,46.9753],[8.42603,46.97539],[8.42513,46.97595],[8.42445,46.97676],[8.42423,46.9773],[8.42405,46.97735],[8.42459,46.97776],[8.42446,46.97785],[8.42467,46.97784],[8.42555,46.97849],[8.42553,46.9788],[8.42516,46.97901],[8.42451,46.97913],[8.42453,46.97889],[8.42394,46.97878],[8.42379,46.97898],[8.42286,46.97886],[8.4211,46.9794],[8.42119,46.97977],[8.42087,46.97969],[8.42054,46.97985],[8.42031,46.97969],[8.4202,46.97976],[8.41948,46.97925],[8.41953,46.97915],[8.41912,46.97932],[8.41927,46.9793],[8.42008,46.97985],[8.42,46.97993],[8.42033,46.98003],[8.42046,46.98031],[8.42036,46.98038],[8.41999,46.98017],[8.4193,46.98066],[8.41936,46.98084],[8.41872,46.98099],[8.41818,46.98131],[8.41745,46.98226],[8.41755,46.9826],[8.41737,46.98309],[8.41749,46.98367],[8.41763,46.98366],[8.41752,46.98379],[8.41761,46.98422],[8.41775,46.98422],[8.41763,46.98434],[8.41792,46.98566],[8.41828,46.98578],[8.41834,46.98599],[8.41815,46.98648],[8.41832,46.98706],[8.41881,46.98698],[8.41873,46.9872],[8.41884,46.98723],[8.419,46.98702],[8.41919,46.98705],[8.41926,46.98725],[8.41975,46.98743],[8.42191,46.98792],[8.42187,46.98799],[8.42239,46.98806],[8.42455,46.9888],[8.42508,46.98887],[8.42702,46.98989],[8.42727,46.98984],[8.42779,46.99001],[8.42879,46.9905],[8.43541,46.992],[8.43748,46.99296],[8.43862,46.99332],[8.43923,46.99333],[8.43948,46.99362],[8.44405,46.9942],[8.44458,46.99435],[8.4459,46.99433],[8.44652,46.99465],[8.44761,46.99486],[8.44879,46.99491],[8.45154,46.99457],[8.4523,46.99465],[8.45253,46.99484],[8.45305,46.9949],[8.45481,46.99449],[8.45663,46.99486],[8.45711,46.99481],[8.45841,46.99532],[8.45913,46.99536],[8.45969,46.99571],[8.45962,46.99599],[8.46014,46.99653],[8.46041,46.99651],[8.46182,46.9971],[8.46205,46.99705],[8.46261,46.99722],[8.463,46.99774],[8.46276,46.99805],[8.46235,46.99819],[8.46236,46.99851],[8.46191,46.99892],[8.45799,47.00042],[8.45755,47.00038],[8.45615,47.00071],[8.45255,47.00127],[8.45151,47.00129],[8.45059,47.00155],[8.44944,47.00148],[8.44658,47.00185],[8.44603,47.00174],[8.44562,47.00186],[8.44545,47.00182],[8.4452,47.00121],[8.44381,47.00072],[8.4435,47.00046],[8.44254,47.00084],[8.44153,47.00084],[8.4409,47.00059],[8.43968,47.00104],[8.43909,47.00101],[8.43541,47.00142],[8.43443,47.00189],[8.43452,47.00218],[8.43412,47.00225],[8.43289,47.00222],[8.43076,47.00253],[8.42979,47.00203],[8.42812,47.00192],[8.42678,47.00223],[8.42799,47.01721],[8.46907,47.00929],[8.46817,46.99652],[8.46524,46.98427],[8.49663,46.97643],[8.51937,46.97981],[8.5427,46.97959],[8.57105,46.99016],[8.57419,46.98381]]],[[[8.38456,47.0028],[8.38452,47.00292],[8.38296,47.0029],[8.38251,47.00301],[8.38251,47.0031],[8.38223,47.00309],[8.38222,47.00299],[8.38073,47.00289],[8.37571,47.0029],[8.36992,47.00356],[8.36848,47.00354],[8.36837,47.0034],[8.3682,47.00351],[8.36799,47.00342],[8.36652,47.00163],[8.36587,47.0004],[8.36472,46.99943],[8.36455,46.99942],[8.3643,46.99822],[8.36392,46.99744],[8.36341,46.99696],[8.36227,46.996],[8.36105,46.99535],[8.35991,46.99452],[8.35549,46.99304],[8.35532,46.99287],[8.35525,46.99193],[8.35466,46.99114],[8.35386,46.99059],[8.35339,46.98999],[8.35189,46.98926],[8.35112,46.98824],[8.35156,46.98736],[8.35174,46.98655],[8.35161,46.98582],[8.35132,46.98552],[8.34979,46.98518],[8.34937,46.98519],[8.3491,46.98504],[8.34852,46.98457],[8.34814,46.98342],[8.34655,46.98291],[8.34621,46.9821],[8.34553,46.9821],[8.34516,46.98243],[8.34412,46.98237],[8.34282,46.98213],[8.34203,46.98154],[8.34197,46.98117],[8.34164,46.98102],[8.34158,46.98114],[8.34133,46.98108],[8.34109,46.9814],[8.34037,46.98121],[8.34035,46.98107],[8.33997,46.98092],[8.33946,46.98096],[8.33915,46.98114],[8.33939,46.98088],[8.33894,46.9807],[8.33823,46.98088],[8.33819,46.98116],[8.33819,46.98049],[8.33796,46.98058],[8.338,46.9809],[8.33777,46.98101],[8.33759,46.98091],[8.33768,46.98073],[8.33736,46.98073],[8.33734,46.98051],[8.3367,46.98051],[8.33657,46.98059],[8.3367,46.98084],[8.33652,46.98087],[8.33588,46.98046],[8.33657,46.97973],[8.33434,46.979],[8.33407,46.97938],[8.33417,46.97985],[8.33346,46.97945],[8.33361,46.97899],[8.33338,46.97899],[8.33325,46.9794],[8.33299,46.97925],[8.3328,46.97891],[8.33269,46.9766],[8.33389,46.97626],[8.33477,46.97587],[8.33646,46.97464],[8.3369,46.97404],[8.3375,46.972],[8.33722,46.97193],[8.33708,46.97155],[8.33619,46.97049],[8.33573,46.97025],[8.33574,46.97013],[8.33614,46.97008],[8.33601,46.96976],[8.33547,46.96949],[8.33513,46.96908],[8.33449,46.96893],[8.33413,46.96869],[8.33411,46.96839],[8.33383,46.96815],[8.33383,46.96771],[8.33327,46.96767],[8.33321,46.96736],[8.33258,46.96777],[8.3317,46.9674],[8.33193,46.9669],[8.33167,46.9668],[8.33141,46.96704],[8.33122,46.96704],[8.33087,46.96665],[8.33066,46.96674],[8.33027,46.96663],[8.33027,46.96639],[8.32927,46.96607],[8.32915,46.96573],[8.32929,46.96563],[8.32901,46.96558],[8.32881,46.96534],[8.32877,46.96499],[8.32858,46.96507],[8.32793,46.96462],[8.32653,46.96429],[8.32465,46.96332],[8.32302,46.96275],[8.32189,46.96269],[8.32071,46.96245],[8.31982,46.96167],[8.31826,46.9609],[8.31583,46.96021],[8.31516,46.95976],[8.31277,46.95921],[8.31254,46.95885],[8.31189,46.95858],[8.31146,46.95813],[8.31085,46.95795],[8.30803,46.95665],[8.30655,46.95582],[8.30618,46.95574],[8.31097,46.96895],[8.31212,46.96872],[8.31638,46.96957],[8.31861,46.97022],[8.32148,46.97131],[8.3246,46.97194],[8.32599,46.97234],[8.32829,46.97317],[8.33022,46.97371],[8.33086,46.97409],[8.33115,46.97506],[8.33101,46.97755],[8.33131,46.97773],[8.33145,46.9782],[8.33119,46.97912],[8.33094,46.97933],[8.32854,46.98015],[8.32787,46.98026],[8.32668,46.98016],[8.32572,46.97963],[8.32464,46.97926],[8.32206,46.97897],[8.31926,46.97918],[8.31716,46.97915],[8.31495,46.97925],[8.3143,46.9794],[8.31265,46.97939],[8.31225,46.97957],[8.31212,46.97996],[8.31236,46.98027],[8.31202,46.98079],[8.3119,46.98155],[8.31234,46.98234],[8.31237,46.98439],[8.31269,46.98579],[8.31266,46.98652],[8.31361,46.98733],[8.31356,46.98747],[8.31473,46.98876],[8.31685,46.98977],[8.31605,46.99083],[8.31589,46.99158],[8.31607,46.99187],[8.31559,46.99277],[8.31573,46.99339],[8.31514,46.99374],[8.31511,46.99397],[8.31494,46.99401],[8.31456,46.99485],[8.31472,46.99546],[8.31362,46.996],[8.31309,46.99688],[8.31317,46.99741],[8.3125,46.99799],[8.31252,46.99839],[8.31885,46.99957],[8.33446,46.98901],[8.36851,47.01995],[8.3838,47.01772],[8.38471,47.00292],[8.38456,47.0028]],[[8.33462,46.97989],[8.33588,46.9803],[8.33585,46.98036],[8.33463,46.97998],[8.33462,46.97989]]]]}},{"type":"Feature","properties":{"id":"bannalpsee-nw","c":"NW","p":"patent","q":"derived","k":"lake"},"geometry":{"type":"Polygon","coordinates":[[[8.4343,46.86874],[8.43476,46.86857],[8.43476,46.86836],[8.43433,46.86819],[8.4334,46.86817],[8.43331,46.86749],[8.43175,46.86615],[8.43136,46.86604],[8.43031,46.86622],[8.42956,46.86665],[8.42704,46.86737],[8.4257,46.86846],[8.425,46.86881],[8.4269,46.86998],[8.42756,46.86943],[8.42797,46.8693],[8.42903,46.86927],[8.43149,46.86889],[8.4343,46.86874]]]}},{"type":"Feature","properties":{"id":"truebsee-nw","c":"NW","p":"patent","q":"derived","k":"lake"},"geometry":{"type":"Polygon","coordinates":[[[8.38795,46.79371],[8.38666,46.79415],[8.38657,46.79423],[8.38683,46.79441],[8.38725,46.79444],[8.38733,46.79455],[8.38651,46.79491],[8.38612,46.79526],[8.38595,46.79517],[8.38592,46.79578],[8.38529,46.79614],[8.38499,46.79648],[8.38518,46.79678],[8.38597,46.79707],[8.38756,46.79716],[8.38772,46.79702],[8.38814,46.797],[8.38845,46.79677],[8.38941,46.79675],[8.39083,46.79651],[8.39079,46.79635],[8.39053,46.79622],[8.39024,46.79625],[8.38982,46.79587],[8.39039,46.79594],[8.39051,46.79583],[8.39129,46.79575],[8.39219,46.79586],[8.39227,46.79568],[8.39198,46.7957],[8.39168,46.79555],[8.39166,46.79529],[8.39124,46.79511],[8.39124,46.79501],[8.39164,46.79495],[8.39204,46.79466],[8.3924,46.79495],[8.39256,46.79491],[8.39231,46.79457],[8.3932,46.79442],[8.39324,46.79415],[8.39393,46.79348],[8.39401,46.79324],[8.39453,46.7928],[8.39516,46.79265],[8.39534,46.79245],[8.395,46.79218],[8.39231,46.79129],[8.39286,46.79091],[8.39215,46.7911],[8.3914,46.79036],[8.39023,46.79026],[8.38955,46.791],[8.39004,46.79185],[8.38999,46.79203],[8.38892,46.79311],[8.38795,46.79371]]]}},{"type":"Feature","properties":{"id":"rotihaltengrabenbach-nw","c":"NW","p":"patent","q":"derived","k":"river"},"geometry":{"type":"LineString","coordinates":[[8.33904,46.87048],[8.34134,46.87119],[8.34188,46.87158],[8.34296,46.87333],[8.34317,46.87456],[8.34395,46.87539],[8.3476,46.8776],[8.34877,46.87809],[8.34952,46.87788],[8.35019,46.87795],[8.35068,46.87832],[8.35417,46.87814],[8.35492,46.87794],[8.35623,46.87787],[8.35699,46.87759],[8.36,46.87783],[8.36132,46.87748],[8.36317,46.87746],[8.3638,46.87754],[8.36476,46.87797],[8.36612,46.87786],[8.36726,46.87736],[8.36933,46.87713],[8.37159,46.87659],[8.37203,46.87628],[8.37239,46.87531],[8.37335,46.87452]]}},{"type":"Feature","properties":{"id":"luterseebach-nw","c":"NW","p":"patent","q":"derived","k":"river"},"geometry":{"type":"LineString","coordinates":[[8.33738,46.85045],[8.33915,46.84903],[8.34017,46.84868],[8.34197,46.84907],[8.34362,46.85009],[8.34593,46.84982],[8.34733,46.84944],[8.34896,46.84944],[8.35024,46.84961],[8.3511,46.85004],[8.35274,46.85021],[8.35416,46.85068],[8.35665,46.85089],[8.35803,46.85132],[8.35869,46.8524],[8.35958,46.85322],[8.35966,46.85455],[8.36074,46.85529],[8.36085,46.85657],[8.36343,46.85685],[8.36483,46.85587],[8.36593,46.85557],[8.36701,46.85658],[8.36778,46.85654],[8.36869,46.85686],[8.36948,46.85684],[8.37088,46.85765]]}},{"type":"Feature","properties":{"id":"muelibach-stansstad-nw","c":"NW","p":"patent","q":"derived","k":"river"},"geometry":{"type":"LineString","coordinates":[[8.38018,46.97195],[8.37793,46.97466],[8.36448,46.96939],[8.36337,46.9692],[8.36152,46.96823],[8.35764,46.96785],[8.35626,46.96836],[8.35499,46.96968],[8.35094,46.97123],[8.34946,46.97154],[8.34907,46.97279],[8.3461,46.97419],[8.34439,46.97433],[8.34378,46.97511],[8.34294,46.97525],[8.34228,46.97596],[8.34166,46.97603],[8.33921,46.97819],[8.33907,46.97847],[8.33941,46.97911],[8.33863,46.97937],[8.33837,46.98015]]}},{"type":"Feature","properties":{"id":"muelibach-hergiswil-nw","c":"NW","p":"patent","q":"derived","k":"river"},"geometry":{"type":"LineString","coordinates":[[8.27112,46.9823],[8.27206,46.98272],[8.27554,46.98302],[8.27695,46.98368],[8.27814,46.9839],[8.28271,46.98555],[8.28439,46.98515],[8.28567,46.98533],[8.28616,46.98492],[8.28732,46.98482],[8.28876,46.98568],[8.29052,46.98638],[8.29166,46.98665],[8.29275,46.98668],[8.29518,46.9864],[8.29668,46.98603],[8.29792,46.98608],[8.29819,46.98587],[8.29876,46.9858],[8.29928,46.9859],[8.30044,46.98543],[8.30089,46.98542],[8.30116,46.98505],[8.30106,46.98475],[8.30153,46.98448],[8.30287,46.9841],[8.30377,46.9836],[8.30657,46.98294],[8.30702,46.98248],[8.30773,46.98095],[8.30802,46.98078],[8.31144,46.98106]]}},{"type":"Feature","properties":{"id":"steinibach-nw","c":"NW","p":"patent","q":"derived","k":"river"},"geometry":{"type":"LineString","coordinates":[[8.34789,46.89623],[8.34849,46.89775],[8.34847,46.8989],[8.34881,46.89933],[8.34817,46.90001],[8.34826,46.90054],[8.34796,46.90105],[8.34841,46.90249],[8.34997,46.90352],[8.35004,46.9039],[8.34981,46.90392],[8.35035,46.90404],[8.35046,46.90442],[8.35094,46.90467],[8.3511,46.90504],[8.3514,46.90507],[8.35167,46.90572],[8.35201,46.90585],[8.35225,46.9067],[8.35258,46.90692],[8.35247,46.90724],[8.35386,46.90777],[8.35455,46.90854],[8.35599,46.90949],[8.35622,46.90947],[8.35704,46.91054],[8.35768,46.91087],[8.35814,46.91162],[8.36017,46.91279],[8.36063,46.914],[8.36117,46.91472],[8.3605,46.9158],[8.36091,46.91649],[8.36073,46.91718],[8.36219,46.91746],[8.3636,46.91863],[8.36408,46.9186],[8.36458,46.91891],[8.3668,46.91945],[8.36717,46.91983],[8.36844,46.92035],[8.36875,46.92058],[8.36891,46.92121],[8.36803,46.92181],[8.36814,46.92222],[8.3698,46.92284],[8.37189,46.92292],[8.37239,46.92312],[8.37414,46.92327],[8.37496,46.92385],[8.37635,46.92392],[8.37727,46.92358],[8.37812,46.92389],[8.37965,46.92369],[8.38098,46.92416],[8.38198,46.92414],[8.38287,46.92452],[8.38385,46.92454],[8.38459,46.92477],[8.38805,46.92489],[8.38893,46.92523],[8.39059,46.92553],[8.39187,46.92615],[8.39333,46.92637],[8.39442,46.92676],[8.39509,46.92706],[8.39563,46.92789]]}},{"type":"Feature","properties":{"id":"engelberger-aa-nw","c":"NW","p":"patent","q":"derived","k":"river"},"geometry":{"type":"MultiLineString","coordinates":[[[8.36936,46.86764],[8.36935,46.86968],[8.37035,46.87191]],[[8.37002,46.84544],[8.36915,46.84619]],[[8.37344,46.87448],[8.37417,46.87522],[8.3763,46.88006],[8.37923,46.8837],[8.38058,46.88616],[8.38163,46.88871],[8.38669,46.89525],[8.38885,46.89711],[8.39126,46.89975],[8.39164,46.90196],[8.39353,46.90549],[8.39429,46.90744],[8.39449,46.91151],[8.39433,46.9142],[8.39473,46.91653],[8.39463,46.91865],[8.39484,46.91947],[8.39608,46.92132],[8.39702,46.92348],[8.39704,46.92452],[8.39627,46.92609],[8.39608,46.92763],[8.39458,46.92888],[8.3934,46.92946],[8.39282,46.93039],[8.39267,46.93101],[8.39292,46.93215],[8.39407,46.93431],[8.39369,46.93866],[8.393,46.94017],[8.39046,46.94913],[8.38903,46.9523],[8.38937,46.95714],[8.38902,46.95878],[8.38866,46.95978],[8.38777,46.9609],[8.38638,46.96409],[8.38683,46.96469],[8.38787,46.96525],[8.39381,46.96671],[8.39791,46.96812],[8.40167,46.97016],[8.40659,46.97332],[8.41344,46.97684],[8.41538,46.97727],[8.4185,46.97723],[8.41988,46.97737],[8.42376,46.97845]]]}},{"type":"Feature","properties":{"id":"lielibach-nw","c":"NW","p":"patent","q":"derived","k":"river"},"geometry":{"type":"LineString","coordinates":[[8.47496,46.92808],[8.47168,46.92811],[8.46804,46.92779],[8.46688,46.92811],[8.4653,46.92818],[8.46486,46.92848],[8.46439,46.92849],[8.464,46.92876],[8.46402,46.92911],[8.46316,46.92931],[8.46244,46.93025],[8.4596,46.93157],[8.45892,46.93281],[8.45815,46.93327],[8.45758,46.93426],[8.45687,46.93452],[8.45685,46.9349],[8.45632,46.93517],[8.45637,46.93649],[8.45564,46.93709],[8.45568,46.93759],[8.45617,46.93791],[8.45618,46.93835],[8.45722,46.93857],[8.45714,46.93921],[8.4575,46.93993],[8.45814,46.94018],[8.45811,46.94091],[8.45844,46.94152],[8.45932,46.94203],[8.45903,46.94234],[8.4599,46.94263],[8.46009,46.94325],[8.4609,46.94398],[8.46072,46.94511],[8.4611,46.94637],[8.46089,46.94712],[8.46145,46.94786],[8.4624,46.95126],[8.46316,46.95197],[8.46327,46.95242],[8.4628,46.95449],[8.4621,46.95561],[8.46132,46.95612],[8.46132,46.95816],[8.46287,46.95993],[8.46272,46.96066],[8.46298,46.96114],[8.4642,46.96166],[8.46516,46.96287],[8.46538,46.96418],[8.46529,46.96749],[8.4661,46.97159]]}},{"type":"Feature","properties":{"id":"secklisbach-nw","c":"NW","p":"patent","q":"derived","k":"river"},"geometry":{"type":"MultiLineString","coordinates":[[[8.40753,46.89364],[8.40556,46.8946],[8.40376,46.89514],[8.40282,46.89612],[8.40162,46.89608],[8.40061,46.8964],[8.39924,46.89649],[8.39848,46.89697],[8.39694,46.89723],[8.39147,46.90098]],[[8.42633,46.87011],[8.42479,46.87002],[8.42395,46.87146],[8.42327,46.87209],[8.42171,46.87296],[8.42089,46.87437],[8.42014,46.87471],[8.4199,46.87613],[8.42008,46.87832],[8.42076,46.87923],[8.42057,46.88004],[8.42078,46.88055],[8.42019,46.88095],[8.4202,46.88214],[8.4179,46.88326],[8.41755,46.88406],[8.41764,46.88463],[8.41716,46.88466],[8.41657,46.88508],[8.4167,46.88578],[8.41507,46.88704],[8.41423,46.8899],[8.41358,46.89028],[8.41275,46.89036],[8.41167,46.89127],[8.41085,46.89156],[8.40987,46.89298]],[[8.45637,46.86985],[8.4531,46.86918],[8.45056,46.86898],[8.44992,46.86911],[8.44901,46.86878],[8.44727,46.86914],[8.44435,46.86852],[8.44237,46.86867],[8.4422,46.86882],[8.44164,46.86859],[8.44117,46.86902],[8.4398,46.86972],[8.43943,46.86975],[8.43716,46.86907],[8.43666,46.86862],[8.43532,46.86859]]]}},{"type":"Feature","properties":{"id":"arnibach-nw","c":"NW","p":"patent","q":"derived","k":"river"},"geometry":{"type":"MultiLineString","coordinates":[[[8.33409,46.81986],[8.33643,46.81971],[8.33951,46.81915],[8.34023,46.81885],[8.3418,46.81773],[8.34228,46.81764]],[[8.35233,46.81818],[8.35274,46.81838],[8.35295,46.81824],[8.35561,46.81938],[8.35641,46.81935],[8.35713,46.81963],[8.35818,46.81969],[8.3597,46.82013],[8.36104,46.8203],[8.36234,46.82023],[8.36318,46.81989],[8.36384,46.8193],[8.36506,46.81935],[8.366,46.81913],[8.3666,46.81956],[8.36746,46.81983],[8.36808,46.81961],[8.36949,46.81966],[8.371,46.81899],[8.37252,46.81888],[8.37378,46.81901],[8.37548,46.82001]],[[8.37724,46.82187],[8.37734,46.82215],[8.37709,46.8226],[8.37759,46.82335],[8.37714,46.8238],[8.37686,46.82522],[8.37641,46.82594],[8.37678,46.82714]]]}},{"type":"Feature","properties":{"id":"truebenbach-nw","c":"NW","p":"patent","q":"derived","k":"river"},"geometry":{"type":"LineString","coordinates":[[8.38514,46.79229],[8.38311,46.79286],[8.38256,46.79359],[8.38074,46.79435],[8.38023,46.79434],[8.38013,46.79475],[8.3792,46.79525],[8.37764,46.79551],[8.37726,46.79587],[8.37572,46.79621],[8.37528,46.79656],[8.3742,46.79679],[8.37332,46.79726],[8.37114,46.79667],[8.37028,46.79732],[8.36934,46.79765],[8.36913,46.79788],[8.3693,46.79843],[8.36841,46.79892],[8.3684,46.79962],[8.36939,46.80069],[8.36904,46.80258],[8.36837,46.80335],[8.36876,46.80393],[8.36908,46.80532],[8.36864,46.80627],[8.36868,46.80767],[8.36982,46.80869],[8.37029,46.81001],[8.37029,46.811],[8.37072,46.81148],[8.3708,46.81191],[8.37171,46.81251],[8.37277,46.81441],[8.37288,46.81522],[8.37389,46.81626]]}},{"type":"Feature","properties":{"id":"kernalpbach-nw","c":"NW","p":"patent","q":"derived","k":"river"},"geometry":{"type":"LineString","coordinates":[[8.33467,46.87595],[8.33511,46.87694],[8.33646,46.8778],[8.33709,46.87876],[8.33748,46.87882],[8.33824,46.88034],[8.33925,46.88159],[8.33947,46.88224],[8.33995,46.88248],[8.33984,46.88285],[8.34037,46.88313],[8.34046,46.88346],[8.34254,46.8844],[8.34408,46.88567],[8.3445,46.8858],[8.34506,46.88571],[8.34554,46.8859],[8.34547,46.88643],[8.34639,46.88667],[8.34663,46.88717],[8.34811,46.8875],[8.35016,46.88833],[8.35067,46.8888],[8.3514,46.88889],[8.35257,46.88982],[8.3531,46.88967],[8.35368,46.89003],[8.3546,46.88997],[8.35548,46.89051],[8.35595,46.89121],[8.35693,46.89177],[8.35721,46.89214],[8.35957,46.89297],[8.36181,46.89332],[8.36272,46.89329],[8.36319,46.89381],[8.36403,46.89381],[8.36468,46.89418],[8.36588,46.8941],[8.36645,46.89436],[8.36736,46.89437],[8.36838,46.89462],[8.37054,46.89445],[8.372,46.89384],[8.37278,46.8933],[8.37434,46.89133],[8.37544,46.89096],[8.37747,46.88978],[8.37812,46.88982],[8.37875,46.89012],[8.37991,46.88924],[8.3807,46.88922],[8.38159,46.88885]]}},{"type":"Feature","properties":{"id":"sinsgaeubach-nw","c":"NW","p":"patent","q":"derived","k":"river"},"geometry":{"type":"LineString","coordinates":[[8.46858,46.88623],[8.46553,46.88557],[8.464,46.88543],[8.46346,46.88512],[8.46103,46.88478],[8.45875,46.88413],[8.45756,46.88423],[8.45657,46.88462],[8.45569,46.88463],[8.4553,46.8845],[8.45515,46.88389],[8.45475,46.88357],[8.45431,46.88381],[8.45281,46.88368],[8.45205,46.88331],[8.45146,46.88329],[8.45056,46.88268],[8.44991,46.88253],[8.44907,46.88328],[8.4471,46.88312],[8.44607,46.88344],[8.44528,46.88392],[8.44449,46.88385],[8.4441,46.88359],[8.44287,46.8833],[8.44221,46.88329],[8.44154,46.88334],[8.44081,46.88365],[8.43699,46.88413],[8.43656,46.88397],[8.43503,46.8826],[8.43408,46.8824],[8.43101,46.88218],[8.43043,46.88195],[8.42631,46.88133],[8.42485,46.88149],[8.42246,46.88114],[8.42188,46.88142],[8.42013,46.88161]]}},{"type":"Feature","properties":{"id":"steinibach-hergiswil-nw","c":"NW","p":"patent","q":"derived","k":"river"},"geometry":{"type":"LineString","coordinates":[[8.26184,46.98979],[8.26321,46.98835],[8.26484,46.98815],[8.26723,46.9884],[8.26777,46.9881],[8.26909,46.9881],[8.26995,46.98856],[8.27142,46.98864],[8.27234,46.98912],[8.27605,46.99],[8.27974,46.98865],[8.28113,46.98867],[8.28183,46.98884],[8.28266,46.98861],[8.28396,46.98877],[8.28465,46.98865],[8.28567,46.98807],[8.28622,46.98797],[8.28742,46.98802],[8.28853,46.98847],[8.29026,46.98848],[8.29167,46.98796],[8.29642,46.98739],[8.3005,46.98764],[8.30089,46.98707],[8.30173,46.98681],[8.30428,46.98807],[8.30464,46.98864],[8.30581,46.98954],[8.30595,46.99018],[8.3066,46.99043],[8.31123,46.99102],[8.31617,46.98989]]}},{"type":"Feature","properties":{"id":"melbach-nw","c":"NW","p":"patent","q":"derived","k":"river"},"geometry":{"type":"LineString","coordinates":[[8.30956,46.92434],[8.3084,46.92543],[8.30525,46.92624],[8.30469,46.92677],[8.3023,46.92791],[8.30071,46.92897],[8.30073,46.92951],[8.30109,46.92994],[8.30257,46.93008],[8.30447,46.93165],[8.30541,46.93264],[8.30537,46.93302],[8.30588,46.93397],[8.30656,46.93481],[8.30956,46.93517],[8.31343,46.93671],[8.31427,46.93726],[8.31582,46.93877],[8.31862,46.94417],[8.33204,46.95786],[8.3333,46.95956],[8.33255,46.96057],[8.33244,46.96172],[8.33157,46.96331],[8.33138,46.96503],[8.32982,46.96587]]}},{"type":"Feature","properties":{"id":"buoholzbach-nw","c":"NW","p":"patent","q":"derived","k":"river"},"geometry":{"type":"LineString","coordinates":[[8.46774,46.9193],[8.46595,46.9198],[8.46226,46.92046],[8.46133,46.92099],[8.46008,46.92109],[8.45861,46.92154],[8.45525,46.92138],[8.45408,46.92115],[8.45356,46.92176],[8.4532,46.92188],[8.45308,46.92233],[8.45237,46.92241],[8.45206,46.92274],[8.45075,46.92306],[8.44922,46.9229],[8.44893,46.92266],[8.4475,46.92279],[8.44667,46.92254],[8.44638,46.92227],[8.44381,46.92232],[8.44303,46.92151],[8.44237,46.92132],[8.44173,46.92037],[8.44045,46.91985],[8.43941,46.91981],[8.43712,46.9205],[8.43571,46.92031],[8.43498,46.91995],[8.43313,46.92033],[8.43206,46.92011],[8.43132,46.92045],[8.42764,46.9214],[8.42726,46.92178],[8.42586,46.92145],[8.42309,46.92275],[8.42019,46.9237],[8.41902,46.9245],[8.41859,46.92521],[8.41853,46.92592],[8.41771,46.92678],[8.41652,46.92751],[8.41487,46.92788],[8.41248,46.92873],[8.4116,46.92886],[8.4112,46.92859],[8.41015,46.92907],[8.4081,46.92955],[8.40732,46.92995],[8.40328,46.9304],[8.40135,46.9305],[8.39874,46.93015],[8.39679,46.93047],[8.39511,46.9305],[8.39378,46.93098],[8.39281,46.93162]]}},{"type":"Feature","properties":{"id":"traeschlibach-nw","c":"NW","p":"patent","q":"derived","k":"river"},"geometry":{"type":"MultiLineString","coordinates":[[[8.4395,46.94058],[8.43991,46.94098],[8.43979,46.94151],[8.4406,46.94377],[8.44115,46.9439],[8.44132,46.94452],[8.44171,46.94494],[8.44315,46.94557],[8.44394,46.94569],[8.44487,46.94724],[8.44703,46.94846],[8.44705,46.94942],[8.44772,46.95012],[8.44812,46.95154],[8.44874,46.95262],[8.4493,46.95298],[8.44951,46.95346],[8.45122,46.95408],[8.45127,46.95455]],[[8.45134,46.955],[8.45263,46.95652],[8.45229,46.95747],[8.45238,46.95791],[8.45442,46.95976],[8.45495,46.96202],[8.45573,46.96292],[8.45515,46.96357],[8.4551,46.96393],[8.45557,46.9646],[8.45573,46.96571],[8.45696,46.9681],[8.45653,46.97124]]]}},{"type":"Feature","properties":{"id":"choltalbach-nw","c":"NW","p":"patent","q":"derived","k":"river"},"geometry":{"type":"LineString","coordinates":[[8.51223,46.93428],[8.51265,46.93505],[8.51327,46.93551],[8.51328,46.93615],[8.51431,46.93639],[8.51453,46.93715],[8.51542,46.93796],[8.5153,46.93863],[8.51556,46.93944],[8.51596,46.93982],[8.5155,46.94134],[8.51677,46.94244],[8.51708,46.94451],[8.51773,46.94554],[8.51832,46.94598],[8.51883,46.94706],[8.51946,46.94755],[8.51998,46.94887],[8.52058,46.94942],[8.52065,46.95022],[8.52264,46.95186],[8.52394,46.95245],[8.52457,46.95305],[8.52527,46.95447],[8.52487,46.95567],[8.52466,46.95756],[8.52524,46.95837],[8.52596,46.9586],[8.52616,46.95924],[8.5268,46.95963],[8.52677,46.96023],[8.52716,46.96038],[8.52715,46.96129],[8.52744,46.96188],[8.52684,46.96275],[8.52683,46.96346],[8.52735,46.96436],[8.52708,46.96463],[8.52711,46.96547],[8.52647,46.96581],[8.52668,46.96644],[8.52598,46.96716],[8.5257,46.96821]]}}]}