{"type":"FeatureCollection","features":[{"type":"Feature","properties":{"id":"lungerersee-ow","c":"OW","p":"patent","q":"derived","k":"lake"},"geometry":{"type":"Polygon","coordinates":[[[8.17504,46.81308],[8.17533,46.81271],[8.17556,46.81123],[8.17466,46.80986],[8.1743,46.80984],[8.1713,46.80872],[8.16985,46.80712],[8.16949,46.80688],[8.16895,46.80581],[8.16864,46.80385],[8.16942,46.80248],[8.16931,46.80144],[8.16952,46.80101],[8.16907,46.80077],[8.16696,46.80008],[8.16625,46.79969],[8.1645,46.7994],[8.16348,46.79893],[8.16254,46.79812],[8.16098,46.79632],[8.16086,46.79606],[8.16117,46.79572],[8.16216,46.79545],[8.16324,46.79554],[8.16369,46.79546],[8.16391,46.79529],[8.16394,46.79494],[8.16349,46.7941],[8.16385,46.79322],[8.16394,46.79248],[8.16215,46.79163],[8.16179,46.79162],[8.16007,46.79051],[8.15941,46.78977],[8.1591,46.78909],[8.15865,46.78931],[8.15865,46.78978],[8.15823,46.78974],[8.15838,46.78912],[8.15822,46.78876],[8.15851,46.78876],[8.1587,46.78906],[8.15898,46.78899],[8.15912,46.78877],[8.15819,46.78754],[8.15743,46.78704],[8.15713,46.78641],[8.15673,46.78638],[8.15654,46.78622],[8.15644,46.78536],[8.15661,46.78516],[8.15606,46.78434],[8.15611,46.78385],[8.15582,46.78342],[8.15549,46.78343],[8.15538,46.78309],[8.15555,46.7829],[8.15536,46.78281],[8.15483,46.78328],[8.15412,46.78342],[8.15413,46.78375],[8.15366,46.78466],[8.15301,46.78545],[8.15337,46.78595],[8.15332,46.7862],[8.15262,46.78637],[8.15189,46.78622],[8.15141,46.78591],[8.1519,46.78654],[8.15196,46.78701],[8.1507,46.78731],[8.14986,46.78787],[8.15046,46.78781],[8.15111,46.78757],[8.15162,46.78768],[8.15163,46.78813],[8.15136,46.7883],[8.15155,46.7886],[8.15092,46.7892],[8.15097,46.78986],[8.15143,46.79032],[8.1527,46.79096],[8.15321,46.79165],[8.15386,46.79191],[8.15398,46.79247],[8.15532,46.79406],[8.15541,46.79471],[8.15583,46.79517],[8.15634,46.79624],[8.15623,46.7966],[8.15681,46.79714],[8.15609,46.79777],[8.1561,46.79827],[8.15589,46.79859],[8.15609,46.79993],[8.15632,46.80016],[8.1562,46.80082],[8.15647,46.80094],[8.15662,46.8015],[8.1571,46.80202],[8.15677,46.80244],[8.15762,46.80296],[8.15749,46.80321],[8.15797,46.80374],[8.15779,46.80398],[8.15831,46.80428],[8.15814,46.80485],[8.1589,46.8059],[8.15957,46.80648],[8.1594,46.80698],[8.16132,46.8076],[8.16442,46.80791],[8.16684,46.80925],[8.16725,46.80967],[8.16803,46.81094],[8.16787,46.81129],[8.16706,46.8117],[8.16707,46.81205],[8.16752,46.8123],[8.16856,46.81248],[8.16875,46.81269],[8.16882,46.81324],[8.16916,46.81327],[8.1698,46.81312],[8.17141,46.81334],[8.17504,46.81308]]]}},{"type":"Feature","properties":{"id":"sarnersee-ow","c":"OW","p":"patent","q":"derived","k":"lake"},"geometry":{"type":"Polygon","coordinates":[[[8.24139,46.88938],[8.24133,46.88868],[8.24263,46.88751],[8.24305,46.88768],[8.243,46.88753],[8.24334,46.88734],[8.24327,46.88727],[8.24398,46.88649],[8.24399,46.88632],[8.24379,46.88495],[8.24318,46.88437],[8.24264,46.88398],[8.24223,46.88387],[8.24189,46.88353],[8.24188,46.88326],[8.2413,46.88258],[8.24145,46.88196],[8.24159,46.88185],[8.24208,46.88182],[8.24293,46.88201],[8.2443,46.8833],[8.24442,46.88323],[8.24326,46.88193],[8.24248,46.88136],[8.24251,46.88115],[8.24286,46.88123],[8.24327,46.88104],[8.24364,46.88058],[8.24173,46.87887],[8.24178,46.87668],[8.24117,46.87332],[8.24084,46.87291],[8.24002,46.87259],[8.23996,46.87215],[8.23847,46.87132],[8.23773,46.87114],[8.23763,46.87099],[8.23697,46.87081],[8.23618,46.87034],[8.23574,46.87028],[8.23576,46.87001],[8.2349,46.86961],[8.23473,46.86924],[8.23483,46.86917],[8.23404,46.86851],[8.23297,46.86782],[8.23262,46.86783],[8.23188,46.8675],[8.23163,46.86714],[8.23131,46.86706],[8.23095,46.86719],[8.23046,46.86704],[8.22877,46.86691],[8.22763,46.86704],[8.22753,46.86691],[8.22767,46.86657],[8.22601,46.86542],[8.22542,46.86487],[8.22449,46.86434],[8.22328,46.86331],[8.22278,46.86262],[8.22215,46.86219],[8.22075,46.86184],[8.22002,46.86139],[8.2193,46.86117],[8.21856,46.86113],[8.21771,46.86032],[8.2171,46.86007],[8.21679,46.85954],[8.21629,46.8591],[8.21537,46.85859],[8.21349,46.85642],[8.21283,46.85591],[8.21285,46.85532],[8.21306,46.85496],[8.2128,46.85461],[8.21239,46.85452],[8.21208,46.85428],[8.21202,46.85387],[8.21219,46.85349],[8.21202,46.85318],[8.21214,46.85295],[8.20915,46.85081],[8.20855,46.84956],[8.20806,46.84924],[8.20784,46.84888],[8.20679,46.84818],[8.20649,46.84773],[8.20361,46.84576],[8.20265,46.84573],[8.20134,46.84539],[8.20008,46.84575],[8.20042,46.8471],[8.20021,46.84745],[8.20046,46.84785],[8.2004,46.84802],[8.1988,46.84884],[8.19821,46.84848],[8.19749,46.84854],[8.19697,46.84872],[8.19614,46.84939],[8.19463,46.85023],[8.1946,46.85072],[8.19424,46.85103],[8.19372,46.85112],[8.19235,46.85109],[8.19058,46.84987],[8.19089,46.85026],[8.19224,46.85124],[8.19092,46.85177],[8.19018,46.85184],[8.1907,46.85243],[8.19066,46.85268],[8.19092,46.85316],[8.19045,46.85309],[8.18998,46.85273],[8.1891,46.85308],[8.18878,46.85414],[8.18966,46.85544],[8.19086,46.85649],[8.19093,46.85686],[8.1913,46.85698],[8.19164,46.85838],[8.19255,46.85905],[8.19293,46.85912],[8.19339,46.85956],[8.19419,46.86207],[8.19467,46.86248],[8.19461,46.86312],[8.19472,46.86333],[8.19486,46.86333],[8.19519,46.86409],[8.19556,46.86439],[8.19584,46.86533],[8.19636,46.86608],[8.19776,46.86626],[8.19828,46.86684],[8.20116,46.86789],[8.20206,46.86838],[8.20255,46.86845],[8.20304,46.86831],[8.20418,46.86869],[8.20485,46.86927],[8.20543,46.86939],[8.20626,46.86993],[8.20671,46.86997],[8.20925,46.87139],[8.20965,46.87147],[8.20978,46.87132],[8.21036,46.87151],[8.21113,46.87147],[8.2125,46.87179],[8.21244,46.87188],[8.21632,46.87326],[8.21626,46.87334],[8.21829,46.87391],[8.21972,46.87446],[8.22025,46.87485],[8.22015,46.87494],[8.22071,46.87544],[8.22239,46.87604],[8.22253,46.87643],[8.22315,46.87659],[8.22434,46.87776],[8.22585,46.8782],[8.22623,46.87881],[8.22631,46.87929],[8.22617,46.87939],[8.22647,46.87998],[8.22718,46.88107],[8.22803,46.88136],[8.22845,46.88179],[8.22841,46.88241],[8.22891,46.88286],[8.22905,46.8835],[8.23108,46.88536],[8.23173,46.88555],[8.23238,46.88646],[8.23224,46.88698],[8.23246,46.88731],[8.23391,46.88827],[8.23422,46.88903],[8.23509,46.88889],[8.23529,46.88907],[8.23577,46.88894],[8.23596,46.88864],[8.23639,46.88853],[8.23739,46.88864],[8.23754,46.88882],[8.23826,46.88894],[8.23824,46.88911],[8.23834,46.88905],[8.23899,46.88938],[8.23907,46.88931],[8.2396,46.88954],[8.23956,46.88967],[8.24003,46.88989],[8.24085,46.88994],[8.24105,46.88982],[8.24085,46.8895],[8.24139,46.88938]],[[8.24268,46.88166],[8.24269,46.88181],[8.24241,46.88179],[8.24187,46.88158],[8.24191,46.88147],[8.24213,46.88137],[8.24268,46.88166]]]}},{"type":"Feature","properties":{"id":"vierwaldstaettersee-ow","c":"OW","p":"patent","q":"derived","k":"lake"},"geometry":{"type":"Polygon","coordinates":[[[8.30618,46.95574],[8.30392,46.95529],[8.30295,46.95439],[8.30209,46.95418],[8.30087,46.95311],[8.30029,46.95289],[8.29967,46.95244],[8.29824,46.95295],[8.29738,46.95304],[8.29892,46.95259],[8.29877,46.95237],[8.29848,46.95231],[8.29814,46.95241],[8.29778,46.9522],[8.29688,46.95098],[8.29531,46.95151],[8.29513,46.95161],[8.29525,46.95188],[8.29484,46.95171],[8.29275,46.95284],[8.29302,46.95319],[8.29408,46.95363],[8.29455,46.95368],[8.29567,46.95427],[8.29668,46.95362],[8.29649,46.95417],[8.2957,46.95453],[8.29473,46.95479],[8.29511,46.95439],[8.29456,46.95404],[8.29378,46.95454],[8.29355,46.95447],[8.29296,46.95395],[8.29273,46.95333],[8.29222,46.95294],[8.29119,46.95307],[8.29099,46.95323],[8.29037,46.95319],[8.29168,46.9552],[8.29162,46.95577],[8.29123,46.9561],[8.2899,46.95612],[8.28951,46.95581],[8.28935,46.95549],[8.28936,46.9549],[8.28912,46.95443],[8.28944,46.95422],[8.28984,46.95447],[8.29018,46.95428],[8.29058,46.95377],[8.29032,46.9534],[8.28997,46.95327],[8.28854,46.95331],[8.28822,46.95311],[8.28791,46.95327],[8.28818,46.95426],[8.28795,46.95508],[8.28839,46.95568],[8.28822,46.95595],[8.28714,46.95559],[8.28726,46.95525],[8.28666,46.95508],[8.28576,46.95409],[8.28581,46.95393],[8.28626,46.95381],[8.28634,46.95365],[8.28487,46.95361],[8.28489,46.95446],[8.28463,46.95474],[8.28445,46.95474],[8.28404,46.95439],[8.28356,46.95374],[8.28393,46.95492],[8.28373,46.95487],[8.28301,46.95398],[8.28241,46.95412],[8.28215,46.95375],[8.28185,46.95375],[8.28144,46.95393],[8.2808,46.95392],[8.28042,46.95412],[8.28007,46.95415],[8.28039,46.95455],[8.27885,46.95529],[8.27896,46.95594],[8.27976,46.95684],[8.28082,46.95767],[8.28329,46.95922],[8.28662,46.9607],[8.28697,46.96052],[8.28752,46.9605],[8.28895,46.96153],[8.28927,46.96157],[8.28996,46.96215],[8.29038,46.96274],[8.29102,46.96292],[8.29255,46.96303],[8.29402,46.96354],[8.2943,46.96407],[8.29405,46.96438],[8.29385,46.96552],[8.29446,46.96625],[8.30039,46.96794],[8.30322,46.96826],[8.30767,46.96951],[8.30977,46.96943],[8.31097,46.96895],[8.30618,46.95574]],[[8.29391,46.95517],[8.29406,46.95546],[8.29387,46.95557],[8.29327,46.95566],[8.29256,46.95552],[8.29298,46.9559],[8.29291,46.95604],[8.29215,46.9557],[8.29259,46.95485],[8.2929,46.9547],[8.29341,46.9548],[8.29391,46.95517]]]}},{"type":"Feature","properties":{"id":"wichelsee-ow","c":"OW","p":"patent","q":"derived","k":"lake"},"geometry":{"type":"Polygon","coordinates":[[[8.2794,46.928],[8.27973,46.92781],[8.27952,46.92768],[8.27895,46.92637],[8.27764,46.92427],[8.27653,46.92187],[8.27625,46.92161],[8.27559,46.92142],[8.27552,46.92094],[8.27454,46.91916],[8.2737,46.91849],[8.27322,46.91776],[8.27266,46.91754],[8.26953,46.91549],[8.26991,46.9151],[8.26977,46.9149],[8.26941,46.91471],[8.26765,46.91449],[8.26754,46.91474],[8.26734,46.91475],[8.26738,46.91499],[8.27078,46.91697],[8.27027,46.91672],[8.26983,46.91691],[8.26905,46.91654],[8.26874,46.91669],[8.26868,46.91699],[8.26936,46.91761],[8.27096,46.91848],[8.2719,46.91924],[8.27225,46.91981],[8.27225,46.92024],[8.27271,46.9206],[8.2737,46.92192],[8.274,46.92217],[8.27494,46.92251],[8.27573,46.92327],[8.27576,46.92379],[8.27617,46.92454],[8.27751,46.92582],[8.27787,46.9266],[8.27825,46.92698],[8.27809,46.92741],[8.27913,46.92779],[8.2794,46.928]]]}},{"type":"Feature","properties":{"id":"melchsee-ow","c":"OW","p":"patent","q":"derived","k":"lake"},"geometry":{"type":"Polygon","coordinates":[[[8.26746,46.77245],[8.27114,46.77341],[8.27265,46.77362],[8.27337,46.77404],[8.27426,46.77415],[8.27658,46.7739],[8.27695,46.77366],[8.27691,46.7735],[8.27732,46.77299],[8.27758,46.77314],[8.27789,46.77294],[8.27891,46.77283],[8.28018,46.77291],[8.28034,46.77279],[8.28017,46.77259],[8.28036,46.77249],[8.27907,46.77265],[8.27828,46.77256],[8.27801,46.77241],[8.27775,46.77252],[8.27783,46.77261],[8.2776,46.77289],[8.27689,46.77279],[8.27693,46.77254],[8.27747,46.77239],[8.27776,46.77199],[8.27862,46.77169],[8.27882,46.7713],[8.27884,46.77067],[8.27813,46.77038],[8.27764,46.76976],[8.27667,46.77013],[8.27661,46.76885],[8.2764,46.76831],[8.27597,46.7682],[8.27604,46.76786],[8.27589,46.76759],[8.27569,46.76749],[8.27518,46.7678],[8.27429,46.76764],[8.27378,46.7672],[8.27368,46.76672],[8.27262,46.76741],[8.27156,46.76784],[8.27106,46.76851],[8.27037,46.76885],[8.27041,46.76933],[8.27023,46.76939],[8.27015,46.76968],[8.26969,46.76935],[8.26851,46.76918],[8.26796,46.7693],[8.26739,46.76917],[8.26618,46.77013],[8.26529,46.77051],[8.26485,46.77098],[8.26477,46.77159],[8.26503,46.77221],[8.26706,46.77232],[8.26715,46.7725],[8.26737,46.77256],[8.26746,46.77245]]]}},{"type":"Feature","properties":{"id":"tannensee-ow","c":"OW","p":"patent","q":"derived","k":"lake"},"geometry":{"type":"Polygon","coordinates":[[[8.30177,46.77561],[8.30447,46.77603],[8.30554,46.77578],[8.30639,46.77578],[8.30666,46.77543],[8.30718,46.7754],[8.30836,46.77557],[8.3086,46.7755],[8.31023,46.77606],[8.31043,46.77597],[8.31081,46.7761],[8.31078,46.77584],[8.31179,46.77597],[8.31206,46.77591],[8.31215,46.77531],[8.31322,46.7753],[8.31341,46.77475],[8.31249,46.7739],[8.31233,46.77335],[8.31181,46.77337],[8.31163,46.77353],[8.31108,46.77345],[8.31084,46.77297],[8.3102,46.77303],[8.31032,46.77319],[8.31009,46.77335],[8.30962,46.77326],[8.30877,46.77255],[8.30865,46.77211],[8.30818,46.77219],[8.30763,46.7719],[8.3074,46.772],[8.30739,46.77222],[8.30703,46.77221],[8.30636,46.77211],[8.30635,46.77196],[8.30594,46.77179],[8.30535,46.77192],[8.30483,46.77186],[8.30446,46.772],[8.30449,46.77232],[8.30435,46.7724],[8.30392,46.7722],[8.30397,46.7719],[8.30383,46.77182],[8.30336,46.77191],[8.3017,46.77089],[8.30098,46.7708],[8.30054,46.7706],[8.30044,46.772],[8.30146,46.77326],[8.30179,46.77483],[8.30177,46.77561]],[[8.30643,46.7729],[8.30694,46.77297],[8.30696,46.77329],[8.30643,46.7729]]]}},{"type":"Feature","properties":{"id":"gerlisbach-ow","c":"OW","p":"patent","q":"derived","k":"river"},"geometry":{"type":"LineString","coordinates":[[8.08827,46.90255],[8.08868,46.90249],[8.0891,46.902],[8.08991,46.90208],[8.09049,46.9016],[8.09172,46.90143],[8.09399,46.90162],[8.09537,46.90203],[8.09606,46.90174],[8.09634,46.90193],[8.0962,46.9023],[8.09651,46.90271],[8.09721,46.90311],[8.09916,46.90342],[8.10044,46.90388],[8.10076,46.90444],[8.10147,46.90492],[8.10183,46.90576],[8.10364,46.90595],[8.10449,46.90583],[8.10525,46.90629],[8.10741,46.907],[8.10801,46.9084]]}},{"type":"Feature","properties":{"id":"sewenbach-ow","c":"OW","p":"patent","q":"derived","k":"river"},"geometry":{"type":"LineString","coordinates":[[8.07256,46.89177],[8.07399,46.89159],[8.07564,46.89167],[8.0778,46.89229],[8.07821,46.89202],[8.07911,46.89189],[8.08023,46.8921],[8.08268,46.89189],[8.08311,46.89203],[8.08356,46.89195],[8.08376,46.89162],[8.08439,46.89195],[8.08482,46.89167],[8.08511,46.891],[8.08492,46.89043],[8.08516,46.89007],[8.08443,46.88978],[8.0845,46.88949],[8.08412,46.88918],[8.08431,46.8888],[8.0847,46.8886],[8.08346,46.88814],[8.08265,46.88807],[8.08308,46.88762],[8.0826,46.8872],[8.0828,46.88705],[8.08263,46.88689],[8.08371,46.88621],[8.08341,46.88606],[8.08359,46.88549],[8.08334,46.88541],[8.08331,46.88501],[8.08392,46.88472],[8.08377,46.88451],[8.08403,46.88419],[8.08489,46.88414],[8.08541,46.88392],[8.08582,46.884],[8.0861,46.8838],[8.08584,46.88334],[8.0859,46.88285],[8.08526,46.88255],[8.0857,46.88233],[8.08538,46.88188],[8.08559,46.88183],[8.08457,46.8815],[8.08468,46.88115],[8.08412,46.88118],[8.08421,46.88086],[8.08382,46.8808],[8.08353,46.88114],[8.0827,46.88029],[8.08073,46.87954],[8.07968,46.87965],[8.07919,46.87946],[8.0787,46.87974],[8.07847,46.87953],[8.07728,46.87965],[8.07699,46.87954],[8.07706,46.87919],[8.0763,46.87885],[8.07425,46.87839],[8.07304,46.87831],[8.07179,46.87773],[8.07065,46.87766]]}},{"type":"Feature","properties":{"id":"laui-lungern-ow","c":"OW","p":"patent","q":"derived","k":"river"},"geometry":{"type":"LineString","coordinates":[[8.09965,46.79055],[8.10061,46.79027],[8.10131,46.79028],[8.102,46.79053],[8.10318,46.79018],[8.1047,46.79038],[8.10593,46.79006],[8.10844,46.7905],[8.11019,46.79046],[8.11023,46.78859],[8.11124,46.78766],[8.11204,46.78736],[8.1122,46.78699],[8.1141,46.78548],[8.11406,46.78465],[8.1136,46.78427],[8.11362,46.78329],[8.11378,46.7829],[8.11419,46.78275],[8.11423,46.78169],[8.11573,46.78025],[8.11636,46.77995],[8.1178,46.78031],[8.11818,46.77992],[8.11947,46.77976],[8.12095,46.78023],[8.12152,46.77949],[8.12242,46.77938],[8.12275,46.77904],[8.12318,46.77903],[8.12391,46.7784],[8.125,46.77812],[8.1254,46.77768],[8.12699,46.77696],[8.12809,46.77669],[8.12954,46.77678],[8.13012,46.77717],[8.13212,46.77723],[8.13306,46.77776],[8.13378,46.77788],[8.13467,46.7785],[8.13534,46.77814],[8.13722,46.77781],[8.14046,46.77809],[8.14115,46.77829],[8.14412,46.78112],[8.15106,46.78564]]}},{"type":"Feature","properties":{"id":"chli-schlierli-ow","c":"OW","p":"patent","q":"derived","k":"river"},"geometry":{"type":"LineString","coordinates":[[8.23375,46.92156],[8.23598,46.92171],[8.23848,46.92149],[8.23923,46.92124],[8.24077,46.92133],[8.24375,46.92103],[8.24504,46.92068],[8.24554,46.92078],[8.24609,46.92115],[8.246,46.92144],[8.24631,46.9217],[8.24773,46.92228],[8.24789,46.92278],[8.24928,46.92415],[8.25109,46.92521],[8.2523,46.92692],[8.25403,46.92793],[8.25479,46.92814],[8.25555,46.92781],[8.25618,46.92723],[8.25804,46.92669],[8.25931,46.92668],[8.26062,46.92558],[8.26181,46.92518],[8.26247,46.92438],[8.26315,46.92278],[8.26384,46.9205],[8.26459,46.91925],[8.26494,46.9177],[8.26583,46.91698],[8.26757,46.91618],[8.26833,46.91646]]}},{"type":"Feature","properties":{"id":"tellenbach-ow","c":"OW","p":"patent","q":"derived","k":"river"},"geometry":{"type":"LineString","coordinates":[[8.22298,46.91908],[8.2239,46.91855],[8.22461,46.91751],[8.22589,46.91639],[8.22728,46.91573],[8.23014,46.91619],[8.23207,46.91627],[8.23248,46.91646],[8.23454,46.91652],[8.23579,46.91696],[8.2369,46.91764],[8.24009,46.91748],[8.24048,46.91769],[8.24318,46.91688],[8.24455,46.91677],[8.24583,46.91573],[8.24883,46.91534],[8.25032,46.91473],[8.25353,46.91462],[8.25468,46.91441],[8.25713,46.91454],[8.25766,46.91468],[8.25846,46.91559],[8.2632,46.91273]]}},{"type":"Feature","properties":{"id":"zimmertalbach-ow","c":"OW","p":"patent","q":"derived","k":"river"},"geometry":{"type":"LineString","coordinates":[[8.21156,46.91412],[8.2119,46.91381],[8.21381,46.91349],[8.21528,46.91241],[8.21643,46.91205],[8.21959,46.91188],[8.22049,46.91219],[8.22151,46.91219],[8.22363,46.91147],[8.22628,46.91109],[8.22896,46.90945],[8.23076,46.90866],[8.2313,46.90817],[8.23232,46.90804],[8.23469,46.90851],[8.23615,46.90837],[8.2366,46.90851],[8.23958,46.90796],[8.24065,46.90832],[8.24138,46.90831],[8.24252,46.90799],[8.24375,46.908],[8.24475,46.90757],[8.24499,46.90718],[8.24501,46.90532],[8.24553,46.90472]]}},{"type":"Feature","properties":{"id":"innenbach-ow","c":"OW","p":"patent","q":"derived","k":"river"},"geometry":{"type":"LineString","coordinates":[[8.25454,46.80235],[8.25761,46.80365],[8.25893,46.80353],[8.26034,46.80378],[8.26131,46.80366],[8.26239,46.80394],[8.2636,46.80387],[8.26676,46.80443],[8.26793,46.8044],[8.26917,46.80492],[8.27149,46.80537],[8.27252,46.80537],[8.27354,46.80576],[8.27403,46.80559],[8.27429,46.80589],[8.27515,46.80602],[8.27608,46.8058],[8.27728,46.80519],[8.27874,46.80546],[8.27937,46.80703],[8.27927,46.80752],[8.27965,46.80762],[8.27968,46.80823],[8.28009,46.8082],[8.28131,46.80913],[8.28132,46.80958],[8.28102,46.80991],[8.28126,46.81013],[8.28108,46.81101],[8.28188,46.81215],[8.28199,46.81287],[8.28168,46.81341],[8.2819,46.81385],[8.28237,46.81404],[8.28263,46.81443],[8.28232,46.81474],[8.28261,46.81547],[8.28301,46.81575],[8.28281,46.81593],[8.28297,46.81615]]}},{"type":"Feature","properties":{"id":"mettentalbach-ow","c":"OW","p":"patent","q":"derived","k":"river"},"geometry":{"type":"LineString","coordinates":[[8.24244,46.83558],[8.24203,46.83648],[8.24048,46.83728],[8.2394,46.83843],[8.23757,46.83953],[8.23659,46.84174],[8.23539,46.84321],[8.23398,46.84418],[8.23351,46.84646],[8.23286,46.8473],[8.23134,46.84853],[8.23123,46.8508],[8.23056,46.85198],[8.22873,46.85287],[8.22814,46.85339],[8.22802,46.85454],[8.22841,46.85539],[8.22817,46.85592],[8.2271,46.85648],[8.22588,46.8567],[8.2249,46.85726],[8.22235,46.85761],[8.22177,46.85783]]}},{"type":"Feature","properties":{"id":"schlimbach-ow","c":"OW","p":"patent","q":"derived","k":"river"},"geometry":{"type":"LineString","coordinates":[[8.15703,46.88659],[8.15911,46.88399],[8.16076,46.88328],[8.16321,46.88277],[8.16447,46.88202],[8.16578,46.88007],[8.16573,46.87969],[8.1666,46.87828],[8.16807,46.87791],[8.16924,46.87729],[8.16961,46.87678],[8.17251,46.87533],[8.1755,46.87299],[8.17711,46.87118],[8.17766,46.87084],[8.1786,46.86931],[8.17925,46.86866],[8.18058,46.86813],[8.18207,46.86674],[8.18421,46.86546],[8.1853,46.86518],[8.18617,46.86433]]}},{"type":"Feature","properties":{"id":"ruetibach-ow","c":"OW","p":"patent","q":"derived","k":"river"},"geometry":{"type":"LineString","coordinates":[[8.1354,46.86453],[8.13607,46.86394],[8.13792,46.86297],[8.13819,46.86233],[8.13894,46.86162],[8.13998,46.86154],[8.14071,46.86125],[8.14268,46.85922],[8.14339,46.85898],[8.1442,46.85836],[8.14477,46.85839],[8.14552,46.85803],[8.14587,46.85812],[8.1466,46.85776],[8.14715,46.85726],[8.14713,46.8567],[8.14761,46.85582],[8.14939,46.85503],[8.15079,46.85392],[8.15155,46.85382],[8.15563,46.8524],[8.15737,46.85239],[8.15826,46.85202],[8.1615,46.85157],[8.16202,46.85172],[8.16322,46.85252],[8.16988,46.85456],[8.17064,46.85421],[8.17164,46.85317],[8.17366,46.85268],[8.17473,46.85197],[8.17594,46.85191],[8.17723,46.85223],[8.18196,46.85073],[8.18304,46.85087],[8.18518,46.85169],[8.18702,46.8518],[8.18879,46.85164],[8.18907,46.85182],[8.1892,46.85262]]}},{"type":"Feature","properties":{"id":"rufibach-ow","c":"OW","p":"patent","q":"derived","k":"river"},"geometry":{"type":"LineString","coordinates":[[8.13284,46.87335],[8.1354,46.87402],[8.1393,46.87376],[8.13997,46.87406],[8.14126,46.87413],[8.14218,46.87364],[8.1425,46.87261],[8.14525,46.87214],[8.14874,46.86989],[8.14974,46.8695],[8.1505,46.86963],[8.15196,46.86885],[8.15287,46.86865],[8.15404,46.86884],[8.15457,46.86874],[8.15485,46.86826],[8.15559,46.86827],[8.15694,46.86717],[8.15749,46.86693],[8.15807,46.86579],[8.15911,46.86575],[8.15986,46.86538],[8.16026,46.86485],[8.16151,46.86431],[8.1637,46.86242],[8.16523,46.86186],[8.16597,46.86101],[8.16821,46.85979],[8.16983,46.85846],[8.1705,46.85737],[8.16964,46.8555],[8.16988,46.85456]]}},{"type":"Feature","properties":{"id":"muelibach-ow","c":"OW","p":"patent","q":"derived","k":"river"},"geometry":{"type":"LineString","coordinates":[[8.10464,46.81687],[8.10681,46.81772],[8.10767,46.81778],[8.10813,46.81763],[8.10891,46.81801],[8.11045,46.81819],[8.11095,46.81859],[8.11335,46.81945],[8.11461,46.82075],[8.11599,46.82114],[8.11699,46.82198],[8.11814,46.8222],[8.11978,46.82311],[8.12025,46.82358],[8.12055,46.82432],[8.12142,46.82516],[8.12331,46.82598],[8.12689,46.82918],[8.12866,46.82914],[8.12994,46.82957],[8.13076,46.82942],[8.13142,46.82957],[8.13344,46.8293],[8.13402,46.82966],[8.13812,46.83095],[8.13953,46.83116],[8.14094,46.83105],[8.14189,46.83142],[8.14472,46.83144],[8.14675,46.83224],[8.14795,46.83337],[8.1492,46.83383],[8.15119,46.8342],[8.15164,46.83453],[8.15262,46.8347],[8.1543,46.83555],[8.15568,46.83531],[8.15631,46.83502],[8.15687,46.83502]]}},{"type":"Feature","properties":{"id":"giessenbach-ow","c":"OW","p":"patent","q":"derived","k":"river"},"geometry":{"type":"LineString","coordinates":[[8.25567,46.96298],[8.25672,46.96161],[8.25753,46.961],[8.25758,46.96005],[8.25838,46.95928],[8.25897,46.95768],[8.25984,46.95654],[8.26131,46.95531],[8.26178,46.95514],[8.26149,46.95445],[8.26214,46.95386],[8.264,46.95287],[8.26562,46.95136],[8.26639,46.95113],[8.26654,46.95074],[8.26817,46.95076],[8.26975,46.95],[8.27485,46.94952],[8.27561,46.95259],[8.27812,46.95245],[8.27966,46.95393]]}},{"type":"Feature","properties":{"id":"meisibach-ow","c":"OW","p":"patent","q":"derived","k":"river"},"geometry":{"type":"LineString","coordinates":[[8.23889,46.96676],[8.23826,46.96609],[8.23616,46.96555],[8.23508,46.96435],[8.23524,46.96332],[8.23576,46.96226],[8.23539,46.96213],[8.23564,46.96011],[8.23643,46.95903],[8.2379,46.95895],[8.23967,46.95938],[8.24051,46.95907],[8.24147,46.95912],[8.24161,46.95893],[8.24237,46.9568],[8.24319,46.95599],[8.24326,46.95561],[8.24311,46.95524],[8.24099,46.95394],[8.24112,46.95216],[8.24133,46.95182],[8.243,46.95085],[8.24402,46.94971],[8.24437,46.94779],[8.2449,46.94656],[8.24552,46.94649],[8.24619,46.94605],[8.24888,46.94676],[8.24976,46.94645],[8.25042,46.94565],[8.25175,46.946],[8.2541,46.94494],[8.25615,46.94468],[8.25653,46.94424],[8.25626,46.94392],[8.25695,46.94388],[8.25831,46.94311],[8.26253,46.94264],[8.2633,46.94207],[8.26468,46.94179]]}},{"type":"Feature","properties":{"id":"waldemme-ow","c":"OW","p":"patent","q":"derived","k":"river"},"geometry":{"type":"LineString","coordinates":[[8.10004,46.80014],[8.1008,46.80092],[8.10217,46.80174],[8.10253,46.80252],[8.10349,46.80292],[8.10395,46.80369],[8.10221,46.8051],[8.10207,46.80568],[8.10133,46.80605],[8.10174,46.80767],[8.10215,46.80805],[8.10213,46.80848],[8.10164,46.80931],[8.10012,46.8105],[8.09973,46.81046],[8.09872,46.80983],[8.09646,46.80968],[8.09385,46.80906],[8.09302,46.80843],[8.09105,46.80788],[8.08994,46.80804],[8.08662,46.80756],[8.08569,46.80792],[8.08371,46.80786],[8.08335,46.80772],[8.08252,46.80797],[8.08197,46.80778],[8.08039,46.8078],[8.07976,46.8075],[8.07638,46.80767],[8.07585,46.80741],[8.07462,46.80743],[8.07389,46.80718],[8.07283,46.80711],[8.07242,46.8074],[8.07199,46.80739],[8.07183,46.8077],[8.07154,46.8077],[8.0711,46.8076],[8.07058,46.80696],[8.06947,46.8071],[8.06864,46.8078],[8.06657,46.80816],[8.0663,46.80834],[8.0654,46.80807],[8.06442,46.80808]]}},{"type":"Feature","properties":{"id":"foribach-ow","c":"OW","p":"patent","q":"derived","k":"river"},"geometry":{"type":"LineString","coordinates":[[8.30581,46.87578],[8.30345,46.87597],[8.303,46.87637],[8.30199,46.87651],[8.30023,46.87741],[8.29762,46.87818],[8.29619,46.87892],[8.29538,46.87907],[8.29405,46.87998],[8.29423,46.88092],[8.29391,46.88171],[8.29332,46.88227],[8.29228,46.88274],[8.29131,46.88412],[8.29081,46.8843],[8.29044,46.88591],[8.28981,46.88684],[8.2898,46.88832],[8.28957,46.88868],[8.29,46.8894],[8.29076,46.88998],[8.2907,46.89094],[8.2917,46.89151],[8.29161,46.89174],[8.29208,46.89241],[8.29167,46.89405],[8.29195,46.89466],[8.29245,46.89499],[8.29237,46.89622],[8.29261,46.89651],[8.29251,46.89725],[8.29208,46.89781],[8.29033,46.898],[8.2893,46.8978],[8.28859,46.89808],[8.28719,46.89807],[8.28615,46.89772],[8.28503,46.89764],[8.28412,46.8973],[8.28336,46.89747],[8.28242,46.89728],[8.28155,46.89751],[8.28036,46.89701],[8.27709,46.89689],[8.27525,46.89741],[8.27418,46.89801],[8.27358,46.89867],[8.27376,46.89927],[8.27214,46.9005],[8.27002,46.89994],[8.26976,46.89962],[8.26794,46.89893],[8.26719,46.89842],[8.26691,46.8985],[8.26533,46.89816],[8.26283,46.89726],[8.26079,46.89743],[8.26027,46.89687],[8.25924,46.89695],[8.25777,46.89674],[8.25709,46.89711],[8.2561,46.90111],[8.25299,46.90436]]}},{"type":"Feature","properties":{"id":"grosse-melchaa-ow","c":"OW","p":"patent","q":"derived","k":"river"},"geometry":{"type":"LineString","coordinates":[[8.2849,46.80203],[8.28488,46.80308],[8.28517,46.80372],[8.28477,46.80525],[8.28504,46.80683],[8.28441,46.80811],[8.28452,46.80934],[8.28378,46.80963],[8.28374,46.81106],[8.28325,46.81151],[8.28321,46.81185],[8.28395,46.81279],[8.28324,46.81347],[8.28414,46.81516],[8.28395,46.81565],[8.28302,46.8162],[8.28342,46.8167],[8.2837,46.81769],[8.2832,46.81903],[8.2834,46.82007],[8.28315,46.82086],[8.28361,46.82198],[8.28341,46.8229],[8.28427,46.82355],[8.28427,46.82414],[8.28457,46.8246],[8.28547,46.82481],[8.28573,46.82503],[8.28541,46.82565],[8.28619,46.82692],[8.28567,46.82779],[8.28588,46.82874],[8.2854,46.82924],[8.28543,46.82988],[8.28481,46.83139],[8.28576,46.83213],[8.28581,46.83344],[8.28642,46.83387],[8.28622,46.83457],[8.28667,46.83507],[8.28662,46.83583],[8.28758,46.83636],[8.28782,46.83697],[8.29,46.83825],[8.29339,46.84336],[8.29512,46.84479],[8.29564,46.84561],[8.2958,46.84635],[8.29666,46.84721],[8.29702,46.84833],[8.29675,46.84921],[8.29701,46.84995],[8.29696,46.85079],[8.29664,46.85137],[8.29526,46.85174],[8.29448,46.85279],[8.29364,46.85287],[8.29345,46.854],[8.29176,46.85502],[8.29175,46.85553],[8.28989,46.856],[8.28924,46.85659],[8.28813,46.85655],[8.28811,46.8573],[8.28726,46.85759],[8.28651,46.85815],[8.28595,46.85946],[8.28503,46.85981],[8.28428,46.8609],[8.28226,46.8618],[8.28002,46.86179],[8.2776,46.8623],[8.27703,46.8629],[8.276,46.86314],[8.27433,46.86414],[8.27367,46.86472],[8.27367,46.86509],[8.27237,46.86608],[8.27198,46.86678],[8.27274,46.86854],[8.2721,46.86952],[8.27243,46.87002],[8.27225,46.87163],[8.27292,46.87235],[8.27328,46.87371],[8.27428,46.8743],[8.27318,46.87548],[8.27213,46.87616],[8.272,46.87696],[8.27229,46.87907],[8.27363,46.88068],[8.27365,46.88185],[8.27339,46.88254],[8.27361,46.88328],[8.27207,46.88415],[8.27175,46.8848],[8.2708,46.88484],[8.26969,46.88525],[8.26881,46.88582],[8.26786,46.88603],[8.26635,46.88572],[8.26501,46.88572],[8.26357,46.88611],[8.26204,46.88618],[8.26178,46.88648],[8.26269,46.88709],[8.26276,46.8884],[8.26235,46.8895],[8.26135,46.89079],[8.26101,46.89089],[8.25678,46.8898],[8.25587,46.88932],[8.25256,46.88922],[8.25082,46.88881],[8.24958,46.88796],[8.24469,46.88354]]}},{"type":"Feature","properties":{"id":"sarner-aa-ow","c":"OW","p":"patent","q":"derived","k":"river"},"geometry":{"type":"MultiLineString","coordinates":[[[8.17006,46.81349],[8.17072,46.81618],[8.17052,46.81679],[8.17082,46.81715],[8.17039,46.81805],[8.17123,46.81787],[8.1711,46.81851],[8.17238,46.81937],[8.17278,46.82035],[8.17224,46.82076],[8.17231,46.82174],[8.17315,46.82185],[8.17477,46.82254],[8.17483,46.8229],[8.17713,46.82403],[8.17816,46.82522],[8.17968,46.82607],[8.18065,46.82686],[8.18302,46.82747],[8.18363,46.82801],[8.18376,46.8285],[8.18324,46.83062],[8.18335,46.83301],[8.18521,46.83652],[8.18513,46.83734],[8.18388,46.83854],[8.18374,46.83906],[8.18434,46.84268],[8.18632,46.84618],[8.19008,46.85148]],[[8.24152,46.88998],[8.24195,46.8921],[8.24178,46.8943],[8.24203,46.89461],[8.2445,46.89583],[8.24546,46.89665],[8.24566,46.89734],[8.24533,46.89942],[8.24581,46.89991],[8.24665,46.90164],[8.24827,46.90232],[8.25128,46.90312],[8.26687,46.91507]],[[8.25413,46.90543],[8.25836,46.91151],[8.25964,46.91198],[8.26336,46.91277],[8.26568,46.9146],[8.26618,46.91473]],[[8.27969,46.92833],[8.28442,46.93628],[8.28623,46.93758],[8.28685,46.93829],[8.28842,46.94171],[8.28897,46.94438],[8.28965,46.9458],[8.29087,46.94745],[8.29491,46.95127]]]}},{"type":"Feature","properties":{"id":"engelberger-aa-ow","c":"OW","p":"patent","q":"derived","k":"river"},"geometry":{"type":"MultiLineString","coordinates":[[[8.36915,46.84619],[8.36897,46.84688],[8.36929,46.84772],[8.36854,46.84964],[8.36923,46.85047],[8.37085,46.85178],[8.37108,46.85685],[8.37063,46.85977],[8.37119,46.86221],[8.37067,46.86509],[8.36936,46.86764]],[[8.37035,46.87191],[8.37199,46.87363],[8.37344,46.87448]],[[8.48191,46.79434],[8.48102,46.79443],[8.47801,46.79404],[8.4774,46.79418],[8.47684,46.79364],[8.47522,46.79317],[8.47324,46.79344],[8.47217,46.7933],[8.47158,46.7936],[8.47045,46.79376],[8.46869,46.79315],[8.46365,46.79464],[8.46177,46.79465],[8.45951,46.79506],[8.45896,46.79525],[8.45858,46.79579],[8.45778,46.79609],[8.45688,46.79614],[8.45631,46.79677],[8.45503,46.79715],[8.45388,46.79794],[8.4535,46.79873],[8.45139,46.79964],[8.45099,46.80037],[8.44788,46.80163],[8.44726,46.80249],[8.44373,46.8045],[8.44082,46.8058],[8.43999,46.80644],[8.43856,46.80715],[8.432,46.80768],[8.42998,46.80742],[8.42861,46.80775],[8.42713,46.80778],[8.42642,46.80825],[8.42514,46.80865],[8.42298,46.80861],[8.42136,46.80981],[8.41814,46.81138],[8.41672,46.81328],[8.41547,46.81446],[8.41126,46.81631],[8.40188,46.81785],[8.40078,46.81772],[8.39931,46.81704],[8.39723,46.81698],[8.39451,46.81638],[8.39055,46.81724],[8.389,46.81797],[8.38771,46.81958],[8.38613,46.82037],[8.38519,46.82117],[8.38275,46.82187],[8.38231,46.82447],[8.38197,46.82466],[8.37934,46.8249],[8.37838,46.82553],[8.37879,46.82625],[8.37854,46.82692],[8.37677,46.82722],[8.3756,46.82789],[8.3754,46.82868],[8.3747,46.8294],[8.37429,46.83078],[8.37209,46.83276],[8.37167,46.83401],[8.37104,46.83451],[8.37073,46.8351],[8.37071,46.83613],[8.3715,46.83796],[8.37071,46.83904],[8.37041,46.84051],[8.36989,46.84108],[8.36986,46.84208],[8.37036,46.84402],[8.37002,46.84544]]]}},{"type":"Feature","properties":{"id":"kleine-schliere-ow","c":"OW","p":"patent","q":"derived","k":"river"},"geometry":{"type":"LineString","coordinates":[[8.17062,46.95831],[8.17304,46.95803],[8.17611,46.9581],[8.1772,46.95844],[8.1791,46.95839],[8.18078,46.95881],[8.18392,46.9588],[8.18469,46.95856],[8.18539,46.95789],[8.18567,46.95728],[8.18599,46.95716],[8.18636,46.95754],[8.18729,46.95752],[8.18785,46.95789],[8.18803,46.95841],[8.19242,46.95834],[8.19797,46.95963],[8.19952,46.95902],[8.20065,46.95929],[8.20122,46.95886],[8.20201,46.95951],[8.20226,46.95896],[8.20324,46.95913],[8.20358,46.95889],[8.20432,46.95875],[8.20431,46.95758],[8.20477,46.95716],[8.20557,46.95725],[8.20613,46.95707],[8.20687,46.95732],[8.21022,46.95728],[8.21043,46.95682],[8.21155,46.95684],[8.21233,46.95611],[8.21316,46.9561],[8.21374,46.95551],[8.21506,46.9551],[8.21597,46.95448],[8.21597,46.9542],[8.2164,46.95429],[8.21793,46.95338],[8.21895,46.95325],[8.21941,46.95238],[8.21942,46.95182],[8.22187,46.95171],[8.22237,46.95094],[8.22193,46.95052],[8.22214,46.94984],[8.2208,46.94884],[8.22087,46.94812],[8.22187,46.94767],[8.22274,46.94741],[8.22575,46.94739],[8.22663,46.94685],[8.2281,46.94668],[8.22861,46.94623],[8.2285,46.94569],[8.22929,46.94548],[8.23032,46.9442],[8.23085,46.94393],[8.23179,46.94404],[8.23324,46.94489],[8.23409,46.94487],[8.23461,46.94458],[8.23412,46.94368],[8.23463,46.94357],[8.23565,46.94294],[8.23638,46.94278],[8.23711,46.94284],[8.23749,46.94305],[8.23757,46.94337],[8.23812,46.94349],[8.23897,46.94237],[8.24103,46.94217],[8.24313,46.94162],[8.2443,46.94041],[8.24726,46.94027],[8.24928,46.93971],[8.25155,46.94019],[8.25301,46.93999],[8.25398,46.94032],[8.25576,46.94],[8.2568,46.94057],[8.26268,46.94153],[8.27373,46.94295],[8.27556,46.94341],[8.27686,46.94424],[8.27812,46.94565],[8.27855,46.94673],[8.28334,46.95342]]}},{"type":"Feature","properties":{"id":"dundelbach-ow","c":"OW","p":"patent","q":"derived","k":"river"},"geometry":{"type":"LineString","coordinates":[[8.10555,46.79307],[8.106,46.79334],[8.10774,46.79315],[8.10815,46.79257],[8.10904,46.79255],[8.10957,46.79225],[8.11037,46.79235],[8.11191,46.79215],[8.11253,46.7918],[8.11362,46.79186],[8.1141,46.79134],[8.11439,46.79147],[8.11477,46.79128],[8.11644,46.79112],[8.11684,46.79085],[8.11809,46.79064],[8.11898,46.79016],[8.12043,46.78997],[8.12193,46.79045],[8.12333,46.79024],[8.12483,46.79029],[8.12766,46.79101],[8.12801,46.79126],[8.13134,46.79192],[8.13312,46.79255],[8.13359,46.79241],[8.13509,46.7928],[8.13597,46.79262],[8.13686,46.79294],[8.13776,46.79226],[8.13864,46.79252],[8.14218,46.79112],[8.14222,46.79049],[8.14469,46.78988],[8.14574,46.78987],[8.14641,46.7895],[8.14712,46.7894],[8.14709,46.78889],[8.14742,46.78854],[8.14864,46.78843],[8.14948,46.78812]]}},{"type":"Feature","properties":{"id":"laui-ow","c":"OW","p":"patent","q":"derived","k":"river"},"geometry":{"type":"LineString","coordinates":[[8.10764,46.83661],[8.10978,46.83687],[8.1103,46.83713],[8.11121,46.83886],[8.11203,46.83939],[8.1124,46.83999],[8.11577,46.84104],[8.11658,46.84158],[8.11887,46.84175],[8.11979,46.84203],[8.12108,46.84295],[8.12151,46.84291],[8.12367,46.8438],[8.12467,46.84488],[8.12573,46.84512],[8.12868,46.84517],[8.1296,46.84464],[8.13214,46.84409],[8.13293,46.84416],[8.134,46.84457],[8.13528,46.84452],[8.13738,46.8448],[8.1383,46.84458],[8.13947,46.84494],[8.14035,46.84474],[8.14189,46.84539],[8.14285,46.84678],[8.14446,46.8471],[8.1466,46.84667],[8.14734,46.84673],[8.14782,46.84642],[8.14896,46.84502],[8.14952,46.84391],[8.15075,46.84294],[8.15169,46.84172],[8.15213,46.84153],[8.15223,46.84105],[8.1531,46.84026],[8.15331,46.83953],[8.15318,46.83871],[8.15361,46.838],[8.154,46.83777],[8.15426,46.83687],[8.15522,46.83587],[8.1559,46.83575],[8.15609,46.83539],[8.15687,46.83502],[8.15787,46.83506],[8.1585,46.83461],[8.16118,46.83391],[8.16236,46.83383],[8.16433,46.83421],[8.16501,46.83379],[8.16692,46.83345],[8.16844,46.83291],[8.16861,46.83236],[8.1695,46.83184],[8.17089,46.83192],[8.17156,46.83177],[8.17392,46.83242],[8.1766,46.83277],[8.18142,46.83439],[8.18295,46.83528],[8.18366,46.83612],[8.18398,46.83682],[8.18394,46.83847]]}},{"type":"Feature","properties":{"id":"mettenlaui-ow","c":"OW","p":"patent","q":"derived","k":"river"},"geometry":{"type":"LineString","coordinates":[[8.09764,46.8676],[8.09884,46.86682],[8.10047,46.86669],[8.10092,46.8664],[8.10234,46.86645],[8.10312,46.86618],[8.1042,46.86608],[8.10528,46.86566],[8.10647,46.8667],[8.1076,46.86678],[8.10917,46.86638],[8.1098,46.8666],[8.11011,46.86703],[8.11091,46.86654],[8.11141,46.86656],[8.11315,46.86589],[8.11356,46.86519],[8.11316,46.86516],[8.11304,46.86498],[8.11367,46.86425],[8.11455,46.8639],[8.11613,46.86369],[8.11659,46.86324],[8.11678,46.86236],[8.11613,46.86147],[8.11625,46.86136],[8.11521,46.86136],[8.11542,46.86108],[8.11504,46.86096],[8.11655,46.8595],[8.11858,46.85878],[8.11874,46.85786],[8.11909,46.85738],[8.12026,46.857],[8.12117,46.85692],[8.12178,46.85628],[8.12258,46.85585],[8.12393,46.85574],[8.12503,46.85509],[8.12575,46.85395],[8.12643,46.85379],[8.12699,46.85395],[8.12778,46.85365],[8.1286,46.85364],[8.13067,46.85273],[8.13522,46.85176],[8.13567,46.85153],[8.13589,46.85071],[8.1367,46.84996],[8.13853,46.84958],[8.1394,46.84956],[8.14193,46.84896],[8.14339,46.84779],[8.14402,46.84696]]}},{"type":"Feature","properties":{"id":"laetzengraben-ow","c":"OW","p":"patent","q":"derived","k":"river"},"geometry":{"type":"LineString","coordinates":[[8.0873,46.87269],[8.08548,46.87009],[8.0853,46.86942],[8.08544,46.86867],[8.085,46.86761],[8.08512,46.86675],[8.0847,46.86584],[8.08544,46.86464],[8.08591,46.86455],[8.08629,46.86423],[8.08612,46.86389],[8.08656,46.86371],[8.08641,46.8634],[8.08685,46.86274],[8.08671,46.86233],[8.08791,46.86141],[8.08801,46.86069],[8.08846,46.8605],[8.0889,46.8598],[8.09037,46.8593],[8.09218,46.85812],[8.09357,46.85815],[8.09523,46.85758],[8.09536,46.85712],[8.09595,46.85671],[8.0975,46.85444],[8.09805,46.85415],[8.09844,46.85358],[8.09836,46.85239],[8.09871,46.85193],[8.09938,46.85169],[8.0995,46.85122],[8.10188,46.8489],[8.1027,46.84863],[8.103,46.84805],[8.10407,46.84758],[8.10428,46.84694],[8.10619,46.84584],[8.10653,46.84495],[8.10637,46.84374],[8.10676,46.84342],[8.10672,46.84284],[8.10743,46.84172],[8.10869,46.84129],[8.11076,46.84104],[8.1124,46.83999]]}},{"type":"Feature","properties":{"id":"altibach-ow","c":"OW","p":"patent","q":"derived","k":"river"},"geometry":{"type":"LineString","coordinates":[[8.11487,46.79997],[8.11529,46.80064],[8.11583,46.80073],[8.11728,46.80148],[8.11846,46.80177],[8.11922,46.80239],[8.11925,46.80304],[8.12007,46.80386],[8.12058,46.80407],[8.12062,46.80459],[8.1216,46.80523],[8.12175,46.80592],[8.12213,46.80619],[8.12212,46.80664],[8.12261,46.80725],[8.12322,46.8073],[8.1236,46.80772],[8.12488,46.80792],[8.12614,46.80759],[8.12824,46.80814],[8.1291,46.8088],[8.13058,46.80935],[8.131,46.80979],[8.13172,46.80993],[8.1324,46.81173],[8.13436,46.81233],[8.1352,46.81286],[8.13578,46.81294],[8.13639,46.81346],[8.13646,46.81377],[8.13682,46.81375],[8.13792,46.8142],[8.13957,46.81409],[8.14196,46.81495],[8.14274,46.81541],[8.14338,46.81625],[8.14333,46.81666],[8.14469,46.81793],[8.14566,46.81963],[8.14763,46.82082],[8.14797,46.82128],[8.14888,46.82166],[8.14891,46.82216],[8.15035,46.82303],[8.15119,46.82535],[8.15265,46.82618],[8.15304,46.82664],[8.15445,46.82735],[8.15485,46.82825],[8.15569,46.82882],[8.15638,46.82889],[8.15684,46.82935],[8.15779,46.82957],[8.15815,46.8301],[8.15976,46.83147],[8.16161,46.83236],[8.16314,46.8324],[8.16465,46.8321],[8.16628,46.83203],[8.16793,46.83246],[8.16861,46.83236]]}},{"type":"Feature","properties":{"id":"steinibach-ow","c":"OW","p":"patent","q":"derived","k":"river"},"geometry":{"type":"LineString","coordinates":[[8.09316,46.8824],[8.09439,46.88218],[8.09731,46.88238],[8.09864,46.8833],[8.09927,46.88331],[8.09953,46.8841],[8.1007,46.88447],[8.10168,46.88541],[8.10161,46.88572],[8.10185,46.88592],[8.10343,46.88653],[8.10449,46.88717],[8.10574,46.88748],[8.10652,46.88796],[8.10783,46.88813],[8.11053,46.88734],[8.11195,46.8867],[8.11252,46.88618],[8.11338,46.88583],[8.11378,46.88541],[8.11382,46.88496],[8.11448,46.88484],[8.11522,46.8842],[8.11521,46.88376],[8.11565,46.88358],[8.11614,46.88384],[8.11697,46.88388],[8.11711,46.88435],[8.11746,46.88452],[8.11901,46.88482],[8.11977,46.88579],[8.12063,46.88618],[8.12121,46.88679],[8.12389,46.88716],[8.12506,46.88765],[8.1259,46.88764],[8.12838,46.88697],[8.12949,46.88778],[8.13,46.88721],[8.1301,46.88632],[8.13098,46.88639],[8.13119,46.88705],[8.13315,46.88691],[8.13363,46.88632],[8.13337,46.88598],[8.13354,46.88523],[8.13448,46.88486],[8.1357,46.8835],[8.1364,46.88311],[8.13686,46.88307],[8.13705,46.88268],[8.13832,46.88176],[8.1386,46.88096],[8.14132,46.87918],[8.14247,46.87882],[8.14318,46.87807],[8.14348,46.87722],[8.14724,46.8756],[8.14947,46.87529],[8.15092,46.87556],[8.15233,46.87478],[8.15371,46.87461],[8.15426,46.87436],[8.15568,46.87343],[8.15788,46.87235],[8.15884,46.87035],[8.16058,46.86995],[8.1609,46.86872],[8.16272,46.86897],[8.16492,46.86857],[8.16586,46.86887],[8.16812,46.86815],[8.16938,46.86811],[8.17072,46.86698],[8.17153,46.86701],[8.17236,46.86654],[8.17357,46.86631],[8.174,46.86566],[8.17611,46.86375],[8.17747,46.86265],[8.17981,46.86138],[8.18,46.86101],[8.18089,46.86078],[8.18108,46.8605],[8.18198,46.86024],[8.18376,46.85916],[8.18547,46.8586],[8.1871,46.85778],[8.18909,46.85724],[8.19019,46.85652]]}},{"type":"Feature","properties":{"id":"gerisbach-ow","c":"OW","p":"patent","q":"derived","k":"river"},"geometry":{"type":"LineString","coordinates":[[8.1539,46.89793],[8.15583,46.89871],[8.15633,46.89873],[8.15687,46.89799],[8.1596,46.8971],[8.16124,46.89613],[8.16253,46.89593],[8.16321,46.89531],[8.16345,46.89449],[8.16395,46.89405],[8.16684,46.89234],[8.16808,46.89189],[8.16856,46.89089],[8.16934,46.89081],[8.17049,46.88959],[8.1737,46.888],[8.17638,46.88754],[8.17835,46.88807],[8.1802,46.88761],[8.1814,46.88696],[8.18208,46.88592],[8.18264,46.88546],[8.18186,46.88436],[8.1818,46.88368],[8.18073,46.88336],[8.18046,46.88256],[8.1793,46.88235],[8.17934,46.88184],[8.17869,46.88092],[8.17897,46.88059],[8.17832,46.88006],[8.17836,46.87955],[8.17799,46.8789],[8.17842,46.87867],[8.17861,46.87807],[8.17972,46.87666],[8.18122,46.87589],[8.18182,46.87584],[8.18288,46.87503],[8.1848,46.87472],[8.18569,46.87414],[8.1858,46.87363],[8.18491,46.87318],[8.18491,46.87268],[8.18422,46.87166],[8.1844,46.87005],[8.18399,46.86896],[8.18445,46.86846],[8.18484,46.86723],[8.18558,46.86673],[8.18552,46.86654],[8.18617,46.86631],[8.18643,46.86602],[8.18636,46.86532],[8.18666,46.86481],[8.18617,46.86433],[8.18619,46.86398],[8.1865,46.86381],[8.18656,46.86325],[8.18731,46.86246],[8.18732,46.86208],[8.18975,46.86153],[8.19095,46.86075],[8.1924,46.8594]]}},{"type":"Feature","properties":{"id":"schwandbach-ow","c":"OW","p":"patent","q":"derived","k":"river"},"geometry":{"type":"LineString","coordinates":[[8.17375,46.9084],[8.17594,46.90696],[8.17622,46.90588],[8.17709,46.90546],[8.17798,46.90459],[8.17803,46.90409],[8.1794,46.90275],[8.18057,46.90217],[8.18161,46.90193],[8.18215,46.90216],[8.18368,46.90216],[8.18392,46.90169],[8.18515,46.90094],[8.18587,46.9008],[8.18623,46.90036],[8.18679,46.90015],[8.18726,46.89955],[8.1878,46.89942],[8.18831,46.89897],[8.18973,46.89841],[8.18995,46.89808],[8.19116,46.89754],[8.19098,46.89635],[8.19063,46.89588],[8.19078,46.89545],[8.19172,46.89514],[8.19262,46.89396],[8.19392,46.89379],[8.19447,46.89347],[8.19468,46.89281],[8.19509,46.89261],[8.19504,46.8923],[8.19545,46.89204],[8.19535,46.89101],[8.19466,46.89064],[8.19451,46.89015],[8.19395,46.88963],[8.19306,46.88916],[8.19354,46.88858],[8.19474,46.88807],[8.19881,46.88494],[8.19966,46.88448],[8.20091,46.88424],[8.20319,46.88476],[8.20504,46.8845],[8.20642,46.88462],[8.20699,46.88471],[8.20704,46.88503],[8.20845,46.88551],[8.20879,46.88545],[8.20929,46.88567],[8.21134,46.88566],[8.21277,46.88504],[8.21365,46.88431],[8.21429,46.88347],[8.2145,46.88278],[8.21674,46.88094],[8.21766,46.8805],[8.21799,46.87965],[8.21948,46.87814],[8.22043,46.87755],[8.22281,46.8769]]}},{"type":"Feature","properties":{"id":"edisriedbach-ow","c":"OW","p":"patent","q":"derived","k":"river"},"geometry":{"type":"LineString","coordinates":[[8.24715,46.84027],[8.244,46.84322],[8.24362,46.84342],[8.24205,46.84353],[8.24059,46.84402],[8.23931,46.84559],[8.23768,46.84638],[8.23707,46.8472],[8.23704,46.84846],[8.23664,46.85001],[8.23457,46.85275],[8.23419,46.85414],[8.23232,46.85502],[8.23014,46.85667],[8.2299,46.85745],[8.23021,46.8586],[8.22933,46.85949],[8.2289,46.86047],[8.22952,46.86251],[8.22998,46.86312],[8.22944,46.86486],[8.22813,46.8664]]}},{"type":"Feature","properties":{"id":"wolfisalpbach-ow","c":"OW","p":"patent","q":"derived","k":"river"},"geometry":{"type":"LineString","coordinates":[[8.32744,46.80433],[8.32673,46.80468],[8.32588,46.80462],[8.32487,46.80484],[8.32404,46.80534],[8.32066,46.80511],[8.31925,46.80523],[8.31846,46.80498],[8.31629,46.80471],[8.3157,46.80447],[8.31387,46.80457],[8.30835,46.80249],[8.30664,46.80211],[8.30352,46.80184],[8.30191,46.8013],[8.30006,46.80197],[8.29875,46.80202],[8.29627,46.80294],[8.2947,46.80309],[8.2936,46.80252],[8.29222,46.8025],[8.2915,46.80261],[8.28999,46.80343],[8.28763,46.80321],[8.28514,46.80366]]}},{"type":"Feature","properties":{"id":"cheselenbach-ow","c":"OW","p":"patent","q":"derived","k":"river"},"geometry":{"type":"LineString","coordinates":[[8.25416,46.77126],[8.25592,46.77109],[8.25639,46.77129],[8.25663,46.77218],[8.25641,46.77264],[8.25687,46.7731],[8.2568,46.77546],[8.25576,46.77599],[8.255,46.77577],[8.25434,46.77582],[8.25244,46.77715],[8.25158,46.77809],[8.25343,46.77937],[8.25379,46.77991],[8.25537,46.78038],[8.25601,46.78078],[8.2564,46.78162],[8.2589,46.78236],[8.25946,46.78289],[8.25962,46.78338],[8.26051,46.7835],[8.26079,46.78454],[8.26194,46.78515],[8.26222,46.78587],[8.26218,46.78693],[8.26293,46.78802],[8.26266,46.78866],[8.26306,46.78987],[8.26301,46.79041],[8.26371,46.79074],[8.26524,46.79109],[8.26614,46.79106],[8.26785,46.79177],[8.26855,46.79309],[8.26819,46.79346],[8.2684,46.79382],[8.26801,46.79443],[8.26805,46.79489],[8.26893,46.7964],[8.27024,46.7978],[8.27131,46.79853],[8.27329,46.799],[8.27402,46.79989],[8.27475,46.80037],[8.27574,46.8006],[8.27698,46.8004],[8.27862,46.80083],[8.27935,46.80127],[8.28115,46.80152],[8.28192,46.80139],[8.28233,46.80171],[8.28293,46.80161],[8.28333,46.80189],[8.2849,46.80203]]}},{"type":"Feature","properties":{"id":"kleine-melchaa-ow","c":"OW","p":"patent","q":"derived","k":"river"},"geometry":{"type":"LineString","coordinates":[[8.23129,46.76465],[8.22985,46.7649],[8.22888,46.76542],[8.22747,46.76545],[8.22672,46.76571],[8.22459,46.76532],[8.2241,46.76582],[8.22298,46.76637],[8.22276,46.76679],[8.22168,46.7674],[8.22087,46.76857],[8.21919,46.7693],[8.21917,46.77005],[8.21828,46.77118],[8.21786,46.77138],[8.21795,46.77192],[8.21774,46.77226],[8.2172,46.7728],[8.21516,46.77381],[8.214,46.77524],[8.21379,46.77651],[8.2133,46.77718],[8.21199,46.77767],[8.21105,46.77829],[8.21011,46.77987],[8.21023,46.7805],[8.20967,46.78171],[8.20909,46.78201],[8.2077,46.78371],[8.20718,46.78389],[8.20744,46.78456],[8.20703,46.78515],[8.20773,46.78583],[8.20753,46.78642],[8.20799,46.78775],[8.20853,46.78803],[8.20848,46.78872],[8.20931,46.79083],[8.20918,46.79179],[8.20981,46.79302],[8.20952,46.79325],[8.20967,46.79378],[8.21012,46.79419],[8.21063,46.79557],[8.21109,46.79576],[8.21195,46.79659],[8.21305,46.79819],[8.2128,46.79937],[8.2123,46.7996],[8.21215,46.79992],[8.21272,46.80246],[8.21441,46.80406],[8.21484,46.80572],[8.21478,46.80636],[8.2156,46.80679],[8.21553,46.80721],[8.21594,46.80777],[8.21595,46.80825],[8.21663,46.80894],[8.21633,46.81026],[8.21652,46.81217],[8.21585,46.81272],[8.21578,46.81328],[8.21524,46.81394],[8.21577,46.81505],[8.2157,46.8157],[8.21603,46.81613],[8.21567,46.81724],[8.21463,46.81781],[8.21441,46.81837],[8.21354,46.81892],[8.21371,46.81933],[8.21288,46.82073],[8.21202,46.82153],[8.21184,46.82198],[8.21066,46.82261],[8.21055,46.82311],[8.21017,46.82331],[8.21058,46.82374],[8.21022,46.82473],[8.20857,46.82584],[8.20927,46.82645],[8.20883,46.82754],[8.20783,46.82838],[8.20555,46.8293],[8.20435,46.82956],[8.204,46.83019],[8.20349,46.8304],[8.20406,46.83129],[8.20352,46.83203],[8.20236,46.83262],[8.20199,46.83421],[8.20115,46.83422],[8.20068,46.83484],[8.19848,46.83606],[8.19763,46.83681],[8.1964,46.8372],[8.19603,46.8379],[8.19495,46.83874],[8.19214,46.83909],[8.19115,46.83892],[8.1877,46.83778],[8.18498,46.83795],[8.18386,46.83869]]}},{"type":"Feature","properties":{"id":"baerenbach-ow","c":"OW","p":"patent","q":"derived","k":"river"},"geometry":{"type":"MultiLineString","coordinates":[[[8.42328,46.82398],[8.42102,46.82148],[8.41912,46.8205],[8.41832,46.81943],[8.41719,46.81913],[8.41574,46.81844],[8.41259,46.81649],[8.41167,46.81623]],[[8.443,46.84732],[8.44197,46.84736],[8.44072,46.84673],[8.43947,46.84521],[8.43943,46.84432],[8.43909,46.84364],[8.43829,46.84307],[8.43838,46.84097],[8.43794,46.8404],[8.43823,46.83856],[8.43755,46.83822],[8.43728,46.83782],[8.43642,46.83751],[8.43566,46.83669],[8.43546,46.83507],[8.43578,46.83469],[8.43517,46.83412],[8.43507,46.83315],[8.43386,46.83268],[8.43341,46.83212],[8.43217,46.83136],[8.42928,46.83039],[8.4279,46.82932],[8.42731,46.82735],[8.42605,46.82649],[8.42543,46.82557],[8.42458,46.82545],[8.42389,46.82496]]]}},{"type":"Feature","properties":{"id":"kernmattbach-ow","c":"OW","p":"patent","q":"derived","k":"river"},"geometry":{"type":"LineString","coordinates":[[8.32565,46.88422],[8.32434,46.8846],[8.32333,46.88512],[8.31996,46.88555],[8.31812,46.88647],[8.31715,46.88745],[8.31598,46.88759],[8.31534,46.88799],[8.31449,46.88786],[8.3123,46.88807],[8.31137,46.88792],[8.30895,46.88814],[8.30637,46.88899],[8.30545,46.88946],[8.30351,46.88959],[8.30298,46.89004],[8.3021,46.89029],[8.30124,46.89029],[8.30055,46.89066],[8.30013,46.89191],[8.299,46.89284],[8.29782,46.8929],[8.29634,46.89356],[8.29599,46.89416],[8.29499,46.89472],[8.29473,46.89531],[8.29489,46.89613],[8.29305,46.8971],[8.29275,46.89837],[8.29317,46.90043],[8.29253,46.90145],[8.29166,46.90187],[8.29194,46.90228],[8.29178,46.90279],[8.29147,46.90297],[8.29169,46.90313],[8.29137,46.9038],[8.29177,46.90451],[8.29191,46.90644],[8.29032,46.90834],[8.28807,46.90971],[8.28741,46.90975],[8.28435,46.90852],[8.28321,46.90863],[8.28079,46.90831],[8.27875,46.90837],[8.27724,46.90793],[8.27557,46.90858],[8.27361,46.90873],[8.27321,46.90897],[8.27141,46.90885],[8.27075,46.90916],[8.27005,46.90918],[8.26802,46.90857],[8.26671,46.9084],[8.26461,46.90749],[8.26417,46.90747],[8.26213,46.90798],[8.26146,46.90894],[8.26167,46.91025],[8.26197,46.91086],[8.26257,46.91124],[8.26258,46.91176]]}},{"type":"Feature","properties":{"id":"bitzighoferbach-ow","c":"OW","p":"patent","q":"derived","k":"river"},"geometry":{"type":"LineString","coordinates":[[8.19958,46.91012],[8.2013,46.91041],[8.2023,46.91031],[8.20299,46.90984],[8.2036,46.90969],[8.20418,46.90966],[8.20476,46.90987],[8.20669,46.90959],[8.2081,46.90918],[8.20894,46.90857],[8.21033,46.90821],[8.21233,46.90709],[8.21363,46.90733],[8.2157,46.90696],[8.21688,46.90695],[8.22003,46.90584],[8.22159,46.9045],[8.22273,46.90414],[8.2229,46.90363],[8.22264,46.90317],[8.22314,46.90244],[8.22315,46.90164],[8.22424,46.90081],[8.22434,46.90025],[8.22482,46.9],[8.22529,46.89938],[8.22675,46.89918],[8.22746,46.89885],[8.2282,46.89891],[8.23195,46.89845],[8.23388,46.89941],[8.23546,46.89948],[8.23586,46.90053],[8.23783,46.902],[8.2388,46.90207],[8.23959,46.90235],[8.24155,46.90233],[8.2423,46.90253],[8.24519,46.90473],[8.24769,46.90426],[8.25015,46.90281]]}},{"type":"Feature","properties":{"id":"grosse-schliere-ow","c":"OW","p":"patent","q":"derived","k":"river"},"geometry":{"type":"LineString","coordinates":[[8.11459,46.89328],[8.11508,46.89304],[8.11683,46.89297],[8.11956,46.89354],[8.12008,46.89393],[8.12253,46.89486],[8.12304,46.89528],[8.12405,46.89543],[8.1241,46.8959],[8.12458,46.89613],[8.12513,46.89702],[8.12577,46.89704],[8.12614,46.89746],[8.12663,46.89746],[8.12723,46.8981],[8.12755,46.89804],[8.12789,46.8983],[8.12973,46.89884],[8.13003,46.8992],[8.12992,46.89958],[8.13021,46.89981],[8.12997,46.90035],[8.12963,46.90036],[8.12953,46.90053],[8.12992,46.9007],[8.1304,46.90059],[8.1308,46.90087],[8.13026,46.9011],[8.13036,46.90157],[8.13151,46.90172],[8.13204,46.90229],[8.13331,46.90216],[8.13343,46.9026],[8.13424,46.90307],[8.1343,46.90363],[8.13467,46.90382],[8.13427,46.90412],[8.13429,46.90443],[8.13534,46.90459],[8.13582,46.90502],[8.13613,46.90467],[8.13648,46.90487],[8.13671,46.90538],[8.1371,46.90528],[8.13768,46.90544],[8.13788,46.90581],[8.13752,46.90602],[8.13754,46.90623],[8.13838,46.90623],[8.13864,46.9066],[8.13932,46.90696],[8.14012,46.90653],[8.14034,46.90733],[8.14131,46.90763],[8.14158,46.90842],[8.14226,46.90878],[8.14272,46.90944],[8.14549,46.91118],[8.14575,46.91181],[8.14791,46.91231],[8.14826,46.91283],[8.14954,46.91261],[8.15008,46.91283],[8.15079,46.9139],[8.15214,46.91493],[8.15254,46.91588],[8.1534,46.91632],[8.15455,46.91834],[8.15567,46.91885],[8.156,46.91922],[8.15668,46.91943],[8.15712,46.91993],[8.15964,46.92091],[8.16034,46.92135],[8.16131,46.92239],[8.16317,46.92259],[8.1641,46.92235],[8.16527,46.92283],[8.16655,46.92297],[8.16781,46.9234],[8.1697,46.92314],[8.17111,46.92395],[8.172,46.92356],[8.17313,46.92381],[8.17574,46.92387],[8.1779,46.92446],[8.17869,46.9251],[8.18031,46.92532],[8.18155,46.92522],[8.18275,46.92557],[8.18364,46.92511],[8.18424,46.92511],[8.18474,46.92545],[8.18552,46.92531],[8.18587,46.92495],[8.18697,46.92549],[8.18768,46.92555],[8.19013,46.92509],[8.19108,46.92574],[8.19347,46.92526],[8.19499,46.92535],[8.19573,46.92615],[8.19636,46.92608],[8.19791,46.92632],[8.19825,46.92712],[8.19947,46.92812],[8.20043,46.92855],[8.20244,46.92837],[8.20503,46.92927],[8.20607,46.92878],[8.20705,46.92878],[8.20773,46.92888],[8.20876,46.92942],[8.21005,46.92953],[8.2119,46.92905],[8.21255,46.92911],[8.21305,46.92958],[8.21453,46.92969],[8.21538,46.93016],[8.21608,46.93069],[8.21687,46.93186],[8.21801,46.93183],[8.21893,46.93155],[8.22012,46.93201],[8.22044,46.9323],[8.22162,46.93241],[8.22251,46.9322],[8.2238,46.93243],[8.2254,46.93201],[8.22659,46.93214],[8.22695,46.93264],[8.22733,46.93278],[8.22933,46.93235],[8.23025,46.93272],[8.23126,46.93398],[8.23229,46.93379],[8.23537,46.93393],[8.23625,46.93365],[8.23716,46.93369],[8.23795,46.93309],[8.23859,46.93304],[8.23955,46.93326],[8.24144,46.93437],[8.2433,46.93389],[8.24599,46.93432],[8.24736,46.93418],[8.24923,46.9332],[8.25062,46.93283],[8.25109,46.93237],[8.25318,46.9315],[8.25429,46.9308],[8.2549,46.93068],[8.25586,46.92988],[8.25692,46.92969],[8.25865,46.92883],[8.26068,46.9286],[8.26102,46.92831],[8.26222,46.9285],[8.26268,46.92824],[8.26373,46.92829],[8.26454,46.92791],[8.26581,46.92796],[8.26994,46.92731],[8.27169,46.92733],[8.27394,46.92785],[8.2757,46.92874],[8.27747,46.92983],[8.27802,46.93068],[8.27917,46.93112],[8.27987,46.93164],[8.28142,46.93368],[8.28314,46.93426]]}},{"type":"Feature","properties":{"id":"schwandschliere-ow","c":"OW","p":"patent","q":"derived","k":"river"},"geometry":{"type":"LineString","coordinates":[[8.16802,46.94242],[8.16944,46.94402],[8.17134,46.94466],[8.17227,46.94461],[8.17292,46.94506],[8.17426,46.94527],[8.17614,46.94633],[8.17692,46.94653],[8.17724,46.94686],[8.17796,46.94668],[8.17859,46.94694],[8.18018,46.94681],[8.18078,46.94737],[8.18209,46.94717],[8.18286,46.9475],[8.18321,46.94743],[8.18352,46.94774],[8.18435,46.94793],[8.18533,46.94868],[8.18662,46.95016],[8.18722,46.95041],[8.18807,46.9503],[8.18902,46.94939],[8.19,46.94966],[8.19086,46.9496],[8.19247,46.9504],[8.19351,46.95045],[8.19423,46.95089],[8.19551,46.95105],[8.19649,46.95094],[8.19667,46.9511],[8.19793,46.95121],[8.20003,46.95187],[8.20079,46.95237],[8.20213,46.95238],[8.20301,46.95274],[8.20588,46.95321],[8.20645,46.9532],[8.20691,46.95291],[8.20753,46.9532],[8.20811,46.95322],[8.20844,46.95246],[8.20956,46.95265],[8.20982,46.95202],[8.21104,46.95173],[8.21097,46.95153],[8.21129,46.95127],[8.2118,46.95149],[8.21507,46.95063],[8.21624,46.95066],[8.2168,46.95022],[8.21774,46.94991],[8.21908,46.95036],[8.2206,46.9498],[8.22133,46.94932]]}},{"type":"Feature","properties":{"id":"unterwengengraben-ow","c":"OW","p":"patent","q":"derived","k":"river"},"geometry":{"type":"LineString","coordinates":[[8.06139,46.82937],[8.063,46.8296],[8.06455,46.82937],[8.06595,46.82948],[8.06986,46.82895],[8.07134,46.82947],[8.07154,46.82985],[8.07268,46.83038],[8.07289,46.83085],[8.0752,46.83171],[8.07833,46.83203],[8.07912,46.83183],[8.07999,46.83211],[8.08192,46.83162],[8.08243,46.83105],[8.083,46.83105],[8.0863,46.82959],[8.08781,46.82964],[8.08875,46.82938],[8.09034,46.83023],[8.09106,46.83026],[8.09217,46.83089],[8.09248,46.83133],[8.094,46.83132],[8.09515,46.83253],[8.096,46.83258],[8.09683,46.83312],[8.09759,46.83293],[8.09857,46.83381],[8.0992,46.83406],[8.09971,46.83467],[8.10024,46.83479],[8.10138,46.83459],[8.1042,46.83482],[8.10537,46.83548],[8.10715,46.83587],[8.10761,46.83629],[8.10764,46.83661]]}},{"type":"Feature","properties":{"id":"maienbach-ow","c":"OW","p":"patent","q":"derived","k":"river"},"geometry":{"type":"LineString","coordinates":[[8.23503,46.83283],[8.23381,46.83364],[8.23283,46.834],[8.23141,46.83531],[8.2301,46.83599],[8.22906,46.83688],[8.22818,46.83803],[8.22738,46.84047],[8.22672,46.84166],[8.22682,46.84301],[8.22603,46.84578],[8.2256,46.84632],[8.22591,46.84709],[8.22763,46.84784],[8.22775,46.84901],[8.22751,46.84991],[8.22647,46.85139],[8.2257,46.85185],[8.22168,46.85259],[8.22102,46.85295],[8.22092,46.85408],[8.22146,46.85493],[8.22117,46.85531],[8.22222,46.85711],[8.22177,46.85783],[8.22036,46.85893],[8.21884,46.86075]]}}]}