{"type":"FeatureCollection","features":[{"type":"Feature","properties":{"id":"kraftwerk-wasser-fischereiverbot-sh","c":"SH","p":"closed","q":"official","k":"reach"},"geometry":{"type":"Polygon","coordinates":[[[8.63225,47.69235],[8.63138,47.69229],[8.63094,47.69247],[8.62925,47.6924],[8.62866,47.69226],[8.62816,47.69227],[8.62808,47.69239],[8.62606,47.69155],[8.62545,47.69241],[8.62612,47.69261],[8.63004,47.69329],[8.63012,47.69292],[8.62993,47.69287],[8.63084,47.69295],[8.63071,47.69299],[8.63063,47.69337],[8.63103,47.6934],[8.63209,47.69334],[8.63225,47.69235]]]}},{"type":"Feature","properties":{"id":"rheinfall-wasser-sh","c":"SH","p":"unknown","q":"stub","k":"reach"},"geometry":{"type":"Polygon","coordinates":[[[8.61513,47.67889],[8.61599,47.67869],[8.6162,47.67859],[8.6163,47.67871],[8.61665,47.67853],[8.61698,47.67785],[8.61744,47.67746],[8.61584,47.67681],[8.61506,47.67733],[8.61456,47.67745],[8.61418,47.67696],[8.61263,47.6763],[8.61165,47.67547],[8.61116,47.67468],[8.61084,47.67357],[8.61007,47.67369],[8.60868,47.66813],[8.60883,47.66677],[8.60979,47.66462],[8.61042,47.66398],[8.61202,47.66286],[8.61456,47.66157],[8.61374,47.6612],[8.61202,47.66207],[8.61063,47.66298],[8.60952,47.66392],[8.60896,47.66479],[8.60795,47.66764],[8.60836,47.67014],[8.609,47.67189],[8.60897,47.67251],[8.60965,47.67547],[8.61033,47.67683],[8.61066,47.67722],[8.61088,47.67721],[8.61124,47.67798],[8.61178,47.67852],[8.61191,47.67843],[8.61164,47.67875],[8.61258,47.67962],[8.61297,47.67979],[8.61374,47.67987],[8.61435,47.67966],[8.61513,47.67889]],[[8.61504,47.67893],[8.6149,47.67875],[8.6155,47.67871],[8.61514,47.67885],[8.61504,47.67893]],[[8.61198,47.67813],[8.61143,47.67782],[8.61128,47.6772],[8.61144,47.67757],[8.6117,47.67764],[8.61206,47.67801],[8.61198,47.67813]],[[8.616,47.6786],[8.61606,47.67857],[8.61602,47.67864],[8.616,47.6786]],[[8.61556,47.67861],[8.61489,47.6786],[8.6148,47.67851],[8.61505,47.67843],[8.61538,47.6785],[8.61563,47.67833],[8.61578,47.67848],[8.61556,47.67861]],[[8.61497,47.67801],[8.61495,47.67789],[8.61506,47.67797],[8.61497,47.67801]],[[8.61469,47.67804],[8.6149,47.67802],[8.61492,47.67824],[8.61463,47.67818],[8.61469,47.67804]],[[8.61191,47.67839],[8.61194,47.67814],[8.61197,47.67814],[8.61191,47.67839]]]}},{"type":"Feature","properties":{"id":"badeanstalt-wasser-sh","c":"SH","p":"unknown","q":"stub","k":"reach"},"geometry":{"type":"Polygon","coordinates":[[[8.64175,47.69447],[8.64377,47.69425],[8.64352,47.69515],[8.64196,47.69531],[8.64067,47.69525],[8.6389,47.69448],[8.6357,47.69348],[8.63209,47.69334],[8.63225,47.69235],[8.63435,47.69247],[8.63539,47.69279],[8.63776,47.69318],[8.64003,47.69401],[8.64175,47.69447]]]}},{"type":"Feature","properties":{"id":"ruedlinger-wasser-unterer-teil-sh","c":"SH","p":"unknown","q":"stub","k":"reach"},"geometry":{"type":"Polygon","coordinates":[[[8.57382,47.58615],[8.57471,47.58589],[8.57466,47.58444],[8.57496,47.5839],[8.57512,47.58378],[8.57544,47.58386],[8.57586,47.58343],[8.57629,47.58323],[8.57626,47.58296],[8.57541,47.58344],[8.57633,47.58267],[8.57672,47.58268],[8.57716,47.58206],[8.57648,47.58362],[8.5762,47.58557],[8.57803,47.58555],[8.57817,47.58418],[8.5791,47.58157],[8.58025,47.57984],[8.58099,47.57831],[8.58107,47.5773],[8.58085,47.57654],[8.58037,47.57609],[8.57976,47.57577],[8.5787,47.57682],[8.5793,47.57722],[8.57947,47.57793],[8.57918,47.57799],[8.57939,47.57814],[8.57927,47.57847],[8.57729,47.5818],[8.57826,47.58013],[8.57801,47.57999],[8.57431,47.58285],[8.5737,47.58363],[8.5734,47.58471],[8.57352,47.58559],[8.57382,47.58615]]]}},{"type":"Feature","properties":{"id":"buchhalde-wasser-sh","c":"SH","p":"unknown","q":"stub","k":"reach"},"geometry":{"type":"Polygon","coordinates":[[[8.62602,47.68225],[8.62713,47.68256],[8.62838,47.68067],[8.62821,47.67946],[8.62762,47.67874],[8.62701,47.67747],[8.62468,47.67607],[8.62151,47.6749],[8.62038,47.6746],[8.61939,47.67443],[8.61827,47.67442],[8.61754,47.67509],[8.61665,47.67553],[8.61676,47.67523],[8.61787,47.67459],[8.61757,47.67466],[8.61664,47.67518],[8.61655,47.67556],[8.61596,47.67609],[8.61583,47.67648],[8.61584,47.67681],[8.61744,47.67746],[8.618,47.67696],[8.61796,47.67656],[8.61868,47.67587],[8.62001,47.67572],[8.62384,47.67673],[8.62542,47.67762],[8.6262,47.67881],[8.62653,47.67988],[8.62648,47.68134],[8.62602,47.68225]],[[8.62144,47.67598],[8.62143,47.67587],[8.62155,47.67591],[8.62144,47.67598]]]}},{"type":"Feature","properties":{"id":"rheinhalden-wasser-sh","c":"SH","p":"unknown","q":"stub","k":"reach"},"geometry":{"type":"Polygon","coordinates":[[[8.66246,47.68651],[8.65596,47.68905],[8.65459,47.68988],[8.65183,47.69198],[8.65179,47.69212],[8.65032,47.69289],[8.64593,47.69454],[8.64352,47.69515],[8.64377,47.69425],[8.64489,47.69402],[8.64622,47.69349],[8.64834,47.69207],[8.65146,47.69068],[8.65412,47.68885],[8.65475,47.68867],[8.65496,47.68835],[8.65538,47.68811],[8.66079,47.68577],[8.66314,47.6853],[8.66369,47.68628],[8.66246,47.68651]]]}},{"type":"Feature","properties":{"id":"buesinger-wasser-sh","c":"SH","p":"unknown","q":"stub","k":"reach"},"geometry":{"type":"Polygon","coordinates":[[[8.69939,47.69414],[8.69832,47.69263],[8.69705,47.69302],[8.69627,47.69307],[8.69165,47.6945],[8.69083,47.69463],[8.69004,47.69458],[8.68939,47.69434],[8.68705,47.69175],[8.68497,47.6903],[8.6849,47.69007],[8.68542,47.68972],[8.68456,47.69],[8.68225,47.689],[8.68054,47.68802],[8.6796,47.68725],[8.67759,47.68636],[8.67555,47.68584],[8.67264,47.68457],[8.6709,47.68405],[8.66992,47.68407],[8.66611,47.68487],[8.66314,47.6853],[8.66369,47.68628],[8.66481,47.68623],[8.66856,47.68559],[8.67024,47.68568],[8.67159,47.68592],[8.67537,47.68726],[8.67738,47.68774],[8.67947,47.68916],[8.68087,47.69031],[8.68444,47.69212],[8.68523,47.69283],[8.68688,47.69494],[8.68842,47.6958],[8.69018,47.69625],[8.69214,47.69597],[8.695,47.6949],[8.69817,47.69399],[8.69887,47.69404],[8.6997,47.69451],[8.70019,47.69459],[8.69939,47.69414]]]}},{"type":"Feature","properties":{"id":"ruedlinger-wasser-oberer-teil-sh","c":"SH","p":"unknown","q":"stub","k":"reach"},"geometry":{"type":"Polygon","coordinates":[[[8.58125,47.59315],[8.58184,47.59337],[8.58195,47.5933],[8.58142,47.59303],[8.58125,47.59315]]]}},{"type":"Feature","properties":{"id":"ruedlinger-wasser-oberer-teil-sh-2","c":"SH","p":"unknown","q":"stub","k":"reach"},"geometry":{"type":"Polygon","coordinates":[[[8.5767,47.58819],[8.57749,47.58961],[8.57852,47.59084],[8.57981,47.59196],[8.58108,47.5928],[8.5825,47.59352],[8.58423,47.59418],[8.58889,47.59526],[8.58981,47.59415],[8.58883,47.59382],[8.58502,47.59303],[8.5827,47.59215],[8.58095,47.5909],[8.57961,47.58963],[8.57876,47.58835],[8.57821,47.58716],[8.57803,47.58555],[8.5762,47.58557],[8.57635,47.58708],[8.5767,47.58819]]]}},{"type":"Feature","properties":{"id":"ruedlinger-wasser-oberer-teil-sh-3","c":"SH","p":"unknown","q":"stub","k":"reach"},"geometry":{"type":"Polygon","coordinates":[[[8.57547,47.5885],[8.57551,47.58864],[8.57531,47.58875],[8.57551,47.58913],[8.57602,47.58903],[8.576,47.58895],[8.57661,47.58919],[8.577,47.5891],[8.57697,47.58885],[8.57665,47.58886],[8.57671,47.58876],[8.57642,47.5887],[8.57677,47.58846],[8.57639,47.58749],[8.57523,47.58692],[8.57459,47.58596],[8.57383,47.5862],[8.57495,47.58832],[8.57547,47.5885]]]}},{"type":"Feature","properties":{"id":"ruedlinger-wasser-oberer-teil-sh-4","c":"SH","p":"unknown","q":"stub","k":"reach"},"geometry":{"type":"Polygon","coordinates":[[[8.57605,47.58909],[8.57554,47.58918],[8.57555,47.58936],[8.57615,47.59029],[8.57696,47.59102],[8.57892,47.59215],[8.58122,47.59312],[8.58132,47.59297],[8.5797,47.59195],[8.57944,47.59191],[8.5793,47.59173],[8.57846,47.5914],[8.5776,47.59084],[8.5772,47.59096],[8.57745,47.59074],[8.57659,47.58993],[8.57605,47.58909]]]}},{"type":"Feature","properties":{"id":"zunft-wasser-sh","c":"SH","p":"unknown","q":"stub","k":"reach"},"geometry":{"type":"Polygon","coordinates":[[[8.71734,47.69151],[8.71842,47.68985],[8.71786,47.6897],[8.71763,47.68952],[8.71528,47.689],[8.71341,47.68889],[8.71219,47.68869],[8.7085,47.68859],[8.70399,47.68963],[8.70187,47.69119],[8.70018,47.69189],[8.69901,47.69215],[8.69832,47.69263],[8.69939,47.69414],[8.70019,47.69459],[8.69982,47.6941],[8.69983,47.69377],[8.7018,47.69293],[8.70321,47.69216],[8.70409,47.69143],[8.70549,47.69089],[8.7063,47.6907],[8.70658,47.69083],[8.70682,47.69078],[8.707,47.69048],[8.70755,47.69036],[8.70869,47.69023],[8.71018,47.6903],[8.71231,47.69071],[8.71405,47.69012],[8.71521,47.69054],[8.71619,47.69116],[8.71734,47.69151]]]}},{"type":"Feature","properties":{"id":"flurlinger-wasser-sh","c":"SH","p":"unknown","q":"stub","k":"reach"},"geometry":{"type":"Polygon","coordinates":[[[8.62602,47.68225],[8.62428,47.68624],[8.62427,47.68698],[8.62326,47.6899],[8.62342,47.69086],[8.62388,47.69158],[8.62485,47.69218],[8.62545,47.69241],[8.62606,47.69155],[8.6254,47.69113],[8.62503,47.69069],[8.62482,47.69],[8.62487,47.68872],[8.62562,47.68696],[8.62603,47.68649],[8.62644,47.68508],[8.62661,47.6837],[8.62713,47.68256],[8.62602,47.68225]]]}},{"type":"Feature","properties":{"id":"steiner-wasser-sh","c":"SH","p":"unknown","q":"stub","k":"reach"},"geometry":{"type":"Polygon","coordinates":[[[8.79932,47.67558],[8.79876,47.67618],[8.79758,47.67567],[8.79606,47.67534],[8.79574,47.6759],[8.7973,47.67629],[8.79917,47.67719],[8.80235,47.67915],[8.80305,47.67936],[8.80301,47.67924],[8.80389,47.67941],[8.80409,47.67933],[8.80518,47.67936],[8.80617,47.67899],[8.80682,47.67888],[8.80751,47.67838],[8.80787,47.67789],[8.80844,47.67764],[8.80965,47.6777],[8.81143,47.67846],[8.81271,47.67872],[8.8137,47.67878],[8.81756,47.67836],[8.81983,47.67782],[8.82273,47.67731],[8.82389,47.67683],[8.82481,47.67613],[8.8256,47.67573],[8.82657,47.6754],[8.82785,47.67544],[8.82865,47.6756],[8.83121,47.67515],[8.83425,47.67399],[8.83465,47.67363],[8.83675,47.67291],[8.84069,47.67046],[8.84138,47.66938],[8.84161,47.66872],[8.8413,47.66825],[8.84123,47.6678],[8.8408,47.6672],[8.84082,47.66687],[8.84153,47.66585],[8.84154,47.66548],[8.84222,47.66511],[8.84285,47.66498],[8.84379,47.66499],[8.8443,47.66475],[8.84484,47.6648],[8.84749,47.6644],[8.8479,47.66444],[8.84838,47.664],[8.84882,47.66399],[8.84993,47.66359],[8.8504,47.66328],[8.85101,47.66325],[8.8535,47.66258],[8.85461,47.66214],[8.8552,47.66173],[8.8565,47.66044],[8.8563,47.6602],[8.85709,47.65966],[8.8599,47.65836],[8.86038,47.6583],[8.86196,47.65855],[8.8632,47.65858],[8.8641,47.65839],[8.86665,47.65829],[8.86767,47.6578],[8.86823,47.65707],[8.86978,47.65626],[8.87213,47.65597],[8.87325,47.65598],[8.87333,47.6559],[8.87543,47.65623],[8.8754,47.65495],[8.87245,47.65394],[8.86706,47.65597],[8.86533,47.6561],[8.86282,47.65492],[8.86193,47.6555],[8.86012,47.65705],[8.85788,47.65805],[8.85666,47.65836],[8.85641,47.65827],[8.85549,47.65906],[8.85442,47.65968],[8.85234,47.66037],[8.85093,47.66045],[8.8505,47.66072],[8.84938,47.66104],[8.84839,47.66173],[8.84766,47.66203],[8.84699,47.66202],[8.84702,47.66216],[8.84672,47.66222],[8.84596,47.66213],[8.8446,47.66224],[8.84319,47.66284],[8.8428,47.66334],[8.84233,47.66341],[8.8416,47.66323],[8.84075,47.6637],[8.83979,47.66475],[8.83947,47.66545],[8.83901,47.66598],[8.83665,47.66978],[8.83536,47.67082],[8.83381,47.6718],[8.83237,47.67223],[8.83016,47.67385],[8.82915,47.6742],[8.82578,47.67462],[8.82387,47.67529],[8.82145,47.67566],[8.81786,47.67706],[8.81636,47.67723],[8.81514,47.67723],[8.81379,47.67653],[8.81278,47.67617],[8.80885,47.6759],[8.80813,47.67598],[8.80619,47.67673],[8.80427,47.67731],[8.80271,47.67745],[8.80159,47.6771],[8.79932,47.67558]],[[8.86376,47.65738],[8.86318,47.65707],[8.8634,47.65689],[8.86376,47.65694],[8.86406,47.65671],[8.86442,47.65663],[8.86472,47.65675],[8.86472,47.65694],[8.8644,47.65699],[8.8642,47.65724],[8.86376,47.65738]],[[8.86564,47.65697],[8.86506,47.65703],[8.86512,47.65665],[8.86567,47.65637],[8.86626,47.65635],[8.86625,47.65651],[8.86564,47.65697]]]}},{"type":"Feature","properties":{"id":"seegraben-sh","c":"SH","p":"unknown","q":"stub","k":"river"},"geometry":{"type":"MultiLineString","coordinates":[[[8.52902,47.64572],[8.5284,47.64581],[8.52439,47.64532],[8.5227,47.64547],[8.52175,47.64581],[8.52039,47.64684],[8.51878,47.64759],[8.51465,47.64751],[8.50909,47.64945],[8.50687,47.64937],[8.50581,47.64896],[8.50408,47.64881],[8.49842,47.64902],[8.49358,47.65051],[8.49035,47.6519],[8.48836,47.65228],[8.48646,47.65376],[8.48466,47.65463],[8.48406,47.65477],[8.48301,47.65456],[8.48223,47.65468],[8.47734,47.65606],[8.47211,47.65652],[8.46878,47.65607],[8.46697,47.65561]],[[8.5327,47.64687],[8.53208,47.64647],[8.53109,47.64632],[8.53059,47.64595],[8.52995,47.64588]]]}},{"type":"Feature","properties":{"id":"muelibach-sh","c":"SH","p":"unknown","q":"stub","k":"river"},"geometry":{"type":"LineString","coordinates":[[8.47415,47.68774],[8.46978,47.68466],[8.46888,47.6822],[8.46503,47.68005],[8.465,47.67861],[8.46378,47.67736],[8.45964,47.67575],[8.45828,47.67552],[8.45687,47.67552],[8.45436,47.67591],[8.453,47.67519],[8.44394,47.67795],[8.44334,47.67803],[8.44258,47.67787]]}},{"type":"Feature","properties":{"id":"seltenbach-sh","c":"SH","p":"unknown","q":"stub","k":"river"},"geometry":{"type":"LineString","coordinates":[[8.51844,47.71211],[8.5169,47.7101],[8.5146,47.70857],[8.51358,47.7073],[8.51025,47.70657],[8.50876,47.70571],[8.50681,47.70504],[8.50544,47.70393],[8.50443,47.70165],[8.50325,47.70044],[8.50314,47.69918],[8.50162,47.69778],[8.49999,47.69701],[8.49619,47.69395],[8.49503,47.69179],[8.49197,47.69203],[8.4855,47.69176],[8.48079,47.69011],[8.47902,47.68981],[8.47714,47.68925],[8.47415,47.68774]]}},{"type":"Feature","properties":{"id":"klingengraben-sh","c":"SH","p":"unknown","q":"stub","k":"river"},"geometry":{"type":"LineString","coordinates":[[8.47472,47.7027],[8.47399,47.70189],[8.47405,47.69971],[8.46831,47.69503],[8.46673,47.69298],[8.4659,47.69256],[8.45762,47.6901],[8.45483,47.68873],[8.45181,47.68675],[8.44911,47.68463],[8.44521,47.67999],[8.44258,47.67787]]}},{"type":"Feature","properties":{"id":"schleitheimer-bach-sh","c":"SH","p":"unknown","q":"stub","k":"river"},"geometry":{"type":"LineString","coordinates":[[8.51508,47.76587],[8.51451,47.76557],[8.51434,47.76481],[8.51205,47.76476],[8.51151,47.76456],[8.51125,47.76409],[8.51082,47.76398],[8.51006,47.76405],[8.50939,47.76389],[8.50843,47.76406],[8.50728,47.76369],[8.50659,47.76278],[8.50487,47.76289],[8.50407,47.76218],[8.50303,47.76171],[8.50172,47.76175],[8.49993,47.75969],[8.49872,47.75748],[8.4965,47.75645],[8.49612,47.75593],[8.49425,47.75482],[8.49332,47.75458],[8.49249,47.7537],[8.49087,47.75279],[8.49064,47.75217],[8.48691,47.7496],[8.48662,47.74954],[8.48575,47.74993],[8.48511,47.74994],[8.48233,47.74823],[8.48012,47.74727],[8.47663,47.7465],[8.46882,47.74637],[8.46788,47.74666],[8.46592,47.74653],[8.46044,47.74576],[8.45714,47.74453],[8.45576,47.74449]]}},{"type":"Feature","properties":{"id":"rhein-sh","c":"SH","p":"unknown","q":"stub","k":"river"},"geometry":{"type":"MultiLineString","coordinates":[[[8.55391,47.5535],[8.55188,47.55515],[8.55091,47.55622],[8.5506,47.55768],[8.55061,47.55958],[8.54892,47.56375],[8.54621,47.56695],[8.54468,47.56822],[8.54141,47.57012]],[[8.56944,47.56745],[8.56878,47.5652]],[[8.59567,47.60564],[8.59428,47.60139],[8.59429,47.59993],[8.59503,47.59856],[8.59504,47.59746],[8.59428,47.59642],[8.59283,47.59555],[8.58996,47.5949]]]}},{"type":"Feature","properties":{"id":"hemmentaler-bach-sh","c":"SH","p":"unknown","q":"stub","k":"river"},"geometry":{"type":"LineString","coordinates":[[8.55782,47.73822],[8.55814,47.73772],[8.56143,47.73517],[8.56439,47.73458],[8.56639,47.73481],[8.56812,47.73542],[8.5692,47.73555],[8.57148,47.73524],[8.5741,47.73449],[8.5755,47.73428],[8.58615,47.73345],[8.58618,47.73306],[8.5876,47.73295],[8.58865,47.73242],[8.58914,47.73174],[8.58947,47.73032],[8.59027,47.72917],[8.59078,47.72745],[8.59156,47.72683],[8.59178,47.7262],[8.59227,47.72571],[8.59454,47.72523],[8.60473,47.72532],[8.60719,47.72476],[8.60881,47.72392],[8.61157,47.72153],[8.61781,47.71897],[8.61944,47.71796],[8.62117,47.71567],[8.62412,47.71306],[8.62541,47.7129],[8.62612,47.71331],[8.62778,47.71268],[8.62835,47.71228],[8.62892,47.71218],[8.62975,47.71306],[8.63086,47.71344],[8.63168,47.71335]]}},{"type":"Feature","properties":{"id":"zwaerenbach-sh","c":"SH","p":"unknown","q":"stub","k":"river"},"geometry":{"type":"LineString","coordinates":[[8.52821,47.74549],[8.52695,47.74545],[8.52398,47.74572],[8.52331,47.74642],[8.52175,47.7472],[8.51799,47.74806],[8.51617,47.74724],[8.51368,47.74706],[8.5129,47.74669],[8.51058,47.74482],[8.50831,47.74337],[8.50619,47.74164],[8.50521,47.7407],[8.50481,47.73988],[8.50229,47.73763],[8.50186,47.7369],[8.50096,47.73614],[8.49949,47.73531],[8.49916,47.73464],[8.49789,47.73359],[8.49737,47.73362],[8.49685,47.73333],[8.49662,47.73282],[8.49591,47.73266],[8.49443,47.73181],[8.49323,47.73155],[8.49278,47.73165],[8.49261,47.73194],[8.49148,47.732],[8.49029,47.73147],[8.48974,47.73169],[8.48881,47.73166],[8.48731,47.73196],[8.48635,47.73318],[8.4863,47.73354],[8.48537,47.7339],[8.48527,47.73426],[8.48455,47.73444],[8.48411,47.73575],[8.48282,47.73696],[8.48144,47.73932],[8.48058,47.73967],[8.48043,47.74039],[8.47992,47.7411],[8.47958,47.74121],[8.47937,47.74172],[8.47835,47.74271],[8.47763,47.74313],[8.47747,47.74387],[8.47647,47.74446],[8.47563,47.74534],[8.47592,47.74602],[8.47569,47.74649]]}},{"type":"Feature","properties":{"id":"biber-sh","c":"SH","p":"unknown","q":"stub","k":"river"},"geometry":{"type":"MultiLineString","coordinates":[[[8.68125,47.78451],[8.67965,47.78362],[8.67893,47.78265],[8.67804,47.78023],[8.67697,47.77918],[8.67485,47.77845],[8.67153,47.77816],[8.66966,47.77832],[8.66879,47.77804],[8.66846,47.7773],[8.66943,47.77593],[8.67276,47.77416],[8.67644,47.77312],[8.67787,47.77315],[8.67913,47.77295],[8.6832,47.771],[8.68585,47.76723],[8.68696,47.76486],[8.68777,47.76166],[8.68765,47.75974],[8.68797,47.75869],[8.6887,47.75791],[8.69098,47.7566],[8.69242,47.75516],[8.69447,47.75414],[8.70007,47.75374],[8.70276,47.75301],[8.70599,47.75067],[8.70629,47.74985],[8.70732,47.74858],[8.70787,47.74719],[8.70948,47.74688],[8.71042,47.74648],[8.71112,47.74597],[8.71162,47.74519],[8.71287,47.74466],[8.71565,47.74266],[8.71703,47.74233],[8.71801,47.74227],[8.71951,47.74247],[8.7208,47.7422]],[[8.77661,47.72173],[8.77784,47.72042],[8.78084,47.71883],[8.78196,47.71846],[8.78408,47.71838],[8.78547,47.71771],[8.79167,47.71548],[8.7957,47.71369],[8.8057,47.70831],[8.8074,47.70778],[8.80799,47.70724],[8.80892,47.70555],[8.80901,47.70471],[8.81055,47.70331],[8.81074,47.70227],[8.81163,47.70133],[8.81262,47.6991],[8.81322,47.69838],[8.81331,47.69768],[8.81274,47.69449],[8.81338,47.69314],[8.81476,47.69206],[8.8155,47.68944],[8.81365,47.68598],[8.81355,47.68493],[8.81288,47.68444],[8.8119,47.68444],[8.81162,47.68399],[8.81088,47.68371],[8.8104,47.68363],[8.80989,47.68387],[8.80863,47.6833],[8.80765,47.68168],[8.80721,47.6801],[8.80647,47.6794]]]}},{"type":"Feature","properties":{"id":"durach-sh","c":"SH","p":"unknown","q":"stub","k":"river"},"geometry":{"type":"MultiLineString","coordinates":[[[8.5749,47.79966],[8.57559,47.79863],[8.5753,47.79785],[8.5758,47.79714],[8.57786,47.79605],[8.58016,47.79529],[8.58411,47.79437],[8.58702,47.79411],[8.58848,47.79375],[8.59314,47.79389],[8.59503,47.79361],[8.59634,47.7936],[8.59943,47.79277],[8.60408,47.7933],[8.60446,47.79318],[8.60672,47.79325],[8.61141,47.79229],[8.61238,47.7919],[8.61343,47.79112],[8.61467,47.78908],[8.61473,47.78847],[8.61553,47.78786]],[[8.61824,47.78019],[8.61854,47.77927],[8.61796,47.7787],[8.61806,47.77832],[8.61767,47.77782],[8.6176,47.77717],[8.61691,47.77606],[8.61707,47.77586],[8.61644,47.77498],[8.61643,47.77401],[8.61606,47.77367],[8.61588,47.773],[8.61609,47.77279],[8.61497,47.77131],[8.61336,47.77035],[8.61302,47.76938],[8.61181,47.76789],[8.61131,47.76767],[8.61101,47.76711],[8.61064,47.76698],[8.60925,47.76357],[8.60973,47.76213],[8.6118,47.7599],[8.61213,47.75763],[8.61277,47.75616],[8.61471,47.75474],[8.61609,47.75241],[8.61608,47.75062],[8.61708,47.74985],[8.61712,47.74826],[8.61858,47.74567],[8.61873,47.74501],[8.6209,47.74371],[8.62069,47.74139],[8.62086,47.74037],[8.62039,47.73971],[8.62011,47.73858],[8.61945,47.73785],[8.62008,47.73692],[8.6206,47.73682],[8.62098,47.73623],[8.62167,47.73606],[8.62225,47.73462],[8.62281,47.73398],[8.62322,47.73386],[8.62474,47.73092],[8.62529,47.73061],[8.62522,47.72994],[8.62626,47.7281],[8.62673,47.72756],[8.62782,47.72697],[8.62868,47.72533],[8.62949,47.72471],[8.62998,47.72212],[8.63032,47.72164]],[[8.63111,47.72132],[8.63221,47.72086],[8.63242,47.72049],[8.63258,47.7186],[8.63308,47.71683],[8.63286,47.71538],[8.6322,47.71501],[8.63168,47.71335],[8.63321,47.71165],[8.63232,47.71104],[8.63176,47.71025],[8.6295,47.70256],[8.62932,47.70166],[8.62973,47.70101],[8.62944,47.70051],[8.62999,47.7002],[8.62817,47.69823],[8.62688,47.69646],[8.6255,47.69395],[8.62537,47.69293]]]}},{"type":"Feature","properties":{"id":"wutach-sh","c":"SH","p":"unknown","q":"stub","k":"river"},"geometry":{"type":"MultiLineString","coordinates":[[[8.45669,47.74943],[8.4559,47.74792],[8.45651,47.74581],[8.45618,47.745],[8.45571,47.74453]],[[8.46694,47.75413],[8.46626,47.75334]],[[8.47272,47.76366],[8.47051,47.76117],[8.46896,47.75895],[8.46821,47.75762],[8.46738,47.75499]]]}}]}