{"type":"FeatureCollection","features":[{"type":"Feature","properties":{"id":"vierwaldstaettersee-ur","c":"UR","p":"patent","q":"derived","k":"lake","fr":1,"ns":1},"geometry":{"type":"Polygon","coordinates":[[[8.62086,46.95236],[8.61965,46.95124],[8.61947,46.95087],[8.61916,46.95087],[8.61899,46.95069],[8.61842,46.94931],[8.61841,46.94882],[8.61863,46.9489],[8.61861,46.9487],[8.61938,46.94767],[8.61958,46.94756],[8.61981,46.94764],[8.62064,46.9472],[8.62035,46.94643],[8.61998,46.94596],[8.62024,46.94558],[8.62016,46.94479],[8.61924,46.94449],[8.61918,46.94438],[8.61965,46.94402],[8.61967,46.94386],[8.61947,46.94347],[8.61889,46.9431],[8.61873,46.94275],[8.61821,46.94236],[8.6177,46.94218],[8.61751,46.94195],[8.61656,46.94158],[8.6164,46.94117],[8.61569,46.94063],[8.61577,46.94047],[8.6163,46.9403],[8.61592,46.94015],[8.61618,46.93976],[8.61583,46.93882],[8.61531,46.938],[8.61492,46.93781],[8.61403,46.93702],[8.61297,46.93497],[8.61296,46.93444],[8.61272,46.93415],[8.61243,46.93415],[8.6124,46.93401],[8.61268,46.93399],[8.61263,46.93351],[8.61173,46.93277],[8.61164,46.93162],[8.61191,46.93122],[8.61166,46.93089],[8.61169,46.93035],[8.61144,46.92988],[8.61069,46.92918],[8.61071,46.92902],[8.61136,46.92848],[8.61241,46.928],[8.61217,46.92746],[8.61157,46.92685],[8.61152,46.9264],[8.61181,46.92599],[8.61259,46.92597],[8.61299,46.92578],[8.6133,46.92521],[8.61417,46.9244],[8.61496,46.92401],[8.61647,46.92284],[8.61675,46.92285],[8.61697,46.92263],[8.61776,46.92248],[8.61863,46.92182],[8.62001,46.92175],[8.62072,46.92141],[8.62117,46.92074],[8.6213,46.92018],[8.62182,46.91975],[8.62175,46.91931],[8.62251,46.91812],[8.62314,46.91782],[8.62334,46.91759],[8.62356,46.91684],[8.62267,46.9164],[8.62254,46.91605],[8.622,46.91595],[8.62211,46.91583],[8.62207,46.91528],[8.62168,46.91492],[8.62111,46.91392],[8.6213,46.91327],[8.62108,46.91218],[8.62123,46.91036],[8.62147,46.90978],[8.62227,46.90961],[8.62265,46.90908],[8.62374,46.90841],[8.62362,46.90837],[8.6242,46.90759],[8.62439,46.90756],[8.62465,46.90674],[8.62478,46.9044],[8.62464,46.90397],[8.62426,46.90358],[8.6243,46.9032],[8.62391,46.90355],[8.62373,46.90348],[8.62403,46.90314],[8.6235,46.90288],[8.62408,46.90233],[8.624,46.90217],[8.62242,46.9018],[8.62242,46.90164],[8.62206,46.90225],[8.62178,46.90218],[8.62178,46.90199],[8.62203,46.90193],[8.62223,46.90169],[8.6221,46.90151],[8.62128,46.90208],[8.62107,46.90198],[8.62163,46.90129],[8.62108,46.90109],[8.62169,46.89989],[8.62081,46.89961],[8.62034,46.89976],[8.61987,46.89974],[8.61807,46.89881],[8.61799,46.89858],[8.61784,46.89875],[8.61763,46.89854],[8.61653,46.89818],[8.61612,46.89826],[8.61594,46.89818],[8.61596,46.89846],[8.61561,46.89846],[8.61559,46.89866],[8.61491,46.89891],[8.61335,46.89887],[8.6128,46.89927],[8.61238,46.89907],[8.612,46.89908],[8.61192,46.8986],[8.61168,46.89848],[8.61091,46.89847],[8.61034,46.89829],[8.61034,46.89805],[8.60998,46.89757],[8.61024,46.8973],[8.61016,46.8968],[8.60953,46.89634],[8.60876,46.89603],[8.61028,46.89508],[8.60927,46.89548],[8.60899,46.8951],[8.60807,46.89514],[8.60746,46.89472],[8.60644,46.89432],[8.60655,46.89418],[8.60775,46.89411],[8.60788,46.89382],[8.60732,46.89346],[8.60588,46.89311],[8.60681,46.89303],[8.60567,46.89263],[8.60499,46.89218],[8.60462,46.89167],[8.60482,46.89111],[8.60545,46.89131],[8.60481,46.89081],[8.60468,46.89032],[8.60486,46.88999],[8.60465,46.88962],[8.60414,46.88955],[8.6042,46.88918],[8.60395,46.88904],[8.60229,46.88863],[8.60154,46.88867],[8.6014,46.88902],[8.60033,46.8891],[8.60033,46.88921],[8.60008,46.88914],[8.60008,46.88935],[8.59949,46.88941],[8.5988,46.88971],[8.59836,46.89049],[8.59761,46.89104],[8.59741,46.89162],[8.59701,46.89215],[8.59612,46.89277],[8.59547,46.89399],[8.59409,46.89529],[8.5938,46.89645],[8.59497,46.8975],[8.59523,46.89791],[8.59501,46.89824],[8.5949,46.89912],[8.59375,46.89944],[8.59329,46.89984],[8.59355,46.90135],[8.59266,46.90298],[8.59272,46.90387],[8.59257,46.90464],[8.59205,46.90559],[8.59223,46.90694],[8.59265,46.90827],[8.59279,46.91063],[8.59212,46.91271],[8.5921,46.91377],[8.59231,46.91411],[8.59415,46.91551],[8.59392,46.91595],[8.59423,46.91653],[8.5958,46.91738],[8.59652,46.9184],[8.59706,46.91863],[8.59712,46.91882],[8.59654,46.91913],[8.59583,46.91993],[8.59364,46.92068],[8.59367,46.92077],[8.59227,46.9208],[8.59186,46.92108],[8.59162,46.92169],[8.59102,46.92183],[8.59065,46.92206],[8.59064,46.92222],[8.58993,46.92254],[8.58884,46.92279],[8.58772,46.92346],[8.58711,46.92358],[8.58687,46.9238],[8.58654,46.92473],[8.58509,46.92622],[8.58472,46.92642],[8.58394,46.92654],[8.58351,46.92685],[8.58341,46.9271],[8.58294,46.92725],[8.58194,46.92799],[8.58091,46.92814],[8.58012,46.92846],[8.57955,46.9292],[8.57933,46.92979],[8.5797,46.93077],[8.57905,46.93112],[8.57887,46.93188],[8.57856,46.93219],[8.5788,46.9331],[8.57992,46.93443],[8.58049,46.93479],[8.58002,46.93603],[8.58014,46.93669],[8.58033,46.93669],[8.58065,46.93702],[8.58078,46.9376],[8.58175,46.93832],[8.58178,46.93865],[8.58287,46.93945],[8.58246,46.93962],[8.5828,46.94],[8.58277,46.94078],[8.58301,46.94108],[8.58352,46.94138],[8.58362,46.94173],[8.58424,46.94226],[8.58468,46.94359],[8.58544,46.94458],[8.58551,46.94558],[8.58595,46.94596],[8.58597,46.94618],[8.58575,46.94679],[8.58535,46.94706],[8.58538,46.94732],[8.58509,46.94764],[8.58517,46.94783],[8.58565,46.94807],[8.58568,46.94833],[8.58608,46.94885],[8.58604,46.94921],[8.58635,46.94939],[8.58689,46.95005],[8.58742,46.95102],[8.58742,46.95134],[8.5879,46.95202],[8.58793,46.95258],[8.58856,46.95325],[8.5891,46.95414],[8.58914,46.95505],[8.589,46.95523],[8.59008,46.95557],[8.5901,46.95568],[8.58967,46.95593],[8.58959,46.95631],[8.58991,46.95729],[8.59006,46.95739],[8.59003,46.95767],[8.59037,46.95773],[8.59032,46.95822],[8.59051,46.95901],[8.58989,46.95944],[8.59009,46.9596],[8.59074,46.95957],[8.59121,46.95983],[8.59183,46.96118],[8.59177,46.96158],[8.59222,46.96162],[8.59224,46.96206],[8.59267,46.96224],[8.59286,46.96265],[8.5934,46.96273],[8.59333,46.96376],[8.59303,46.96407],[8.59309,46.9647],[8.59332,46.96511],[8.59385,46.96547],[8.59401,46.96584],[8.59384,46.96705],[8.59431,46.96725],[8.59439,46.96746],[8.59339,46.97057],[8.59317,46.97059],[8.59294,46.97093],[8.59268,46.97106],[8.5922,46.97106],[8.59248,46.97155],[8.59202,46.97277],[8.59243,46.97376],[8.59205,46.97408],[8.59175,46.97526],[8.5923,46.97655],[8.59428,46.97874],[8.59462,46.97972],[8.59489,46.97999],[8.59537,46.98017],[8.59521,46.98068],[8.59565,46.98095],[8.5957,46.98131],[8.59667,46.98257],[8.59675,46.98306],[8.5959,46.9843],[8.59596,46.98443],[8.59529,46.98581],[8.59367,46.98661],[8.59335,46.98692],[8.59224,46.98719],[8.59088,46.98735],[8.5891,46.98815],[8.5864,46.9873],[8.58634,46.9875],[8.58549,46.98744],[8.58356,46.98663],[8.57885,46.98536],[8.57778,46.98491],[8.57647,46.98449],[8.57565,46.98436],[8.57426,46.98384],[8.57105,46.99016],[8.58243,46.99341],[8.59715,46.99021],[8.60315,46.98684],[8.60414,46.98233],[8.60119,46.97524],[8.60351,46.96855],[8.6044,46.95196],[8.62078,46.9525],[8.62086,46.95236]],[[8.61963,46.90024],[8.61965,46.90038],[8.61912,46.90074],[8.61803,46.90087],[8.61812,46.90068],[8.61889,46.9005],[8.61938,46.90017],[8.61963,46.90024]],[[8.61788,46.89985],[8.61835,46.90046],[8.61811,46.90062],[8.6179,46.9006],[8.61752,46.90007],[8.61758,46.89991],[8.61788,46.89985]],[[8.61406,46.89897],[8.61426,46.89915],[8.61435,46.89935],[8.61405,46.89937],[8.61406,46.89897]],[[8.61767,46.89965],[8.61755,46.89982],[8.61732,46.89979],[8.61738,46.89961],[8.61767,46.89965]]]}},{"type":"Feature","properties":{"id":"oberalpsee-ur","c":"UR","p":"private","q":"derived","k":"lake"},"geometry":{"type":"Polygon","coordinates":[[[8.66851,46.65956],[8.66681,46.65932],[8.66573,46.65945],[8.66507,46.65969],[8.66404,46.65969],[8.66061,46.6592],[8.65953,46.65925],[8.65904,46.65911],[8.65756,46.65907],[8.65688,46.65885],[8.65392,46.65832],[8.65345,46.65831],[8.65334,46.65857],[8.6563,46.65959],[8.6595,46.66034],[8.66103,46.66045],[8.66215,46.66098],[8.66371,46.66127],[8.66443,46.66128],[8.66419,46.66137],[8.6644,46.6615],[8.66463,46.66148],[8.66459,46.66128],[8.66492,46.66156],[8.66568,46.66156],[8.66587,46.66134],[8.66613,46.66148],[8.66645,46.66125],[8.66685,46.66153],[8.66803,46.66146],[8.66885,46.66133],[8.66949,46.66103],[8.67025,46.66012],[8.66851,46.65956]]]}},{"type":"Feature","properties":{"id":"seeli-ur","c":"UR","p":"patent","q":"derived","k":"lake"},"geometry":{"type":"Polygon","coordinates":[[[8.57099,46.96054],[8.57324,46.96034],[8.57323,46.9602],[8.57437,46.96007],[8.57546,46.95925],[8.57548,46.95843],[8.57588,46.95815],[8.57657,46.95805],[8.57673,46.95793],[8.57686,46.95754],[8.57673,46.95737],[8.57591,46.9574],[8.57417,46.95717],[8.57217,46.95716],[8.57049,46.95696],[8.56889,46.95693],[8.56859,46.95706],[8.56786,46.95784],[8.5679,46.95824],[8.56857,46.95865],[8.56942,46.95956],[8.57061,46.96042],[8.57099,46.96054]]]}},{"type":"Feature","properties":{"id":"seewli-ur","c":"UR","p":"patent","q":"derived","k":"lake"},"geometry":{"type":"Polygon","coordinates":[[[8.71643,46.81017],[8.71547,46.81019],[8.71504,46.81005],[8.71478,46.80992],[8.71429,46.80923],[8.71359,46.80894],[8.71298,46.80886],[8.71251,46.80918],[8.7126,46.80957],[8.71314,46.80984],[8.71299,46.81036],[8.71309,46.81087],[8.71444,46.81168],[8.71522,46.81282],[8.71552,46.81294],[8.71579,46.81288],[8.71681,46.81217],[8.71763,46.81105],[8.71756,46.81075],[8.71691,46.81028],[8.71643,46.81017]]]}},{"type":"Feature","properties":{"id":"goescheneralpsee-ur","c":"UR","p":"patent","q":"derived","k":"lake","ns":1},"geometry":{"type":"Polygon","coordinates":[[[8.47308,46.65003],[8.47419,46.64972],[8.47534,46.6497],[8.47677,46.64943],[8.47813,46.64898],[8.47836,46.64875],[8.47886,46.64874],[8.47911,46.649],[8.47976,46.64892],[8.48021,46.64867],[8.48113,46.64878],[8.48237,46.64858],[8.48327,46.64863],[8.48385,46.64844],[8.48497,46.64841],[8.48521,46.64829],[8.48514,46.64809],[8.48576,46.64793],[8.48909,46.64778],[8.49197,46.64741],[8.49254,46.64755],[8.49293,46.64747],[8.49312,46.64759],[8.49308,46.64733],[8.49393,46.64712],[8.49641,46.64725],[8.49758,46.64782],[8.49781,46.6476],[8.4981,46.64498],[8.49863,46.6433],[8.49527,46.64212],[8.49442,46.64212],[8.49383,46.64194],[8.49304,46.64198],[8.49196,46.64167],[8.49137,46.64178],[8.49115,46.64206],[8.49004,46.64216],[8.48955,46.64209],[8.48903,46.64182],[8.48879,46.64216],[8.48853,46.64201],[8.48798,46.64207],[8.48752,46.64248],[8.48708,46.64266],[8.48476,46.64242],[8.48388,46.64248],[8.48307,46.64277],[8.48133,46.64269],[8.47824,46.64325],[8.47799,46.64349],[8.47692,46.64349],[8.47662,46.64371],[8.47441,46.64418],[8.47359,46.64429],[8.47279,46.6442],[8.47297,46.64461],[8.47369,46.64529],[8.47379,46.6459],[8.47263,46.6462],[8.47146,46.64615],[8.4712,46.64624],[8.47037,46.64753],[8.46906,46.64826],[8.4687,46.64885],[8.46935,46.64948],[8.46997,46.6495],[8.47018,46.64963],[8.47012,46.64986],[8.46957,46.64989],[8.46923,46.65004],[8.46951,46.6506],[8.46935,46.6509],[8.46992,46.65116],[8.46951,46.65164],[8.46979,46.65157],[8.47064,46.65077],[8.47145,46.6507],[8.47308,46.65003]]]}},{"type":"Feature","properties":{"id":"obersee-ur","c":"UR","p":"patent","q":"derived","k":"lake"},"geometry":{"type":"Polygon","coordinates":[[[8.57548,46.79543],[8.57524,46.79604],[8.57501,46.79611],[8.5747,46.79602],[8.57441,46.79644],[8.5745,46.79671],[8.57526,46.79688],[8.57674,46.79654],[8.57725,46.79533],[8.57729,46.79467],[8.57625,46.79419],[8.57587,46.79417],[8.57576,46.79451],[8.57629,46.79505],[8.57593,46.79535],[8.57548,46.79543]]]}},{"type":"Feature","properties":{"id":"alpbach-ur","c":"UR","p":"patent","q":"derived","k":"river"},"geometry":{"type":"LineString","coordinates":[[8.57048,46.80752],[8.57157,46.80818],[8.57354,46.80847],[8.57426,46.80891],[8.57647,46.80892],[8.58041,46.80943],[8.58177,46.80969],[8.58335,46.81033],[8.58835,46.81102],[8.58969,46.8116],[8.59002,46.81226],[8.59038,46.81248],[8.5942,46.81232],[8.59836,46.81121],[8.59892,46.81137],[8.59984,46.81112],[8.60049,46.81135],[8.60125,46.81127],[8.60221,46.81163],[8.60431,46.81185],[8.60532,46.81281],[8.60715,46.81294],[8.60824,46.81324],[8.60973,46.81452],[8.61181,46.81446],[8.61312,46.81423],[8.61368,46.81393],[8.61449,46.81391],[8.61525,46.81439],[8.61676,46.81476],[8.61788,46.81577],[8.61917,46.81573],[8.62285,46.81683],[8.62332,46.81722],[8.62529,46.81744],[8.62582,46.81768],[8.62641,46.81749],[8.62673,46.81697],[8.62824,46.817],[8.62914,46.81657],[8.6302,46.81663],[8.63072,46.81646],[8.63195,46.81659],[8.6327,46.81694],[8.63364,46.81706],[8.63527,46.81798],[8.63585,46.81782],[8.63639,46.8179],[8.63734,46.8186],[8.63829,46.8185],[8.6388,46.81813],[8.64,46.8181],[8.64229,46.81902],[8.64351,46.81892],[8.64429,46.81921],[8.64562,46.81921]]}},{"type":"Feature","properties":{"id":"bortwasser-ur","c":"UR","p":"patent","q":"derived","k":"river"},"geometry":{"type":"MultiLineString","coordinates":[[[8.62142,46.59903],[8.62174,46.59902],[8.62235,46.59849],[8.62296,46.59847],[8.62418,46.59784],[8.62482,46.5978],[8.62599,46.59693],[8.62622,46.59603],[8.62833,46.59488],[8.6297,46.59371],[8.62994,46.59281],[8.63028,46.59248],[8.63016,46.59177],[8.63072,46.59137],[8.63183,46.59103],[8.63267,46.59051],[8.63363,46.59044],[8.63497,46.58968],[8.63601,46.58959],[8.63737,46.58873],[8.63844,46.58856],[8.6398,46.58788],[8.64136,46.58743],[8.64667,46.58713],[8.64717,46.58731],[8.64858,46.58729],[8.64982,46.5876],[8.65038,46.58785],[8.65086,46.58865],[8.65207,46.58929],[8.65209,46.58956],[8.65256,46.58982],[8.6524,46.59034],[8.65279,46.59095],[8.65352,46.59132],[8.65358,46.5918],[8.65412,46.59206],[8.65427,46.59237]],[[8.65427,46.59237],[8.65493,46.59283],[8.65485,46.59311]],[[8.65427,46.59237],[8.65433,46.59268],[8.65485,46.59311]],[[8.65485,46.59311],[8.6548,46.59339],[8.65571,46.59402],[8.65575,46.59496],[8.65683,46.59536],[8.65675,46.59576],[8.65821,46.59649],[8.65856,46.5984]]]}},{"type":"Feature","properties":{"id":"gangbach-ur","c":"UR","p":"patent","q":"derived","k":"river"},"geometry":{"type":"LineString","coordinates":[[8.69356,46.84682],[8.69107,46.84637],[8.68936,46.8474],[8.6869,46.84775],[8.68482,46.8483],[8.68391,46.84828],[8.68306,46.84886],[8.68254,46.84894],[8.68169,46.84989],[8.68031,46.85053],[8.67908,46.85074],[8.67862,46.85126],[8.67614,46.85289],[8.67424,46.85391],[8.67275,46.85446],[8.67196,46.8551],[8.67043,46.85562],[8.66915,46.85646],[8.66746,46.85664],[8.66625,46.85714],[8.66455,46.85752],[8.66404,46.85786],[8.66405,46.85811],[8.66358,46.85856],[8.66291,46.85881],[8.66248,46.85926],[8.66163,46.85954],[8.6602,46.86075],[8.65778,46.86175],[8.65593,46.86219],[8.65506,46.86221],[8.65412,46.8619],[8.65203,46.86209],[8.6507,46.86166],[8.64896,46.85996],[8.64842,46.85829],[8.64779,46.85737],[8.64804,46.85713],[8.64725,46.85523],[8.64629,46.85434],[8.64579,46.85432],[8.64447,46.85371],[8.64374,46.85376],[8.64215,46.85464],[8.63797,46.85759],[8.63724,46.85952],[8.63646,46.85951],[8.63602,46.85972],[8.63567,46.86187],[8.63445,46.86394],[8.63254,46.86455],[8.63159,46.86564]]}},{"type":"Feature","properties":{"id":"witenwasserenreuss-ur","c":"UR","p":"patent","q":"derived","k":"river"},"geometry":{"type":"MultiLineString","coordinates":[[[8.49276,46.54167],[8.49735,46.54434],[8.50086,46.54508],[8.50165,46.54542],[8.5019,46.54593],[8.50125,46.54791],[8.5017,46.54933],[8.50154,46.54976],[8.50172,46.55069],[8.50133,46.55155],[8.50163,46.55222],[8.50075,46.55334],[8.50065,46.55422],[8.49994,46.55582],[8.50038,46.55687],[8.49999,46.55757],[8.50002,46.55973]],[[8.49923,46.56071],[8.49904,46.56106],[8.49922,46.5613],[8.5003,46.56155],[8.50015,46.56292],[8.49987,46.56312],[8.5001,46.5637],[8.49932,46.56503],[8.4988,46.56654],[8.4977,46.56751],[8.49809,46.56842],[8.49809,46.56919],[8.49881,46.56999],[8.49841,46.57055],[8.4981,46.57186],[8.49688,46.57265],[8.49681,46.57321],[8.49718,46.57379],[8.49569,46.57536],[8.49508,46.57566],[8.49447,46.57739],[8.49469,46.57816],[8.49447,46.5786],[8.49476,46.57956],[8.49559,46.58047],[8.49511,46.58176],[8.49514,46.58348],[8.49696,46.58471],[8.49734,46.58519],[8.4966,46.58665],[8.49516,46.58729],[8.49464,46.58776]],[[8.50002,46.55973],[8.49912,46.56022],[8.49923,46.56071]],[[8.50002,46.55973],[8.4999,46.5602],[8.49923,46.56071]]]}},{"type":"Feature","properties":{"id":"muttenreuss-ur","c":"UR","p":"patent","q":"derived","k":"river"},"geometry":{"type":"MultiLineString","coordinates":[[[8.44486,46.55186],[8.44504,46.55308],[8.44556,46.5538],[8.44815,46.55527],[8.45004,46.55586]],[[8.45004,46.55586],[8.45071,46.55611]],[[8.45004,46.55586],[8.45059,46.5561],[8.45071,46.55611]],[[8.45071,46.55611],[8.45331,46.55643],[8.45397,46.5569],[8.45557,46.55711],[8.45629,46.55745],[8.4595,46.55786],[8.46047,46.55777],[8.4628,46.55825],[8.46365,46.55877],[8.46528,46.55936],[8.46825,46.56112],[8.47038,46.56163],[8.47071,46.56198],[8.47222,46.56232],[8.47306,46.56319]],[[8.47306,46.56319],[8.47355,46.56327]],[[8.47306,46.56319],[8.47346,46.56317],[8.47355,46.56327]],[[8.47355,46.56327],[8.47514,46.56425],[8.47566,46.56438],[8.47586,46.56466],[8.4766,46.5648],[8.47719,46.56529],[8.47818,46.56558],[8.47865,46.56629],[8.4803,46.567],[8.48254,46.56849],[8.48458,46.56934],[8.48516,46.5698],[8.48565,46.56992],[8.487,46.56975],[8.48762,46.57021],[8.48878,46.57007],[8.48901,46.57063],[8.49043,46.5719],[8.4904,46.57288],[8.48917,46.57322],[8.49039,46.57508],[8.49086,46.57542],[8.49147,46.57679],[8.49291,46.57761],[8.49407,46.57788],[8.49447,46.5786]]]}},{"type":"Feature","properties":{"id":"gruonbach-ur","c":"UR","p":"patent","q":"derived","k":"river"},"geometry":{"type":"LineString","coordinates":[[8.67495,46.90886],[8.67269,46.90848],[8.67153,46.90848],[8.66905,46.90706],[8.66637,46.90671],[8.66531,46.90698],[8.66384,46.90769],[8.66288,46.90788],[8.66171,46.90857],[8.66151,46.90895],[8.65978,46.9097],[8.65758,46.91041],[8.65573,46.91078],[8.65457,46.9108],[8.65304,46.91156],[8.65216,46.91148],[8.65048,46.91224],[8.64949,46.91249],[8.64882,46.91296],[8.64617,46.9138],[8.64434,46.91489],[8.64316,46.9153],[8.64079,46.91525],[8.63815,46.91432],[8.63717,46.91458],[8.63491,46.91473],[8.63412,46.91389],[8.6328,46.91347],[8.63213,46.91305],[8.62939,46.91239],[8.62872,46.91238],[8.62795,46.91267],[8.62708,46.91335],[8.6254,46.91397],[8.62473,46.91466],[8.62285,46.91576]]}},{"type":"Feature","properties":{"id":"reuss-ur","c":"UR","p":"patent","q":"derived","k":"river"},"geometry":{"type":"MultiLineString","coordinates":[[[8.43183,46.5634],[8.43143,46.56544],[8.43098,46.5658],[8.43036,46.5659],[8.43066,46.56685],[8.43022,46.56766],[8.42914,46.56861],[8.42916,46.56892],[8.42858,46.56963],[8.42854,46.57102],[8.42882,46.57219],[8.42967,46.57308],[8.42951,46.57405],[8.42892,46.57509],[8.42958,46.57612],[8.43053,46.57704],[8.4316,46.57741],[8.43138,46.57793],[8.43168,46.57841],[8.43312,46.57936],[8.43355,46.58],[8.4352,46.58137],[8.43605,46.58176],[8.43688,46.58146],[8.43791,46.58157],[8.43889,46.58236],[8.44034,46.58303],[8.44369,46.58364],[8.4457,46.58467],[8.4477,46.5849],[8.4482,46.58542],[8.44906,46.5854],[8.44954,46.58566],[8.45121,46.58588],[8.45238,46.58671],[8.45367,46.58697],[8.4545,46.58737],[8.45457,46.58799],[8.45484,46.58817],[8.45675,46.58843],[8.45711,46.58835],[8.45759,46.58784],[8.45817,46.58779],[8.45893,46.5879],[8.45968,46.58837],[8.46045,46.58825],[8.46427,46.5886],[8.46516,46.58828],[8.46564,46.58785],[8.46698,46.58775],[8.46786,46.58791],[8.46842,46.58777],[8.46915,46.58705],[8.47084,46.58678],[8.47121,46.58635],[8.4733,46.58592],[8.47416,46.58539],[8.47535,46.58515],[8.47578,46.58481],[8.47709,46.58451],[8.47772,46.58374],[8.4788,46.5838],[8.47941,46.58332],[8.48064,46.58314],[8.4814,46.58351],[8.4824,46.58315],[8.48342,46.58354],[8.48435,46.58333],[8.48505,46.58407],[8.48589,46.58449],[8.48961,46.58571],[8.49014,46.58616],[8.49134,46.58661],[8.49251,46.58681],[8.49343,46.58737],[8.49415,46.58741],[8.4947,46.5878],[8.4961,46.58916],[8.49629,46.59035],[8.49716,46.59085],[8.49767,46.59155],[8.49863,46.59185],[8.50053,46.59304],[8.50113,46.59389],[8.50275,46.59455],[8.50367,46.597],[8.50788,46.60122],[8.51217,46.60206],[8.51337,46.60251],[8.51464,46.60263],[8.51647,46.60344],[8.51792,46.60467],[8.52058,46.60579],[8.5214,46.60686],[8.52506,46.60786],[8.52928,46.60819],[8.53535,46.61051],[8.53659,46.6117],[8.53731,46.61126],[8.53823,46.61125],[8.53969,46.61086],[8.54041,46.61091],[8.54252,46.61192],[8.54376,46.61297],[8.54524,46.61256],[8.5464,46.61309],[8.54828,46.61346],[8.54875,46.61368],[8.54978,46.61475],[8.55063,46.61517],[8.55139,46.61544],[8.55366,46.61557],[8.55499,46.6167],[8.55601,46.61702],[8.55685,46.61708],[8.55829,46.61667],[8.55963,46.61691],[8.56093,46.61752],[8.56229,46.61782],[8.56524,46.6197],[8.56638,46.61992],[8.5671,46.62062],[8.56879,46.62107],[8.56931,46.62156],[8.57113,46.6218],[8.57244,46.62265],[8.57351,46.62291],[8.57501,46.62372],[8.57693,46.62422],[8.57862,46.62444],[8.57949,46.62476],[8.57979,46.62561],[8.57848,46.62716],[8.57968,46.62744],[8.58457,46.62965],[8.5858,46.63063],[8.58599,46.63154],[8.58494,46.63351],[8.58644,46.63842],[8.58694,46.63927],[8.58882,46.64097],[8.58918,46.64193],[8.59142,46.64296],[8.591,46.64482],[8.59014,46.64551],[8.58983,46.64609],[8.59011,46.64642],[8.58999,46.64721],[8.59157,46.64771],[8.59181,46.64825],[8.5912,46.64889],[8.59057,46.64894],[8.59045,46.64925],[8.58792,46.65044],[8.58685,46.65012],[8.58655,46.65024],[8.58594,46.65183],[8.58496,46.65218],[8.58572,46.65279],[8.58344,46.65574],[8.58343,46.65669],[8.58378,46.65754],[8.58421,46.65781],[8.58433,46.65875],[8.58573,46.66008],[8.58543,46.66072],[8.5865,46.66173],[8.58809,46.66265],[8.58992,46.66506],[8.5899,46.66576],[8.59037,46.66647],[8.59246,46.66762],[8.59281,46.66837],[8.59339,46.66892],[8.59478,46.66907],[8.59536,46.66955],[8.59525,46.67017],[8.59438,46.67066],[8.59402,46.67171],[8.59455,46.67435],[8.59455,46.67631],[8.5939,46.67798],[8.59398,46.67842],[8.59456,46.67909],[8.59454,46.6806],[8.59482,46.68125],[8.59424,46.68202],[8.59409,46.68276],[8.5931,46.68349],[8.59292,46.68388],[8.5932,46.68548],[8.59367,46.68615],[8.59269,46.68728],[8.5927,46.68798],[8.59306,46.68863],[8.59388,46.68932],[8.59385,46.69007],[8.59442,46.69111],[8.5944,46.69213],[8.59382,46.69294],[8.59497,46.69392],[8.59503,46.6946],[8.59722,46.69731],[8.5978,46.6976],[8.59936,46.69795],[8.59935,46.6986],[8.59838,46.69952],[8.59854,46.7003],[8.60006,46.70205],[8.60187,46.70326],[8.60283,46.70468],[8.60377,46.7053],[8.60413,46.70651],[8.60501,46.70743],[8.60466,46.70851],[8.6048,46.70905],[8.60547,46.70973],[8.60724,46.71089],[8.60834,46.71271]],[[8.6111,46.71583],[8.61248,46.71588],[8.61266,46.71641],[8.61241,46.71711],[8.61279,46.71763],[8.6136,46.7183],[8.61573,46.71942],[8.61829,46.72277],[8.61837,46.72447],[8.61893,46.72499],[8.62028,46.72547],[8.62038,46.72666],[8.62071,46.72727],[8.62309,46.72836],[8.6234,46.72922],[8.62478,46.7307],[8.62642,46.73121],[8.62803,46.73204],[8.63004,46.73345],[8.63116,46.73462],[8.6326,46.73541],[8.63369,46.73736],[8.63452,46.73779],[8.63548,46.73864],[8.63678,46.73947],[8.63891,46.73992],[8.63947,46.74034],[8.63921,46.74143],[8.64003,46.74268],[8.64255,46.74417],[8.64379,46.74586],[8.64387,46.74655],[8.64252,46.74739],[8.64239,46.74777],[8.64304,46.74936],[8.64424,46.75005],[8.64513,46.75151],[8.64474,46.75228],[8.64468,46.75368],[8.64689,46.75487],[8.64704,46.75514],[8.64686,46.75597],[8.64726,46.75635],[8.6476,46.75749],[8.64833,46.75815],[8.65003,46.75916],[8.65138,46.75942],[8.65278,46.75926],[8.65602,46.75992],[8.65736,46.76121],[8.66025,46.76299],[8.66065,46.76355],[8.66057,46.76455],[8.66121,46.76514],[8.66532,46.76602],[8.66835,46.76704],[8.66956,46.76801],[8.67008,46.76923],[8.66919,46.77223],[8.66676,46.77439],[8.66604,46.77585],[8.66605,46.77844],[8.66814,46.78201],[8.66814,46.78356],[8.66788,46.78477],[8.6659,46.78852],[8.66631,46.79134],[8.66422,46.8],[8.66175,46.80292],[8.66111,46.80435],[8.66109,46.80504],[8.66215,46.80765],[8.66216,46.80827],[8.66118,46.80966],[8.65829,46.81163],[8.65614,46.81371],[8.65397,46.81532],[8.65094,46.81682],[8.6465,46.81724],[8.64614,46.81744],[8.64592,46.81781],[8.64622,46.821],[8.64584,46.82252],[8.64531,46.82348],[8.64451,46.8244],[8.64309,46.82549],[8.63935,46.82733],[8.63867,46.82794],[8.63871,46.82948],[8.63587,46.83385],[8.63636,46.83942],[8.63613,46.84036],[8.63569,46.84135],[8.63248,46.84519],[8.63119,46.8472],[8.63117,46.84797],[8.63199,46.85119],[8.63472,46.85954],[8.63493,46.86141],[8.63416,46.86253],[8.63278,46.86346],[8.63215,46.86426],[8.62115,46.8835],[8.61968,46.88653],[8.61841,46.88838],[8.61317,46.89789],[8.61249,46.89863]],[[8.61071,46.71478],[8.61038,46.71517],[8.61093,46.71569]]]}},{"type":"Feature","properties":{"id":"hueribach-ur","c":"UR","p":"patent","q":"derived","k":"river"},"geometry":{"type":"MultiLineString","coordinates":[[[8.76188,46.90188],[8.76263,46.9021]],[[8.76295,46.90252],[8.76326,46.90324],[8.76442,46.90413],[8.76458,46.90477],[8.76436,46.9052],[8.76396,46.90551],[8.76293,46.90573],[8.7623,46.90631],[8.76117,46.90682],[8.75995,46.90768],[8.75777,46.9106],[8.75765,46.91181],[8.75807,46.9123],[8.75804,46.91314],[8.7586,46.91425],[8.76093,46.91574],[8.76129,46.91697],[8.76169,46.91716],[8.76174,46.91758],[8.7634,46.91896],[8.76368,46.91946],[8.76527,46.91999],[8.76599,46.92151],[8.76807,46.92358],[8.76791,46.92407],[8.76808,46.92429],[8.76763,46.92466],[8.76814,46.92567],[8.76842,46.92762],[8.76829,46.9282],[8.76778,46.92865],[8.76758,46.92917],[8.7681,46.9295],[8.76792,46.93025],[8.76841,46.93043],[8.7688,46.93037],[8.76983,46.93124],[8.76998,46.9316],[8.76978,46.9333],[8.76937,46.93409],[8.76958,46.93521],[8.76878,46.93765],[8.76878,46.93867],[8.76923,46.93971],[8.76893,46.9404]]]}},{"type":"Feature","properties":{"id":"ruosalper-bach-ur","c":"UR","p":"patent","q":"derived","k":"river"},"geometry":{"type":"MultiLineString","coordinates":[[[8.79296,46.90035],[8.79365,46.90028],[8.79468,46.89889],[8.79591,46.89847],[8.79818,46.89931],[8.79913,46.89942],[8.8015,46.90045],[8.80244,46.90038],[8.80608,46.90122],[8.80763,46.90116],[8.80816,46.90096],[8.80965,46.9015],[8.81034,46.90207],[8.81329,46.90121],[8.81439,46.89995],[8.81521,46.89986],[8.81574,46.89939],[8.81679,46.89899],[8.81917,46.89973],[8.82053,46.89977],[8.82156,46.90026],[8.82434,46.90073],[8.82674,46.90167],[8.82788,46.90158],[8.82893,46.90199],[8.83094,46.90235],[8.83142,46.90228],[8.83462,46.903],[8.83541,46.903],[8.83636,46.90273],[8.83825,46.90343],[8.83929,46.90345],[8.83952,46.90392],[8.84024,46.90403],[8.84044,46.90434],[8.84126,46.90447],[8.84148,46.90505],[8.84225,46.90537],[8.84226,46.90683],[8.84296,46.90715],[8.84313,46.90759],[8.84266,46.90852],[8.84257,46.90951]],[[8.84313,46.91016],[8.84387,46.91111],[8.84498,46.91148]]]}},{"type":"Feature","properties":{"id":"riemenstaldnerbach-ur","c":"UR","p":"patent","q":"derived","k":"river"},"geometry":{"type":"MultiLineString","coordinates":[[[8.63654,46.9498],[8.63566,46.9496],[8.63511,46.94979],[8.63256,46.94974],[8.63195,46.95002],[8.63134,46.94986],[8.62966,46.95015],[8.62876,46.94984],[8.62752,46.94978],[8.62626,46.95009],[8.62542,46.94973],[8.62291,46.94998],[8.61915,46.94899]],[[8.69329,46.94663],[8.6925,46.94705],[8.69116,46.94693],[8.69012,46.94707],[8.68416,46.94542],[8.68134,46.94611],[8.68026,46.94585],[8.6792,46.94595],[8.6772,46.94565],[8.67547,46.94494],[8.67337,46.94491],[8.67212,46.94446],[8.67008,46.94411],[8.66862,46.94431],[8.66777,46.94473],[8.66656,46.94486],[8.66507,46.94554],[8.66279,46.9456]]]}},{"type":"Feature","properties":{"id":"lauwelitaler-bach-ur","c":"UR","p":"patent","q":"derived","k":"river"},"geometry":{"type":"LineString","coordinates":[[8.49105,46.91141],[8.49412,46.91179],[8.49488,46.91174],[8.49554,46.91137],[8.49641,46.91118],[8.49739,46.91113],[8.49769,46.91065],[8.49922,46.90998],[8.49988,46.9086],[8.50179,46.90794],[8.50361,46.90605],[8.50463,46.90597],[8.5093,46.90663],[8.512,46.90768],[8.51638,46.90848],[8.51813,46.9078],[8.52,46.90741],[8.52131,46.9067],[8.52277,46.90679],[8.52581,46.90622],[8.52661,46.90592]]}},{"type":"Feature","properties":{"id":"palanggenbach-ur","c":"UR","p":"patent","q":"derived","k":"river"},"geometry":{"type":"LineString","coordinates":[[8.57079,46.85095],[8.57219,46.85186],[8.57409,46.85376],[8.57512,46.85442],[8.57601,46.8555],[8.57677,46.856],[8.57782,46.85632],[8.57813,46.85685],[8.57874,46.85726],[8.57868,46.8577],[8.57926,46.85827],[8.58117,46.85914],[8.58369,46.86103],[8.58665,46.86253],[8.58694,46.86304],[8.5897,46.86365],[8.59133,46.86494],[8.59398,46.86655],[8.59572,46.86897],[8.59658,46.86945],[8.59701,46.87038],[8.59927,46.87263],[8.59991,46.87308],[8.60164,46.87369],[8.60244,46.87497],[8.60304,46.87529],[8.60367,46.876],[8.60512,46.87635],[8.60529,46.87698],[8.60662,46.87719],[8.60792,46.87715],[8.61257,46.87626],[8.6156,46.8762],[8.61793,46.87641],[8.61999,46.87639],[8.62139,46.87679],[8.62406,46.87797]]}},{"type":"Feature","properties":{"id":"kummetbach-ur","c":"UR","p":"patent","q":"derived","k":"river"},"geometry":{"type":"LineString","coordinates":[[8.59334,46.84616],[8.59389,46.84608],[8.59447,46.84623],[8.59658,46.84739],[8.59822,46.8476],[8.59914,46.84739],[8.60054,46.84773],[8.60178,46.8484],[8.60314,46.84961],[8.60694,46.85075],[8.60774,46.85084],[8.60865,46.85138],[8.6107,46.85114],[8.61415,46.85107],[8.61609,46.85074],[8.61851,46.85126],[8.61986,46.85303],[8.61981,46.85389],[8.62047,46.85429],[8.62173,46.85639],[8.62349,46.85789],[8.62478,46.85959],[8.62682,46.86066],[8.63128,46.86172],[8.633,46.86192],[8.63387,46.86244]]}},{"type":"Feature","properties":{"id":"bockibach-ur","c":"UR","p":"patent","q":"derived","k":"river"},"geometry":{"type":"MultiLineString","coordinates":[[[8.57891,46.83651],[8.58078,46.83641],[8.58235,46.83669],[8.58336,46.83645],[8.58656,46.83661],[8.58797,46.83736],[8.59049,46.83752],[8.59114,46.8379],[8.59274,46.83825],[8.59343,46.83859],[8.5944,46.83839],[8.5953,46.83888],[8.59588,46.83889],[8.59684,46.83973],[8.59767,46.83987],[8.59807,46.8403]],[[8.60037,46.8405],[8.60164,46.83882],[8.60459,46.83839],[8.60554,46.83772],[8.60621,46.8376],[8.60697,46.83772],[8.60834,46.83848],[8.60907,46.83857],[8.61041,46.83855],[8.6118,46.8381],[8.61316,46.83794],[8.61457,46.83819],[8.61705,46.83922],[8.61835,46.83953],[8.62066,46.83964],[8.62224,46.84059],[8.62408,46.84109],[8.62567,46.84175],[8.62616,46.84175],[8.62671,46.84141],[8.62756,46.84149],[8.62861,46.84127],[8.62969,46.84144],[8.63016,46.84129],[8.63103,46.84177],[8.63214,46.84124],[8.63305,46.84103],[8.6341,46.84133],[8.63487,46.84193]]]}},{"type":"Feature","properties":{"id":"riedertalbach-ur","c":"UR","p":"patent","q":"derived","k":"river"},"geometry":{"type":"LineString","coordinates":[[8.71055,46.84972],[8.70907,46.84977],[8.7082,46.84962],[8.70678,46.85148],[8.70352,46.85414],[8.70254,46.85438],[8.70112,46.85506],[8.69822,46.85741],[8.69711,46.85771],[8.69645,46.8591],[8.69508,46.86061],[8.69513,46.86105],[8.69414,46.86188],[8.69303,46.86329],[8.6925,46.86523],[8.6917,46.86644],[8.68876,46.86793],[8.68665,46.87051],[8.68434,46.87197],[8.68261,46.87345],[8.68155,46.87371],[8.68029,46.87467],[8.68036,46.87663],[8.68062,46.87698]]}},{"type":"Feature","properties":{"id":"guggibach-ur","c":"UR","p":"patent","q":"derived","k":"river"},"geometry":{"type":"LineString","coordinates":[[8.69625,46.9085],[8.69797,46.90657],[8.69966,46.90532],[8.6997,46.90423],[8.69875,46.90259],[8.69945,46.90081],[8.70074,46.89941],[8.70126,46.89802],[8.70143,46.89646],[8.7008,46.89483],[8.70086,46.89377],[8.70051,46.89258],[8.70064,46.89198],[8.69984,46.89129],[8.69943,46.88869],[8.6989,46.88754],[8.6978,46.88656],[8.69778,46.88598],[8.69811,46.88537],[8.69706,46.88431],[8.69743,46.88356],[8.69748,46.88273],[8.69695,46.88191],[8.69731,46.88051],[8.69716,46.87943],[8.69676,46.87891]]}},{"type":"Feature","properties":{"id":"gangbach-ur-2","c":"UR","p":"patent","q":"derived","k":"river"},"geometry":{"type":"LineString","coordinates":[[8.71157,46.90584],[8.71215,46.90535],[8.71245,46.90458],[8.71314,46.90398],[8.71485,46.9032],[8.71467,46.9027],[8.71515,46.90166],[8.71499,46.9009],[8.71532,46.89906],[8.7163,46.89649],[8.71618,46.89577],[8.71664,46.89427],[8.71694,46.8916],[8.71758,46.88993],[8.71651,46.8882],[8.71684,46.88727],[8.71631,46.88665],[8.71611,46.8855],[8.71441,46.88227],[8.71335,46.88104],[8.71323,46.88018],[8.71248,46.879],[8.71223,46.8778],[8.71097,46.87611],[8.71038,46.87591]]}},{"type":"Feature","properties":{"id":"sulzbach-ur","c":"UR","p":"patent","q":"derived","k":"river"},"geometry":{"type":"LineString","coordinates":[[8.72455,46.84429],[8.72488,46.84501],[8.72461,46.84618],[8.72511,46.84675],[8.72525,46.84886],[8.72387,46.85064],[8.72489,46.85227],[8.72447,46.85327],[8.72508,46.85432],[8.72532,46.85537],[8.7248,46.85697],[8.72595,46.86049],[8.72605,46.86164],[8.72545,46.86269],[8.72525,46.86383],[8.72473,46.86464],[8.72438,46.86664],[8.72486,46.86877],[8.72537,46.8692],[8.72556,46.86981],[8.72628,46.87068],[8.72568,46.87125]]}},{"type":"Feature","properties":{"id":"hinter-schaechen-ur","c":"UR","p":"patent","q":"derived","k":"river"},"geometry":{"type":"LineString","coordinates":[[8.75568,46.81431],[8.75667,46.81481],[8.75771,46.81573],[8.75825,46.81689],[8.75894,46.81757],[8.75898,46.81814],[8.7586,46.81876],[8.75875,46.81936],[8.75848,46.82006],[8.75791,46.82071],[8.75779,46.82142],[8.7585,46.82267],[8.75987,46.82387],[8.75997,46.82478],[8.75931,46.82561],[8.762,46.82696],[8.76226,46.82787],[8.76221,46.82919],[8.76292,46.83035],[8.76238,46.83218],[8.76278,46.83278],[8.76345,46.8332],[8.76369,46.83401],[8.76338,46.83531],[8.76418,46.83601],[8.76456,46.83715],[8.76582,46.83834],[8.76579,46.83893],[8.76532,46.83982],[8.76753,46.84222],[8.76679,46.84443],[8.76723,46.84556],[8.76718,46.8461],[8.76745,46.84679],[8.7682,46.84737],[8.76885,46.84899],[8.76986,46.85001],[8.76986,46.85055],[8.77036,46.85081],[8.77087,46.85156],[8.77141,46.85318],[8.77231,46.85409],[8.77194,46.85516],[8.77208,46.85568],[8.77165,46.85765],[8.77012,46.85902],[8.76831,46.86137],[8.7672,46.86237],[8.76667,46.86344]]}},{"type":"Feature","properties":{"id":"lammerbach-ur","c":"UR","p":"patent","q":"derived","k":"river"},"geometry":{"type":"LineString","coordinates":[[8.79762,46.82954],[8.79659,46.83032],[8.79589,46.83047],[8.79386,46.83158],[8.78956,46.83093],[8.78472,46.82964],[8.7832,46.82953],[8.78052,46.82863],[8.7784,46.82876],[8.77718,46.82915],[8.77631,46.82917],[8.77468,46.8289],[8.7732,46.82904],[8.77263,46.82923],[8.7719,46.82918],[8.77091,46.82951],[8.76891,46.83086],[8.76651,46.8315],[8.76385,46.83169],[8.76345,46.8332]]}},{"type":"Feature","properties":{"id":"oefibach-ur","c":"UR","p":"patent","q":"derived","k":"river"},"geometry":{"type":"LineString","coordinates":[[8.70938,46.80641],[8.70562,46.80767],[8.70479,46.80824],[8.70395,46.80847],[8.7019,46.80874],[8.69971,46.80877],[8.69856,46.80909],[8.69773,46.8089],[8.69678,46.80907],[8.69548,46.80887],[8.69312,46.80819],[8.69083,46.80807],[8.67966,46.80595],[8.67819,46.80549],[8.67763,46.80521],[8.67732,46.80468],[8.67457,46.80255],[8.67234,46.80147],[8.67149,46.80077],[8.66997,46.80023],[8.66843,46.79943],[8.66499,46.79888]]}},{"type":"Feature","properties":{"id":"selderbach-ur","c":"UR","p":"patent","q":"derived","k":"river"},"geometry":{"type":"LineString","coordinates":[[8.70237,46.79835],[8.69667,46.79847],[8.69489,46.79806],[8.69269,46.79799],[8.69106,46.79729],[8.68903,46.79677],[8.68807,46.79617],[8.68678,46.79583],[8.68592,46.79493],[8.68536,46.79472],[8.68485,46.79478],[8.68426,46.7953],[8.68304,46.79584],[8.68186,46.79607],[8.67558,46.79476],[8.67486,46.79487],[8.67295,46.79552],[8.67227,46.79594],[8.67188,46.79596],[8.66899,46.79497],[8.66591,46.79442]]}},{"type":"Feature","properties":{"id":"sellenentobelbach-ur","c":"UR","p":"patent","q":"derived","k":"river"},"geometry":{"type":"LineString","coordinates":[[8.74653,46.74863],[8.74373,46.74942],[8.74141,46.74932],[8.74022,46.74967],[8.7368,46.75005],[8.73515,46.74963],[8.73367,46.74979],[8.73214,46.75021],[8.73085,46.75018],[8.72907,46.75116],[8.72665,46.7516],[8.72404,46.75161],[8.72187,46.75185],[8.71897,46.75256],[8.71647,46.75235],[8.71384,46.75328],[8.71241,46.75418],[8.71208,46.75418],[8.71126,46.75371],[8.70916,46.75363]]}},{"type":"Feature","properties":{"id":"schisstalbach-ur","c":"UR","p":"patent","q":"derived","k":"river"},"geometry":{"type":"MultiLineString","coordinates":[[[8.74205,46.79861],[8.74276,46.79838],[8.74367,46.79745],[8.74571,46.79606],[8.74515,46.79499],[8.74608,46.79382],[8.7476,46.79321],[8.74899,46.7918],[8.75006,46.79105],[8.75134,46.79069]],[[8.75465,46.78962],[8.7567,46.7881],[8.75669,46.7878],[8.75617,46.78729],[8.75643,46.78638],[8.75804,46.78612],[8.7577,46.78482],[8.75839,46.78378],[8.75912,46.7835],[8.76083,46.7834],[8.76134,46.78301],[8.76211,46.78073],[8.76103,46.7791],[8.76128,46.77805],[8.76074,46.77757],[8.76066,46.77698]]]}},{"type":"Feature","properties":{"id":"leitschachbach-ur","c":"UR","p":"patent","q":"derived","k":"river"},"geometry":{"type":"LineString","coordinates":[[8.60532,46.78257],[8.60589,46.78273],[8.60659,46.7826],[8.60706,46.7834],[8.60869,46.78383],[8.60901,46.78407],[8.61142,46.78444],[8.61203,46.78479],[8.61339,46.78474],[8.6143,46.78404],[8.61356,46.78294],[8.61385,46.78236],[8.6149,46.78223],[8.61678,46.78156],[8.61837,46.78004],[8.61961,46.77972],[8.62018,46.77933],[8.62281,46.77548],[8.6236,46.77511],[8.62411,46.7746],[8.62599,46.77428],[8.62611,46.77384],[8.62665,46.77352],[8.62758,46.77317],[8.62902,46.77298],[8.62952,46.77259],[8.63119,46.77198],[8.63259,46.77086],[8.63361,46.77072],[8.63461,46.77005],[8.63592,46.76952],[8.63707,46.76842],[8.63752,46.76833],[8.63836,46.76848],[8.6401,46.76796],[8.64085,46.76726],[8.64513,46.76476],[8.6463,46.76505],[8.64755,46.76512],[8.65145,46.76619],[8.65304,46.76615],[8.65337,46.76571],[8.65322,46.76515],[8.6543,46.76267],[8.65368,46.76057],[8.65396,46.75975]]}},{"type":"Feature","properties":{"id":"intschialpbach-ur","c":"UR","p":"patent","q":"derived","k":"river"},"geometry":{"type":"LineString","coordinates":[[8.5873,46.7633],[8.5876,46.76297],[8.58847,46.76285],[8.59164,46.76325],[8.59262,46.7629],[8.59372,46.76171],[8.59619,46.76097],[8.60294,46.76119],[8.60478,46.76194],[8.60588,46.76191],[8.60649,46.76152],[8.6073,46.76161],[8.60857,46.76123],[8.60984,46.76134],[8.61088,46.76088],[8.61182,46.76099],[8.61375,46.76055],[8.61521,46.76066],[8.61631,46.76046],[8.61751,46.76077],[8.61813,46.7608],[8.61892,46.76058],[8.62059,46.76094],[8.62642,46.76108],[8.62929,46.76134],[8.63104,46.76128],[8.63252,46.76159],[8.63309,46.76129],[8.63486,46.7612],[8.6363,46.7608],[8.63813,46.76106],[8.63933,46.76152],[8.64018,46.7613],[8.64149,46.76009],[8.64257,46.7597],[8.64343,46.75952],[8.64463,46.75967],[8.64542,46.75907],[8.64856,46.75848]]}},{"type":"Feature","properties":{"id":"fellibach-ur","c":"UR","p":"patent","q":"derived","k":"river"},"geometry":{"type":"MultiLineString","coordinates":[[[8.65618,46.6944],[8.65566,46.69706],[8.65584,46.69735],[8.65506,46.69844],[8.65502,46.70012],[8.65457,46.70087],[8.65457,46.70201],[8.65324,46.70415],[8.65322,46.70478],[8.65254,46.70509],[8.65181,46.70625],[8.65153,46.70731],[8.6517,46.7085],[8.65079,46.70953],[8.65071,46.70992],[8.65114,46.7111],[8.6507,46.71203],[8.65093,46.71332],[8.65073,46.71463],[8.65006,46.71632],[8.65047,46.71758],[8.64995,46.71843],[8.65049,46.71905],[8.65061,46.7204],[8.65024,46.7213],[8.64932,46.72223],[8.64986,46.72277],[8.65106,46.72505],[8.65105,46.72568],[8.65034,46.72728],[8.65024,46.72817],[8.64976,46.72873],[8.65031,46.72915],[8.65031,46.72987],[8.65009,46.73011],[8.65043,46.73064],[8.64994,46.73219],[8.65035,46.73453],[8.65017,46.73525],[8.64956,46.73623],[8.64916,46.73797],[8.64774,46.73892],[8.64686,46.74007],[8.64558,46.74012],[8.64539,46.74033],[8.6439,46.74071],[8.63947,46.74071]],[[8.65735,46.68911],[8.65745,46.68966],[8.65694,46.69088]]]}},{"type":"Feature","properties":{"id":"gornerbach-ur","c":"UR","p":"patent","q":"derived","k":"river"},"geometry":{"type":"LineString","coordinates":[[8.55919,46.76618],[8.56053,46.76428],[8.56126,46.76233],[8.56219,46.76105],[8.56222,46.75996],[8.56341,46.75906],[8.56344,46.75817],[8.56378,46.75769],[8.56729,46.7548],[8.56761,46.75411],[8.56831,46.75338],[8.57343,46.75241],[8.57494,46.7515],[8.57557,46.75142],[8.57741,46.75052],[8.58013,46.7499],[8.58081,46.7499],[8.58306,46.74809],[8.58501,46.74739],[8.58708,46.74694],[8.58848,46.74564],[8.59016,46.74453],[8.59084,46.74328],[8.59329,46.74155],[8.5958,46.7385],[8.59682,46.7376],[8.59686,46.73716],[8.59833,46.73661],[8.59866,46.73666],[8.59972,46.73555],[8.5998,46.7351],[8.60292,46.73377],[8.6033,46.73303],[8.60447,46.73242],[8.60482,46.73164],[8.60568,46.73124],[8.60757,46.72962],[8.60954,46.7286],[8.61199,46.72829],[8.61335,46.72724],[8.61367,46.72673],[8.61548,46.72644],[8.61643,46.7257],[8.61817,46.72545],[8.61875,46.72553],[8.61918,46.72532]]}},{"type":"Feature","properties":{"id":"kartigelbach-ur","c":"UR","p":"patent","q":"derived","k":"river"},"geometry":{"type":"LineString","coordinates":[[8.52403,46.70751],[8.52528,46.70876],[8.5278,46.70957],[8.52806,46.70986],[8.52882,46.71007],[8.53116,46.70996],[8.53274,46.70926],[8.53704,46.70951],[8.53793,46.71017],[8.5386,46.71111],[8.53965,46.71148],[8.53948,46.71209],[8.53982,46.71258],[8.54157,46.71334],[8.54301,46.71509],[8.54432,46.71569],[8.54457,46.716],[8.5472,46.71701],[8.5478,46.71804],[8.54921,46.71839],[8.55136,46.7193],[8.55245,46.71987],[8.55373,46.72088],[8.55531,46.72143],[8.55759,46.72184],[8.55841,46.72219]]}},{"type":"Feature","properties":{"id":"voralpreuss-ur","c":"UR","p":"patent","q":"derived","k":"river"},"geometry":{"type":"LineString","coordinates":[[8.47824,46.69733],[8.47991,46.69575],[8.4818,46.69437],[8.48232,46.69346],[8.48318,46.69306],[8.48414,46.6918],[8.48558,46.69116],[8.48627,46.68986],[8.48676,46.68947],[8.4872,46.68932],[8.48849,46.68931],[8.48872,46.68897],[8.48936,46.68878],[8.48967,46.68837],[8.49186,46.68784],[8.49223,46.68739],[8.49346,46.68694],[8.49445,46.68618],[8.49542,46.686],[8.49641,46.68531],[8.49727,46.68411],[8.49733,46.68365],[8.49841,46.68262],[8.49972,46.682],[8.50069,46.68111],[8.50207,46.68073],[8.50286,46.68004],[8.50285,46.67957],[8.50334,46.67917],[8.50337,46.67879],[8.50399,46.67864],[8.50415,46.67782],[8.50486,46.67762],[8.50565,46.67701],[8.5065,46.67681],[8.5067,46.67631],[8.50738,46.67604],[8.50829,46.67374],[8.50824,46.67336],[8.5094,46.67274],[8.50966,46.67237],[8.51067,46.67229],[8.51315,46.67166],[8.51388,46.6718],[8.51422,46.6716],[8.5153,46.67151],[8.51556,46.6713],[8.51907,46.67036],[8.52042,46.66933],[8.52146,46.66923],[8.52313,46.66853],[8.52382,46.66859],[8.52533,46.66803],[8.5257,46.6676],[8.5271,46.66682],[8.52817,46.66549],[8.52881,46.66518],[8.52973,46.66431],[8.53296,46.66043],[8.53502,46.65985]]}},{"type":"Feature","properties":{"id":"unteralpreuss-ur","c":"UR","p":"patent","q":"derived","k":"river"},"geometry":{"type":"LineString","coordinates":[[8.64035,46.5717],[8.64133,46.57247],[8.64256,46.57291],[8.64388,46.57236],[8.64505,46.57223],[8.64593,46.57266],[8.64699,46.57352],[8.64722,46.57397],[8.64709,46.57481],[8.64768,46.57585],[8.64767,46.57746],[8.64798,46.57836],[8.64758,46.57897],[8.64818,46.5796],[8.64816,46.58015],[8.64881,46.58187],[8.64959,46.58218],[8.64926,46.58315],[8.65012,46.58424],[8.65052,46.58538],[8.65548,46.58825],[8.65602,46.58894],[8.65585,46.58944],[8.6565,46.59009],[8.6572,46.5919],[8.65826,46.59205],[8.65896,46.59319],[8.65924,46.59335],[8.65962,46.5932],[8.66032,46.59359],[8.66067,46.59436],[8.66043,46.59533],[8.65938,46.59563],[8.6585,46.59642],[8.65875,46.59803],[8.65851,46.59883],[8.65855,46.60092],[8.65613,46.60171],[8.65541,46.60224],[8.65508,46.60305],[8.65408,46.60334],[8.654,46.60378],[8.65336,46.60413],[8.65326,46.6045],[8.65378,46.60493],[8.65364,46.60536],[8.65429,46.60593],[8.65402,46.60658],[8.65254,46.60719],[8.65302,46.60768],[8.65269,46.608],[8.65098,46.6081],[8.65033,46.60908],[8.6504,46.60954],[8.64967,46.60961],[8.649,46.60929],[8.64878,46.60935],[8.64844,46.60986],[8.64769,46.61034],[8.64658,46.61031],[8.64613,46.61068],[8.64619,46.61114],[8.64593,46.61142],[8.6447,46.61174],[8.64408,46.61295],[8.64345,46.61353],[8.64332,46.61463],[8.64239,46.61576],[8.64283,46.61635],[8.64273,46.61683],[8.64189,46.61709],[8.64058,46.61716],[8.63994,46.61749],[8.63941,46.61857],[8.63857,46.61958],[8.63733,46.62056],[8.63681,46.6215],[8.63579,46.62196],[8.62983,46.62599],[8.62734,46.62717],[8.62684,46.62795],[8.62552,46.62874],[8.62464,46.62874],[8.62404,46.62825],[8.62297,46.62924],[8.62141,46.62944],[8.62087,46.62937],[8.6199,46.62867],[8.61937,46.62853],[8.61843,46.62864],[8.61746,46.62929],[8.61635,46.62889],[8.61557,46.62893],[8.61468,46.62961],[8.61316,46.62981],[8.61085,46.63057],[8.61048,46.63085],[8.61072,46.63144],[8.61041,46.63178],[8.60935,46.63175],[8.60899,46.63213],[8.60838,46.6323],[8.60814,46.63282],[8.60672,46.63289],[8.606,46.63371],[8.60355,46.63465],[8.60019,46.63478],[8.59948,46.63462],[8.59805,46.63386],[8.59631,46.63384],[8.59418,46.63458],[8.59268,46.63601],[8.59131,46.63626],[8.58855,46.63741],[8.58686,46.63753],[8.58645,46.63816]]}},{"type":"Feature","properties":{"id":"oberalpreuss-ur","c":"UR","p":"patent","q":"derived","k":"river"},"geometry":{"type":"MultiLineString","coordinates":[[[8.62818,46.6465],[8.62812,46.64617],[8.62753,46.64564],[8.62751,46.64529],[8.6273,46.64512],[8.62648,46.64511],[8.62616,46.64447],[8.6232,46.64316],[8.62236,46.64242],[8.62263,46.64209],[8.62244,46.64188],[8.62081,46.64121],[8.62026,46.64126],[8.6199,46.64154],[8.61889,46.64142],[8.61871,46.64047],[8.61838,46.64],[8.61764,46.63961],[8.6163,46.63959],[8.61532,46.63919],[8.61517,46.63875],[8.61534,46.63856],[8.6148,46.63836],[8.61456,46.63796],[8.61213,46.6365],[8.61121,46.63626],[8.61044,46.63472],[8.60856,46.63412],[8.60778,46.63338],[8.60724,46.6335],[8.60652,46.63301]],[[8.65287,46.6584],[8.65192,46.65783],[8.65123,46.65704],[8.65051,46.65675],[8.64955,46.65678],[8.64847,46.65649],[8.64836,46.65678],[8.64811,46.6568],[8.64741,46.65641],[8.64696,46.6566],[8.64647,46.65643],[8.64582,46.65656],[8.64398,46.65626],[8.64343,46.65549],[8.64245,46.655],[8.64125,46.65467],[8.64114,46.65436],[8.64049,46.65402],[8.6403,46.65328],[8.63946,46.65307],[8.63904,46.65231],[8.63864,46.65208],[8.638,46.65207],[8.63745,46.65134],[8.63562,46.65108],[8.63486,46.65054],[8.63398,46.65056],[8.63307,46.65027],[8.63194,46.64896],[8.63123,46.64875],[8.63112,46.64838],[8.63036,46.6483],[8.6302,46.64799],[8.62931,46.64753]]]}},{"type":"Feature","properties":{"id":"lochbergbach-ur","c":"UR","p":"patent","q":"derived","k":"river"},"geometry":{"type":"MultiLineString","coordinates":[[[8.46805,46.6148],[8.46913,46.61397],[8.46907,46.61368],[8.46993,46.61269],[8.47199,46.61213],[8.47235,46.61154],[8.47389,46.6112],[8.47669,46.61111],[8.47744,46.6109],[8.47844,46.61032],[8.48014,46.61032],[8.48163,46.60986],[8.48248,46.60986],[8.4834,46.6094],[8.48602,46.60893],[8.48807,46.60809],[8.4892,46.60797],[8.4904,46.60829],[8.49156,46.60789],[8.49219,46.6079]],[[8.49247,46.60765],[8.49306,46.60713],[8.49397,46.60687],[8.49434,46.60621],[8.495,46.6058],[8.49642,46.60422],[8.49831,46.60274],[8.4986,46.60228],[8.49899,46.60209],[8.50028,46.60206],[8.50246,46.59971],[8.50397,46.59955],[8.50532,46.60045],[8.50747,46.60091]]]}},{"type":"Feature","properties":{"id":"tiefenbach-ur","c":"UR","p":"patent","q":"derived","k":"river"},"geometry":{"type":"LineString","coordinates":[[8.45513,46.60852],[8.4576,46.60809],[8.45875,46.60707],[8.45995,46.60648],[8.46128,46.60611],[8.4627,46.60513],[8.46382,46.60478],[8.46438,46.60427],[8.46439,46.60403],[8.46395,46.60368],[8.46381,46.60285],[8.46317,46.60205],[8.46199,46.60129],[8.46072,46.60123],[8.46032,46.60101],[8.45981,46.60002],[8.46005,46.5998],[8.46081,46.59983],[8.46129,46.59893],[8.46025,46.59771],[8.45805,46.59713],[8.45804,46.59609],[8.45728,46.59493],[8.45697,46.59361],[8.45757,46.59232],[8.45848,46.59179],[8.4583,46.5914],[8.45849,46.59097],[8.45817,46.59052],[8.45825,46.58977],[8.45968,46.58837]]}},{"type":"Feature","properties":{"id":"meienreuss-ur","c":"UR","p":"patent","q":"derived","k":"river"},"geometry":{"type":"LineString","coordinates":[[8.47329,46.71841],[8.472,46.71968],[8.46894,46.72035],[8.46838,46.7203],[8.46585,46.7221],[8.46347,46.72554],[8.46158,46.72669],[8.46004,46.72868],[8.45973,46.73016],[8.45979,46.73278],[8.46052,46.73387],[8.46065,46.73478],[8.46119,46.73505],[8.46103,46.736],[8.46124,46.7364],[8.46264,46.73684],[8.46477,46.73845],[8.46511,46.73899],[8.46606,46.73946],[8.46726,46.74053],[8.47118,46.742],[8.47365,46.7434],[8.47545,46.74365],[8.47657,46.74327],[8.47782,46.7433],[8.47879,46.7431],[8.48105,46.74371],[8.48248,46.74383],[8.48967,46.74231],[8.49304,46.74223],[8.49451,46.74201],[8.49638,46.74137],[8.49808,46.74101],[8.49932,46.74033],[8.50039,46.74014],[8.50177,46.73957],[8.50328,46.73989],[8.50508,46.73984],[8.50594,46.7402],[8.50717,46.74028],[8.50882,46.73968],[8.50937,46.73972],[8.51008,46.73893],[8.51134,46.73834],[8.5119,46.73786],[8.51325,46.73744],[8.51437,46.73737],[8.5155,46.73639],[8.51831,46.7358],[8.5196,46.73532],[8.52017,46.73506],[8.52045,46.73464],[8.52113,46.73453],[8.52142,46.73389],[8.52167,46.73396],[8.52264,46.73358],[8.52392,46.73364],[8.52493,46.7339],[8.52565,46.73377],[8.52601,46.73392],[8.5269,46.73392],[8.52735,46.7337],[8.5298,46.73372],[8.53132,46.73276],[8.53242,46.73226],[8.53356,46.73208],[8.53447,46.73145],[8.54084,46.72971],[8.54327,46.72853],[8.54447,46.7283],[8.54534,46.72758],[8.54648,46.72735],[8.5477,46.72648],[8.54965,46.72653],[8.54985,46.72621],[8.55147,46.72557],[8.55303,46.72453],[8.55384,46.72445],[8.55426,46.72423],[8.55483,46.7234],[8.5556,46.72286],[8.55861,46.72212],[8.56057,46.72055],[8.5619,46.72048],[8.56365,46.72123],[8.56452,46.72132],[8.56513,46.72084],[8.56684,46.72009],[8.56726,46.71937],[8.56817,46.71874],[8.56908,46.71859],[8.57061,46.71786],[8.57223,46.71783],[8.57303,46.71716],[8.57434,46.71727],[8.57507,46.71708],[8.57696,46.71578],[8.57892,46.71594],[8.58022,46.71572],[8.58191,46.71462],[8.58286,46.71373],[8.58519,46.7125],[8.58583,46.71182],[8.58698,46.71181],[8.5878,46.71136],[8.5881,46.71144],[8.58868,46.71119],[8.59041,46.71119],[8.59142,46.71078],[8.59305,46.71085],[8.59443,46.70998],[8.5955,46.70979],[8.59605,46.70931],[8.5968,46.70933],[8.59726,46.70885],[8.59859,46.7087],[8.5994,46.70814],[8.59999,46.70803],[8.60137,46.70829],[8.60486,46.70947]]}},{"type":"Feature","properties":{"id":"goeschener-reuss-ur","c":"UR","p":"patent","q":"derived","k":"river"},"geometry":{"type":"MultiLineString","coordinates":[[[8.42741,46.67253],[8.43039,46.67065],[8.4316,46.66921],[8.43291,46.66904]],[[8.43291,46.66904],[8.43379,46.66857]],[[8.43291,46.66904],[8.4337,46.66887],[8.43379,46.66857]],[[8.43379,46.66857],[8.43485,46.66792],[8.43626,46.6676],[8.43678,46.66661],[8.43792,46.66617],[8.43953,46.66588],[8.44048,46.66547],[8.44129,46.66492],[8.44155,46.6644],[8.44285,46.66391],[8.44291,46.66322],[8.44319,46.66288],[8.44442,46.66246],[8.44484,46.66199],[8.44652,46.66152],[8.44755,46.66078],[8.44888,46.66039],[8.44962,46.66036],[8.45059,46.65955],[8.45131,46.65961],[8.45193,46.65943],[8.4541,46.65822],[8.45469,46.65815],[8.45527,46.65732],[8.45639,46.65667],[8.45727,46.65646],[8.45819,46.65587],[8.45915,46.65482],[8.45992,46.65451],[8.46048,46.65397],[8.46276,46.65363],[8.46328,46.65333],[8.46416,46.65332],[8.46562,46.65265],[8.46657,46.65255],[8.46728,46.65274],[8.46761,46.6522],[8.46818,46.6518],[8.469,46.65172]],[[8.49855,46.64548],[8.50383,46.64768],[8.50549,46.64878],[8.50657,46.64911],[8.50714,46.64968],[8.50942,46.65084],[8.51069,46.65079],[8.51168,46.65042],[8.51587,46.65019],[8.51799,46.65048]],[[8.52031,46.65101],[8.52313,46.65207],[8.52526,46.65242],[8.52584,46.65267],[8.52647,46.6534]],[[8.52647,46.6534],[8.5271,46.65406]],[[8.52647,46.6534],[8.52664,46.65375],[8.5271,46.65406]],[[8.5271,46.65406],[8.52765,46.6544],[8.5291,46.65475],[8.53076,46.6564],[8.53105,46.65738],[8.53179,46.65803],[8.53356,46.65854],[8.5345,46.65911],[8.53463,46.6595],[8.53522,46.66],[8.53654,46.66042],[8.53804,46.66007],[8.54128,46.66047],[8.54333,46.66115],[8.5481,46.66185],[8.54957,46.66266],[8.55067,46.66215],[8.55358,46.66236],[8.55436,46.6626],[8.55611,46.66369],[8.55691,46.6637],[8.55836,46.66415],[8.55946,46.6639],[8.5611,46.66431],[8.56183,46.66469],[8.56271,46.66448],[8.5634,46.66461],[8.56437,46.66441],[8.56683,46.66474],[8.56864,46.66445],[8.56999,46.66522],[8.57187,46.66516],[8.57507,46.66701],[8.57677,46.66731],[8.57899,46.66681],[8.57961,46.6672],[8.58145,46.66705],[8.58247,46.66751],[8.58368,46.66769],[8.58541,46.66751],[8.58705,46.66771],[8.58806,46.66748],[8.58926,46.66764],[8.59188,46.66736]]]}},{"type":"Feature","properties":{"id":"gotthardreuss-ur","c":"UR","p":"patent","q":"derived","k":"river"},"geometry":{"type":"MultiLineString","coordinates":[[[8.55907,46.58148],[8.56013,46.58221],[8.56048,46.583],[8.55995,46.58418],[8.56006,46.58494]],[[8.5599,46.58549],[8.56002,46.58628]],[[8.56006,46.58494],[8.5599,46.58549]],[[8.56006,46.58494],[8.56014,46.58524],[8.5599,46.58549]],[[8.56002,46.58628],[8.56034,46.58661],[8.56021,46.58721]],[[8.56002,46.58628],[8.55963,46.58667],[8.56021,46.58721]],[[8.56021,46.58721],[8.56053,46.58769],[8.56025,46.58874],[8.56125,46.59037],[8.56187,46.59067],[8.56264,46.59159],[8.56473,46.59295],[8.56498,46.59374],[8.56533,46.59406],[8.56513,46.59546],[8.5654,46.596],[8.56564,46.59802],[8.56509,46.5999],[8.56588,46.60168],[8.56744,46.60286],[8.56746,46.60362],[8.56714,46.60407],[8.56748,46.60561],[8.5687,46.60641],[8.56899,46.60781],[8.57145,46.60957],[8.57223,46.6098],[8.57253,46.61045],[8.57243,46.61193],[8.57291,46.61287],[8.5727,46.61359],[8.57173,46.61455],[8.57196,46.61524],[8.57113,46.6159],[8.57136,46.61738],[8.5703,46.61772],[8.57013,46.6182],[8.56915,46.61879],[8.5689,46.61967],[8.57015,46.62025],[8.56957,46.62093],[8.56895,46.62117]]]}},{"type":"Feature","properties":{"id":"engelberger-aa-ur","c":"UR","p":"patent","q":"derived","k":"river"},"geometry":{"type":"LineString","coordinates":[[8.54567,46.83372],[8.5452,46.83281],[8.54406,46.83275],[8.54371,46.83235],[8.54276,46.83194],[8.54282,46.83095],[8.5411,46.83015],[8.54032,46.82944],[8.53995,46.82867],[8.5391,46.82804],[8.53544,46.82696],[8.53325,46.82707],[8.53279,46.8267],[8.53165,46.82651],[8.53042,46.82599],[8.52903,46.82567],[8.52721,46.82554],[8.52647,46.82593],[8.52473,46.82543],[8.52361,46.82588],[8.52291,46.82572],[8.52216,46.82586],[8.52138,46.82531],[8.52061,46.82505],[8.52029,46.8254],[8.51871,46.82537],[8.51829,46.82578],[8.51737,46.82532],[8.5161,46.82518],[8.51547,46.8254],[8.51401,46.82483],[8.51311,46.82419],[8.51317,46.82365],[8.51254,46.82333],[8.51225,46.82155],[8.51167,46.82044],[8.51109,46.8202],[8.50956,46.82029],[8.50798,46.81969],[8.50763,46.81877],[8.50665,46.81805],[8.50647,46.81746],[8.50489,46.81699],[8.50383,46.81593],[8.5034,46.81444],[8.50394,46.81248],[8.50471,46.81105],[8.50419,46.81075],[8.50288,46.80925],[8.5021,46.80809],[8.5022,46.80779],[8.50178,46.80713],[8.49987,46.80518],[8.49936,46.80499],[8.49892,46.80452],[8.49906,46.80383],[8.49848,46.80353],[8.498,46.80276],[8.49727,46.8025],[8.49632,46.80156],[8.49505,46.80089],[8.49487,46.80051],[8.4951,46.80004],[8.4948,46.79962],[8.49385,46.79943],[8.49333,46.79867],[8.49256,46.79841],[8.4925,46.79807],[8.49094,46.79747],[8.48945,46.79656],[8.48773,46.79584],[8.48669,46.7958],[8.48191,46.79434]]}},{"type":"Feature","properties":{"id":"isitaler-bach-ur","c":"UR","p":"patent","q":"derived","k":"river"},"geometry":{"type":"MultiLineString","coordinates":[[[8.52478,46.85752],[8.52397,46.85815],[8.52102,46.85971],[8.51924,46.86123],[8.51785,46.86181],[8.51705,46.86278],[8.51566,46.86358],[8.51493,46.86378],[8.51346,46.8636],[8.51279,46.86376],[8.51161,46.86461],[8.51192,46.8657],[8.51186,46.8667],[8.51067,46.86764],[8.51065,46.86823],[8.5102,46.8688],[8.5101,46.86947],[8.51037,46.87035],[8.51014,46.87117],[8.50967,46.87141],[8.5095,46.8719],[8.50986,46.87254],[8.51058,46.87308],[8.51109,46.87437],[8.51155,46.87485],[8.51316,46.87543],[8.51373,46.87597],[8.51389,46.87668],[8.5149,46.87781],[8.51595,46.8784],[8.51667,46.87842],[8.51703,46.87872],[8.51693,46.87933],[8.51611,46.88016],[8.5151,46.88039],[8.51542,46.88234],[8.51566,46.88274],[8.51725,46.88375],[8.51748,46.88409],[8.518,46.88601],[8.51785,46.88791],[8.51848,46.88873],[8.51858,46.88988],[8.51931,46.89113],[8.51864,46.89334],[8.51983,46.89456],[8.51971,46.89527],[8.52018,46.89705],[8.52101,46.89744],[8.52101,46.89861],[8.52137,46.89944],[8.52106,46.90006],[8.52137,46.90034],[8.52142,46.90079],[8.52197,46.90112],[8.52314,46.90308],[8.52395,46.90324],[8.52432,46.90399],[8.52565,46.90493],[8.52645,46.90582],[8.52778,46.90642],[8.5279,46.9067],[8.5276,46.90725],[8.52821,46.90813],[8.52962,46.90869],[8.52992,46.90899],[8.53118,46.90938],[8.53282,46.91036],[8.53416,46.91022],[8.53576,46.91075],[8.53682,46.91057],[8.53815,46.91106],[8.53903,46.91096],[8.53975,46.91135],[8.54107,46.91121],[8.54336,46.91218],[8.54435,46.91237],[8.54541,46.91241],[8.54721,46.91218],[8.54846,46.91265],[8.5496,46.91271],[8.552,46.91253],[8.55358,46.91173],[8.55513,46.91125],[8.55654,46.91155],[8.55782,46.91104],[8.55943,46.9108],[8.56139,46.9099],[8.56206,46.9099]],[[8.56404,46.91008],[8.56556,46.91078],[8.56825,46.91099],[8.56948,46.91144],[8.57155,46.91131],[8.57332,46.9119],[8.57573,46.91205],[8.57722,46.91265],[8.5795,46.91308],[8.58097,46.9138],[8.58319,46.91409],[8.58588,46.91508],[8.58684,46.91526],[8.58841,46.91623],[8.58951,46.91656],[8.59143,46.9178],[8.59311,46.91849],[8.59615,46.91866]]]}},{"type":"Feature","properties":{"id":"chlitaler-bach-ur","c":"UR","p":"patent","q":"derived","k":"river"},"geometry":{"type":"LineString","coordinates":[[8.55385,46.88191],[8.55427,46.88485],[8.55459,46.88542],[8.55534,46.88593],[8.55535,46.88671],[8.55622,46.88763],[8.5558,46.88822],[8.5559,46.88874],[8.55563,46.88919],[8.55581,46.89016],[8.55718,46.89144],[8.55708,46.89184],[8.55827,46.89391],[8.55821,46.89554],[8.55758,46.89636],[8.5575,46.89793],[8.55721,46.89853],[8.55777,46.89897],[8.55781,46.90038],[8.55872,46.90127],[8.55929,46.90153],[8.55906,46.90265],[8.55864,46.90299],[8.5593,46.90414],[8.55918,46.9053],[8.55979,46.906],[8.55963,46.90634],[8.55981,46.90662],[8.56091,46.90733],[8.56135,46.90854],[8.56229,46.90977]]}},{"type":"Feature","properties":{"id":"schaechen-ur","c":"UR","p":"patent","q":"derived","k":"river"},"geometry":{"type":"LineString","coordinates":[[8.8283,46.84364],[8.82913,46.84438],[8.82972,46.84549],[8.83113,46.84647],[8.83127,46.84864],[8.83099,46.85028],[8.83011,46.85107],[8.82879,46.8529],[8.82895,46.85371],[8.82953,46.85429],[8.82949,46.85574],[8.82861,46.85604],[8.8274,46.85756],[8.82669,46.85808],[8.82573,46.85793],[8.82534,46.85839],[8.82478,46.85865],[8.82454,46.85897],[8.82468,46.85935],[8.82436,46.85972],[8.82457,46.86],[8.82349,46.86053],[8.82311,46.86127],[8.8227,46.86149],[8.8228,46.86191],[8.82149,46.86251],[8.82062,46.86263],[8.81984,46.86358],[8.8186,46.8639],[8.81774,46.86444],[8.81647,46.86595],[8.81482,46.86655],[8.81426,46.86659],[8.81319,46.86626],[8.8114,46.86602],[8.80938,46.86514],[8.80847,46.86508],[8.80781,46.86445],[8.80437,46.86407],[8.80306,46.8641],[8.80227,46.86435],[8.80137,46.86423],[8.80051,46.86447],[8.79951,46.86438],[8.79884,46.86454],[8.79723,46.86425],[8.79633,46.86461],[8.79531,46.86448],[8.79429,46.86457],[8.79299,46.86421],[8.79202,46.86426],[8.78985,46.86366],[8.78797,46.86351],[8.78622,46.86379],[8.78554,46.86365],[8.78464,46.86374],[8.7838,46.86433],[8.78315,46.86446],[8.78125,46.86361],[8.77961,46.86346],[8.77728,46.86286],[8.77632,46.86323],[8.77515,46.86327],[8.77404,46.86283],[8.77303,46.86301],[8.77252,46.86282],[8.77096,46.8628],[8.76923,46.86349],[8.76809,46.86356],[8.76515,46.86341],[8.76329,46.86272],[8.76097,46.86252],[8.7591,46.86377],[8.75702,46.86412],[8.75599,46.86394],[8.7541,46.86421],[8.75028,46.8656],[8.74941,46.86641],[8.74819,46.86658],[8.74696,46.86749],[8.74538,46.86829],[8.74158,46.86936],[8.74023,46.86923],[8.73842,46.86958],[8.73456,46.86971],[8.73317,46.86951],[8.72588,46.87134],[8.72452,46.87116],[8.72344,46.87193],[8.72149,46.87253],[8.72084,46.87256],[8.72024,46.87302],[8.71784,46.87362],[8.71641,46.87418],[8.71564,46.87474],[8.71255,46.87581],[8.71199,46.87595],[8.71077,46.87576],[8.7095,46.87611],[8.70851,46.87653],[8.70639,46.87793],[8.70565,46.87815],[8.70235,46.87816],[8.70157,46.87837],[8.70062,46.87826],[8.69879,46.87873],[8.69615,46.87891],[8.69281,46.8786],[8.69211,46.8787],[8.69047,46.8781],[8.68926,46.87729],[8.6867,46.87757],[8.68527,46.87717],[8.68494,46.87667],[8.6823,46.87638],[8.6788,46.87777],[8.67842,46.87869],[8.67736,46.87872],[8.67627,46.87832],[8.67476,46.87884],[8.6731,46.87889],[8.67193,46.8794],[8.67051,46.87829],[8.66879,46.87852],[8.66817,46.87822],[8.66741,46.87826],[8.66572,46.87741],[8.66372,46.87729],[8.66179,46.87677],[8.66114,46.87628],[8.66018,46.87493],[8.65925,46.87424],[8.65329,46.87136],[8.65107,46.87056],[8.63657,46.86403],[8.63482,46.86358],[8.63271,46.86353]]}},{"type":"Feature","properties":{"id":"brunnibach-ur","c":"UR","p":"patent","q":"derived","k":"river"},"geometry":{"type":"MultiLineString","coordinates":[[[8.8036,46.7578],[8.80504,46.76071],[8.80441,46.7613],[8.80442,46.76175],[8.80532,46.76211],[8.80587,46.7627],[8.80638,46.76535],[8.8063,46.76631],[8.80555,46.76694],[8.80519,46.76797],[8.80548,46.76877],[8.80523,46.76961],[8.80472,46.7699],[8.80489,46.77057],[8.80461,46.77068],[8.80494,46.77094],[8.80442,46.7719],[8.80471,46.77234],[8.80443,46.77287],[8.80398,46.77296],[8.80385,46.7735],[8.8035,46.77381],[8.80398,46.77442],[8.80345,46.77523],[8.80353,46.77609],[8.80308,46.77654],[8.80294,46.77719],[8.8023,46.778],[8.80097,46.77874],[8.80021,46.77858],[8.7994,46.77865],[8.79817,46.77805],[8.796,46.7775],[8.79461,46.77792],[8.79345,46.778],[8.79212,46.77848],[8.7896,46.7808],[8.78683,46.78199],[8.78694,46.78314],[8.78554,46.7843],[8.7848,46.78458]],[[8.79765,46.7499],[8.79775,46.75053],[8.79927,46.75145],[8.79968,46.75209],[8.7997,46.75253],[8.80045,46.75332],[8.80122,46.75359],[8.80183,46.7546]],[[8.80183,46.7546],[8.80265,46.75509],[8.8029,46.75597],[8.80332,46.7562],[8.8035,46.75674],[8.80318,46.75743],[8.8036,46.7578]],[[8.80183,46.7546],[8.80167,46.75523],[8.80224,46.75561],[8.8024,46.75727],[8.8036,46.7578]]]}},{"type":"Feature","properties":{"id":"kaerstelenbach-ur","c":"UR","p":"patent","q":"derived","k":"river"},"geometry":{"type":"MultiLineString","coordinates":[[[8.70937,46.76691],[8.70763,46.7665],[8.70598,46.76683],[8.70487,46.76733],[8.70325,46.76707],[8.70269,46.76742],[8.70175,46.7675],[8.69962,46.76814],[8.69717,46.76794],[8.69628,46.76819],[8.69565,46.76863],[8.6949,46.76866],[8.69427,46.76898],[8.69336,46.76893],[8.69261,46.76978],[8.69133,46.76992],[8.69074,46.77026],[8.68884,46.77074],[8.6861,46.7706],[8.68188,46.77114],[8.68015,46.77063],[8.67565,46.77086],[8.67443,46.76997],[8.67284,46.76925],[8.67163,46.76908],[8.67007,46.76933]],[[8.79729,46.79213],[8.79687,46.79127],[8.79704,46.79046],[8.79584,46.78962],[8.79428,46.78888],[8.79338,46.78765],[8.79271,46.7874],[8.79193,46.78654],[8.79122,46.78649],[8.79089,46.78624],[8.7906,46.78632],[8.78994,46.78593],[8.78738,46.78515],[8.78666,46.78473],[8.78489,46.7846],[8.78323,46.78404],[8.78186,46.78285],[8.77978,46.7824],[8.77817,46.78239],[8.77735,46.78191],[8.77621,46.78169],[8.77569,46.78121],[8.77446,46.78081],[8.77258,46.77968],[8.77151,46.77973],[8.76814,46.779],[8.76726,46.7784],[8.76589,46.77819],[8.765,46.77738],[8.76333,46.77709],[8.75857,46.77676],[8.75509,46.77562],[8.75358,46.77466],[8.75262,46.7746],[8.74854,46.77348],[8.74698,46.77329],[8.74532,46.77233],[8.74462,46.77215],[8.74264,46.77085],[8.74119,46.77092],[8.74035,46.77073],[8.73967,46.77029],[8.73825,46.77032],[8.73743,46.76998],[8.73696,46.77009],[8.73531,46.76932],[8.73428,46.76925],[8.7337,46.7694],[8.73217,46.76891],[8.73062,46.76909],[8.72964,46.76834],[8.7286,46.76818],[8.72707,46.7684],[8.72654,46.76804],[8.72489,46.76802],[8.72323,46.76765],[8.71938,46.76802],[8.71802,46.76754],[8.71617,46.76722],[8.71343,46.76735],[8.71245,46.76631],[8.71198,46.76614],[8.71101,46.76631],[8.71004,46.76676]],[[8.79833,46.79331],[8.79817,46.79265],[8.79729,46.79213]],[[8.79833,46.79331],[8.79751,46.79265],[8.79729,46.79213]],[[8.80899,46.80278],[8.80784,46.80083],[8.80673,46.80019],[8.80638,46.79967],[8.80467,46.799],[8.80314,46.79877],[8.80241,46.79824],[8.80012,46.79521],[8.79833,46.79331]],[[8.82588,46.81066],[8.82468,46.80943],[8.8227,46.80932],[8.81784,46.80856],[8.81451,46.80749],[8.81371,46.80741],[8.8114,46.80644],[8.81048,46.80623]]]}},{"type":"Feature","properties":{"id":"etzlibach-ur","c":"UR","p":"patent","q":"derived","k":"river"},"geometry":{"type":"MultiLineString","coordinates":[[[8.68698,46.72297],[8.68869,46.72222],[8.68947,46.72154],[8.6894,46.7209],[8.68975,46.72035],[8.68883,46.72018],[8.68836,46.71905],[8.69175,46.71824],[8.69243,46.71717],[8.69403,46.71635],[8.69499,46.71665],[8.69612,46.7166],[8.69835,46.71694]],[[8.69971,46.71651],[8.70064,46.71661],[8.70091,46.71638],[8.70269,46.71658],[8.70661,46.71636],[8.70934,46.71676],[8.7124,46.71638],[8.71375,46.71663],[8.71521,46.71653],[8.71855,46.71742],[8.721,46.71724],[8.72302,46.71736],[8.72335,46.7176],[8.7246,46.71744],[8.72487,46.71769],[8.72494,46.71867],[8.72436,46.71962],[8.72351,46.71995]],[[8.72364,46.72111],[8.72406,46.72159],[8.72328,46.72256],[8.72347,46.72315],[8.7233,46.72421],[8.72235,46.72502],[8.72212,46.72592],[8.72103,46.72622],[8.72074,46.72669],[8.72013,46.72708],[8.71995,46.72781],[8.72054,46.72862],[8.72006,46.72902],[8.72029,46.72973],[8.71859,46.73152],[8.71768,46.73206],[8.71726,46.73311],[8.71692,46.73336],[8.71676,46.73489],[8.716,46.73559],[8.71594,46.73695],[8.71634,46.73755],[8.7164,46.73852],[8.71567,46.74016],[8.71554,46.74171],[8.71503,46.74241],[8.71499,46.74613],[8.71319,46.74861],[8.71153,46.74926],[8.7113,46.74984],[8.71036,46.7507],[8.71022,46.7519],[8.709,46.75324],[8.70916,46.75363],[8.70821,46.75437],[8.70852,46.75701],[8.70747,46.75787],[8.7072,46.75992],[8.70521,46.76276],[8.70511,46.7641],[8.70443,46.76455],[8.70456,46.76605],[8.70278,46.76657],[8.7015,46.76757]],[[8.72351,46.71995],[8.7234,46.72066],[8.72364,46.72111]],[[8.72351,46.71995],[8.72312,46.72005],[8.72284,46.7205],[8.72364,46.72111]]]}},{"type":"Feature","properties":{"id":"faetschbach-ur","c":"UR","p":"patent","q":"derived","k":"river"},"geometry":{"type":"MultiLineString","coordinates":[[[8.8746,46.85759],[8.87621,46.85825],[8.8765,46.8594],[8.87578,46.86133],[8.87466,46.86184],[8.87444,46.86238],[8.87509,46.86357],[8.87535,46.86478],[8.87493,46.86501],[8.87489,46.86541],[8.87448,46.86582],[8.87547,46.86639],[8.87593,46.87047],[8.87571,46.87148],[8.87721,46.87218],[8.87811,46.87294]],[[8.87811,46.87294],[8.8787,46.87323]],[[8.87811,46.87294],[8.87815,46.87293],[8.87824,46.87295],[8.87852,46.87302],[8.8787,46.87323]],[[8.8787,46.87323],[8.88089,46.87565],[8.88338,46.87656],[8.88375,46.87654],[8.884,46.87675],[8.88452,46.87746],[8.88495,46.87865],[8.88579,46.87911],[8.88666,46.88024],[8.88719,46.8805],[8.88847,46.88071],[8.88981,46.8815],[8.89125,46.88321],[8.89235,46.88402],[8.89684,46.88545],[8.8996,46.88575],[8.90097,46.88673],[8.90288,46.88707],[8.90543,46.88801],[8.90746,46.88889],[8.91085,46.8911],[8.91287,46.8917],[8.91584,46.89296],[8.91723,46.89324],[8.92214,46.89574],[8.92416,46.8965],[8.92495,46.89721],[8.92446,46.89786],[8.92555,46.89823],[8.92619,46.89883],[8.92735,46.89861],[8.92903,46.89953],[8.93161,46.89985]],[[8.93161,46.89985],[8.93207,46.89995]],[[8.93161,46.89985],[8.93175,46.89984],[8.93185,46.89985],[8.93207,46.89995]],[[8.93207,46.89995],[8.933,46.90038]],[[8.933,46.90038],[8.93359,46.90051]],[[8.933,46.90038],[8.93319,46.90046],[8.93359,46.90051]],[[8.93359,46.90051],[8.93464,46.90084]],[[8.94124,46.90509],[8.9426,46.90583]]]}}]}