{"type":"FeatureCollection","features":[{"type":"Feature","properties":{"id":"zugersee-zg","c":"ZG","p":"patent","q":"derived","k":"lake","fr":1},"geometry":{"type":"Polygon","coordinates":[[[8.47587,47.18292],[8.47634,47.18197],[8.47774,47.18225],[8.4781,47.18221],[8.47847,47.1819],[8.47857,47.18131],[8.47785,47.1807],[8.47769,47.18024],[8.47799,47.17893],[8.47799,47.17774],[8.47823,47.17776],[8.47828,47.17847],[8.48005,47.17818],[8.48061,47.17792],[8.48096,47.17801],[8.48117,47.17794],[8.48144,47.17773],[8.48135,47.17705],[8.48082,47.17653],[8.48071,47.1762],[8.48099,47.17592],[8.48139,47.17584],[8.48187,47.17605],[8.4818,47.1766],[8.48218,47.17699],[8.48251,47.17695],[8.48335,47.17733],[8.4842,47.1774],[8.4846,47.17763],[8.48538,47.1776],[8.48555,47.17777],[8.4874,47.17806],[8.48981,47.17767],[8.4915,47.17765],[8.49247,47.17739],[8.49211,47.17716],[8.49159,47.1774],[8.49163,47.17719],[8.49214,47.17692],[8.49339,47.17701],[8.49432,47.17687],[8.49476,47.17697],[8.49569,47.17681],[8.49638,47.17631],[8.49606,47.17592],[8.49652,47.17579],[8.49723,47.1767],[8.49752,47.1766],[8.49723,47.17624],[8.49775,47.17581],[8.49801,47.17501],[8.49899,47.17522],[8.49966,47.17523],[8.50046,47.17501],[8.50067,47.17516],[8.50092,47.17511],[8.50105,47.17528],[8.50158,47.17516],[8.50164,47.17487],[8.50214,47.17465],[8.50307,47.17384],[8.50327,47.17348],[8.50338,47.17354],[8.50368,47.1734],[8.50388,47.17307],[8.50515,47.17265],[8.50504,47.1725],[8.50522,47.17257],[8.50629,47.17216],[8.5065,47.17196],[8.50663,47.17201],[8.50661,47.17183],[8.50713,47.17133],[8.50765,47.1728],[8.50794,47.17267],[8.50743,47.17197],[8.50739,47.17164],[8.5076,47.17127],[8.50832,47.17135],[8.50816,47.17154],[8.50831,47.17183],[8.50893,47.17184],[8.51034,47.17136],[8.511,47.17129],[8.5131,47.17017],[8.51363,47.17034],[8.51423,47.16945],[8.51413,47.16915],[8.51375,47.16901],[8.51434,47.16808],[8.51407,47.16723],[8.51374,47.16736],[8.51409,47.16676],[8.51415,47.16628],[8.51321,47.16471],[8.51317,47.16388],[8.51282,47.16291],[8.51264,47.16133],[8.51246,47.16107],[8.51242,47.15926],[8.51136,47.15731],[8.51103,47.15739],[8.51078,47.15708],[8.51067,47.15713],[8.51029,47.15692],[8.50979,47.1561],[8.51057,47.1556],[8.51101,47.15515],[8.51096,47.1541],[8.51073,47.15379],[8.50986,47.15344],[8.50884,47.15227],[8.5084,47.1502],[8.50807,47.15007],[8.50782,47.15026],[8.50737,47.15033],[8.50704,47.15016],[8.50712,47.1493],[8.50681,47.1489],[8.50696,47.14853],[8.50638,47.14764],[8.50493,47.14721],[8.50498,47.14704],[8.50529,47.14701],[8.50576,47.14638],[8.50563,47.14538],[8.50569,47.14315],[8.50548,47.14198],[8.50516,47.14154],[8.5051,47.14056],[8.5046,47.13989],[8.50468,47.13965],[8.50433,47.13928],[8.50466,47.13847],[8.50557,47.13793],[8.50583,47.13758],[8.50613,47.13687],[8.5061,47.1363],[8.50397,47.13341],[8.50332,47.13287],[8.50197,47.13135],[8.50148,47.13105],[8.50063,47.13081],[8.49965,47.13013],[8.49942,47.12964],[8.49919,47.12948],[8.49881,47.12854],[8.49825,47.1279],[8.49797,47.12709],[8.49806,47.1263],[8.49781,47.12561],[8.49569,47.1243],[8.49555,47.12406],[8.49489,47.12367],[8.49527,47.12233],[8.49596,47.12154],[8.49649,47.11901],[8.49728,47.11815],[8.49735,47.11763],[8.49839,47.11756],[8.49961,47.11668],[8.49974,47.11516],[8.5006,47.11414],[8.50118,47.11293],[8.50104,47.11277],[8.50118,47.11248],[8.50246,47.11099],[8.50261,47.11048],[8.50254,47.11002],[8.50304,47.10932],[8.5033,47.10868],[8.50325,47.1084],[8.50349,47.10806],[8.50387,47.1078],[8.50473,47.10776],[8.50543,47.10753],[8.5058,47.10712],[8.50587,47.1065],[8.5064,47.10626],[8.50763,47.10624],[8.50819,47.106],[8.50827,47.10484],[8.50847,47.10484],[8.5084,47.1045],[8.5092,47.10373],[8.50919,47.10314],[8.51029,47.1024],[8.51096,47.10135],[8.51208,47.10071],[8.51258,47.09958],[8.51442,47.09852],[8.51492,47.09781],[8.51487,47.09757],[8.51522,47.09737],[8.51554,47.09689],[8.51563,47.09643],[8.51604,47.09631],[8.51713,47.09535],[8.51742,47.09539],[8.51745,47.09558],[8.51804,47.09557],[8.51825,47.09542],[8.51817,47.09511],[8.519,47.09465],[8.51936,47.09382],[8.51919,47.09382],[8.51917,47.09359],[8.51949,47.09356],[8.51972,47.09323],[8.52058,47.09275],[8.52075,47.09252],[8.5207,47.09218],[8.52104,47.09069],[8.52172,47.09],[8.49305,47.10018],[8.49374,47.11373],[8.48038,47.12633],[8.46711,47.11882],[8.46747,47.11874],[8.46705,47.11882],[8.46668,47.11897],[8.46543,47.11985],[8.46444,47.1215],[8.46444,47.12264],[8.46501,47.12378],[8.46442,47.12502],[8.46434,47.12581],[8.46402,47.12663],[8.46421,47.12786],[8.46417,47.12866],[8.46391,47.12925],[8.4641,47.12962],[8.46407,47.13014],[8.46495,47.13141],[8.46657,47.13236],[8.46706,47.13295],[8.46796,47.13351],[8.46813,47.13477],[8.4685,47.13542],[8.46968,47.13608],[8.47196,47.13806],[8.47224,47.13901],[8.47283,47.13956],[8.47277,47.14009],[8.47223,47.14106],[8.47043,47.14119],[8.46903,47.14018],[8.46714,47.13954],[8.46663,47.13861],[8.46623,47.1384],[8.46566,47.13838],[8.46329,47.13952],[8.46231,47.13969],[8.46154,47.13962],[8.46019,47.14012],[8.45995,47.1403],[8.45983,47.14076],[8.45883,47.14091],[8.45817,47.14147],[8.4581,47.14169],[8.45851,47.14186],[8.45856,47.1422],[8.45832,47.14242],[8.45829,47.14281],[8.45774,47.14389],[8.45822,47.14437],[8.45821,47.14531],[8.45838,47.14579],[8.45874,47.14615],[8.45759,47.14691],[8.45752,47.14723],[8.45782,47.14768],[8.45758,47.14789],[8.45813,47.1479],[8.45902,47.14829],[8.45913,47.14914],[8.45935,47.14947],[8.45949,47.15017],[8.4597,47.15042],[8.46029,47.15063],[8.46015,47.1508],[8.46044,47.15092],[8.46058,47.15075],[8.46062,47.15088],[8.46106,47.15108],[8.46255,47.15115],[8.46254,47.15128],[8.46208,47.15133],[8.46163,47.15172],[8.46155,47.15266],[8.46182,47.15312],[8.46152,47.1549],[8.46194,47.1552],[8.4625,47.15534],[8.46287,47.15597],[8.46362,47.15618],[8.46119,47.15706],[8.45955,47.1583],[8.45952,47.15874],[8.45931,47.15879],[8.45943,47.15905],[8.46065,47.15925],[8.46079,47.15992],[8.46038,47.16068],[8.45971,47.16143],[8.45902,47.16379],[8.45813,47.1647],[8.45783,47.1657],[8.45717,47.1667],[8.45693,47.16667],[8.45692,47.16686],[8.45619,47.16713],[8.45598,47.16737],[8.45523,47.16752],[8.45414,47.16854],[8.45363,47.16931],[8.4529,47.17113],[8.45281,47.17175],[8.45305,47.17231],[8.45398,47.17335],[8.45466,47.17462],[8.45511,47.17476],[8.45567,47.17566],[8.45621,47.1759],[8.45681,47.17597],[8.4573,47.1764],[8.45835,47.17666],[8.4586,47.17668],[8.45869,47.17641],[8.45893,47.1764],[8.45903,47.17652],[8.45872,47.17669],[8.45876,47.1769],[8.45989,47.17729],[8.46013,47.17723],[8.46015,47.17746],[8.46157,47.17808],[8.46187,47.17874],[8.46208,47.17889],[8.46197,47.17932],[8.46217,47.1794],[8.46345,47.17864],[8.46707,47.1773],[8.46749,47.17777],[8.46777,47.17784],[8.46786,47.17762],[8.46798,47.17765],[8.46776,47.17839],[8.46837,47.17915],[8.46834,47.17977],[8.46862,47.18008],[8.46903,47.17992],[8.46941,47.18001],[8.46974,47.1803],[8.4694,47.18056],[8.47288,47.18163],[8.47366,47.18153],[8.47461,47.18108],[8.47564,47.18094],[8.47597,47.18114],[8.47611,47.18145],[8.4757,47.18294],[8.47587,47.18292]],[[8.49732,47.17411],[8.4976,47.1744],[8.49748,47.17456],[8.49692,47.17437],[8.49703,47.17417],[8.49732,47.17411]],[[8.46201,47.17774],[8.46216,47.17786],[8.46228,47.17842],[8.4618,47.17809],[8.46201,47.17774]]]}},{"type":"Feature","properties":{"id":"aegerisee-zg","c":"ZG","p":"patent","q":"derived","k":"lake"},"geometry":{"type":"Polygon","coordinates":[[[8.59447,47.13718],[8.59574,47.13705],[8.5958,47.13716],[8.5965,47.13695],[8.59689,47.13658],[8.59758,47.13646],[8.59827,47.1365],[8.59849,47.13673],[8.59955,47.13714],[8.60138,47.13736],[8.60462,47.13727],[8.6054,47.13699],[8.60605,47.13623],[8.60604,47.13599],[8.6074,47.13518],[8.60747,47.13483],[8.60793,47.1347],[8.60809,47.13451],[8.60809,47.13406],[8.60794,47.13378],[8.60821,47.13363],[8.60976,47.13375],[8.61018,47.13366],[8.61204,47.13231],[8.61232,47.13197],[8.61303,47.13164],[8.61384,47.13174],[8.61521,47.13161],[8.61664,47.13232],[8.61728,47.13289],[8.61798,47.13296],[8.61825,47.13312],[8.61999,47.13325],[8.62144,47.13249],[8.62589,47.13149],[8.62692,47.13063],[8.6275,47.13053],[8.62996,47.12959],[8.63074,47.12805],[8.63078,47.12731],[8.63371,47.1261],[8.63437,47.12567],[8.63491,47.12504],[8.636,47.12237],[8.63673,47.12134],[8.63693,47.12008],[8.63766,47.11916],[8.63759,47.11903],[8.63774,47.11907],[8.63804,47.11867],[8.63842,47.11845],[8.64009,47.11782],[8.6403,47.11755],[8.64023,47.11649],[8.64186,47.11586],[8.64248,47.1153],[8.64309,47.11431],[8.64308,47.11374],[8.64232,47.11258],[8.64227,47.11221],[8.6422,47.1117],[8.64255,47.11071],[8.64214,47.10984],[8.64112,47.10851],[8.64125,47.10799],[8.64161,47.1076],[8.64169,47.10709],[8.6411,47.10596],[8.64013,47.10511],[8.64037,47.10436],[8.6403,47.10412],[8.63956,47.10345],[8.63876,47.10329],[8.63826,47.10333],[8.63778,47.10304],[8.63746,47.1031],[8.63673,47.10288],[8.63631,47.1029],[8.63608,47.10251],[8.6351,47.10249],[8.63448,47.10214],[8.63402,47.10216],[8.63371,47.10195],[8.63328,47.10186],[8.63248,47.10233],[8.63148,47.10227],[8.63093,47.10236],[8.63051,47.10286],[8.63007,47.10291],[8.63007,47.10337],[8.62929,47.10549],[8.62963,47.10585],[8.62925,47.10584],[8.62887,47.10604],[8.62654,47.10614],[8.62557,47.10672],[8.62455,47.10767],[8.62461,47.10822],[8.6244,47.1084],[8.62451,47.10923],[8.62474,47.10963],[8.62434,47.11132],[8.62458,47.11199],[8.62496,47.11219],[8.62479,47.11327],[8.6243,47.11397],[8.62437,47.11443],[8.62425,47.11456],[8.62297,47.11477],[8.62154,47.11437],[8.61952,47.11515],[8.61753,47.11549],[8.61276,47.11768],[8.61167,47.11796],[8.61052,47.11858],[8.60981,47.11874],[8.60811,47.11956],[8.60646,47.11996],[8.60526,47.12012],[8.60389,47.12066],[8.60321,47.12077],[8.60279,47.12105],[8.60211,47.12127],[8.60142,47.12134],[8.59971,47.12118],[8.59854,47.1213],[8.59343,47.12221],[8.59281,47.12217],[8.59192,47.12258],[8.59156,47.12298],[8.59164,47.12383],[8.59185,47.12416],[8.59226,47.12447],[8.59352,47.12485],[8.59424,47.12521],[8.59437,47.12569],[8.59515,47.12613],[8.59501,47.12663],[8.59515,47.12684],[8.59625,47.12719],[8.59722,47.12695],[8.59744,47.12699],[8.59699,47.12795],[8.59726,47.12861],[8.59724,47.12905],[8.59718,47.12921],[8.59691,47.12927],[8.59578,47.12924],[8.59493,47.12961],[8.59487,47.12995],[8.5952,47.1304],[8.59549,47.13128],[8.59517,47.13172],[8.59433,47.13183],[8.59422,47.13195],[8.59449,47.13306],[8.5941,47.13341],[8.59399,47.13425],[8.59396,47.13403],[8.59376,47.13397],[8.59338,47.13425],[8.59275,47.13433],[8.59247,47.13467],[8.59117,47.1354],[8.591,47.13572],[8.59003,47.13648],[8.58993,47.13644],[8.59013,47.13615],[8.58973,47.13609],[8.58934,47.13644],[8.58986,47.13658],[8.58986,47.13677],[8.58892,47.13701],[8.58864,47.13763],[8.58917,47.13815],[8.58985,47.13827],[8.59109,47.13805],[8.59166,47.13809],[8.59447,47.13718]],[[8.63081,47.10307],[8.63133,47.10335],[8.63125,47.10354],[8.63091,47.1036],[8.63064,47.10349],[8.63051,47.10319],[8.63081,47.10307]]]}},{"type":"Feature","properties":{"id":"binnenkanal-zg","c":"ZG","p":"pacht","q":"derived","k":"river"},"geometry":{"type":"LineString","coordinates":[[8.41472,47.17274],[8.4143,47.1744],[8.41365,47.17573],[8.41368,47.17695],[8.414,47.17742],[8.41369,47.17808],[8.4131,47.17848],[8.41237,47.17855],[8.41111,47.17812],[8.40834,47.17799],[8.40439,47.17895],[8.40328,47.18354],[8.40168,47.18583],[8.40172,47.18674],[8.40256,47.18845],[8.40342,47.18959],[8.4057,47.19141],[8.40735,47.19418],[8.40758,47.1953],[8.40737,47.19631],[8.40336,47.2054],[8.40236,47.21252],[8.40265,47.21556],[8.40245,47.21621],[8.40113,47.21805],[8.40104,47.22243],[8.40319,47.23264],[8.41453,47.24187],[8.41465,47.24251]]}},{"type":"Feature","properties":{"id":"littibach-zg","c":"ZG","p":"pacht","q":"derived","k":"river"},"geometry":{"type":"LineString","coordinates":[[8.53115,47.21758],[8.53208,47.21648],[8.53206,47.21546],[8.53347,47.21469],[8.5343,47.21475],[8.53483,47.21449],[8.5356,47.21444],[8.53646,47.21394],[8.53663,47.21427],[8.53716,47.21437],[8.53786,47.21402],[8.5385,47.21426],[8.53889,47.21415],[8.53957,47.21446],[8.54032,47.2142],[8.54163,47.21426],[8.54187,47.21376],[8.54325,47.21309],[8.54247,47.21215],[8.54278,47.21163],[8.54245,47.21151],[8.54292,47.21113],[8.54232,47.21035],[8.54324,47.20911],[8.54385,47.20693],[8.54352,47.20664],[8.54248,47.20639],[8.54149,47.20556],[8.53986,47.20474],[8.5386,47.20455],[8.53503,47.20456],[8.53234,47.2039]]}},{"type":"Feature","properties":{"id":"schwarzenbach-zg","c":"ZG","p":"pacht","q":"derived","k":"river"},"geometry":{"type":"LineString","coordinates":[[8.54123,47.16067],[8.54436,47.16091],[8.54568,47.16052],[8.54676,47.16041],[8.54709,47.16053],[8.5474,47.16036],[8.54945,47.16011],[8.55012,47.16018],[8.55195,47.16125],[8.5522,47.16173],[8.5521,47.16292],[8.55232,47.16377],[8.55399,47.16481],[8.55371,47.16584],[8.55312,47.16638],[8.55289,47.16697],[8.55307,47.16727],[8.55287,47.16795],[8.55326,47.16874],[8.55332,47.16954],[8.55422,47.16975],[8.55507,47.16973],[8.55521,47.17003],[8.55582,47.17035],[8.55612,47.171],[8.5571,47.17138],[8.5565,47.17151],[8.55674,47.17177],[8.55644,47.17201],[8.55639,47.17242],[8.55713,47.17439],[8.5566,47.17629],[8.55664,47.17679],[8.55715,47.17739],[8.55664,47.17774],[8.55662,47.17868]]}},{"type":"Feature","properties":{"id":"teuftaennlibach-zg","c":"ZG","p":"pacht","q":"derived","k":"river"},"geometry":{"type":"LineString","coordinates":[[8.59785,47.15217],[8.59746,47.15187],[8.5955,47.15116],[8.59493,47.15067],[8.59153,47.15044],[8.59043,47.15098],[8.58947,47.15174],[8.58806,47.15325],[8.5871,47.1534],[8.58346,47.15248],[8.58199,47.15137],[8.58097,47.15124],[8.58023,47.15092],[8.57879,47.15082],[8.5778,47.15104],[8.57694,47.15088],[8.57659,47.15121],[8.57538,47.15141],[8.57281,47.15067],[8.56988,47.15103],[8.569,47.15092],[8.56812,47.15069],[8.56699,47.14966],[8.56669,47.14898],[8.56541,47.14859],[8.56485,47.14784]]}},{"type":"Feature","properties":{"id":"dorfbach-zg","c":"ZG","p":"pacht","q":"derived","k":"river"},"geometry":{"type":"LineString","coordinates":[[8.6649,47.13617],[8.66259,47.13748],[8.66165,47.1376],[8.66093,47.13721],[8.65971,47.13723],[8.6586,47.13674],[8.65772,47.13663],[8.65632,47.1359],[8.65545,47.13579],[8.65533,47.13609],[8.65194,47.13704],[8.6511,47.13698],[8.65082,47.13671],[8.64982,47.13675],[8.64927,47.13709],[8.64821,47.13732],[8.64812,47.13835],[8.64634,47.13857],[8.64521,47.13964],[8.64494,47.14047],[8.64309,47.14141],[8.64235,47.14159],[8.64078,47.14169],[8.64017,47.1412],[8.63889,47.14122],[8.63732,47.14068],[8.63567,47.1404],[8.63434,47.13967],[8.63301,47.13993],[8.63213,47.13964],[8.62909,47.14035],[8.62363,47.14114],[8.62255,47.14105],[8.62124,47.14068],[8.62074,47.14037],[8.61986,47.13897],[8.61862,47.13845],[8.61787,47.13878],[8.61613,47.1383],[8.61564,47.138],[8.61531,47.13752],[8.61557,47.13656],[8.6154,47.13582],[8.61399,47.13477],[8.61311,47.13457],[8.61159,47.13502],[8.6101,47.13465],[8.60994,47.13411]]}},{"type":"Feature","properties":{"id":"alplibach-zg","c":"ZG","p":"pacht","q":"derived","k":"river"},"geometry":{"type":"LineString","coordinates":[[8.56779,47.0854],[8.56842,47.08579],[8.56895,47.08729],[8.56744,47.09065],[8.56794,47.09182],[8.56771,47.09354],[8.56717,47.09435],[8.56678,47.09569],[8.56623,47.09619],[8.56615,47.09699],[8.56687,47.09828],[8.56681,47.09972],[8.56801,47.1013],[8.56972,47.10219],[8.56981,47.10277],[8.57015,47.10292],[8.57014,47.10335],[8.57077,47.10411],[8.57143,47.1042],[8.57264,47.10487],[8.57298,47.10549],[8.57251,47.10616],[8.57267,47.10712],[8.57473,47.10804],[8.57523,47.108]]}},{"type":"Feature","properties":{"id":"unteraegeribach-zg","c":"ZG","p":"pacht","q":"derived","k":"river"},"geometry":{"type":"LineString","coordinates":[[8.55835,47.11468],[8.55862,47.11536],[8.55863,47.11777],[8.559,47.11884],[8.56163,47.12162],[8.56194,47.12268],[8.56305,47.12341],[8.56352,47.12398],[8.56516,47.12456],[8.56598,47.12438],[8.56708,47.12447],[8.569,47.1241],[8.57029,47.12423],[8.57088,47.1245],[8.57254,47.12463],[8.57432,47.12555],[8.57606,47.126],[8.57749,47.1268],[8.57757,47.12732],[8.5785,47.12852],[8.58081,47.12993],[8.58271,47.13268],[8.58312,47.13285],[8.58459,47.13444],[8.5864,47.13546],[8.58881,47.13644]]}},{"type":"Feature","properties":{"id":"lotenbach-zg","c":"ZG","p":"pacht","q":"derived","k":"river"},"geometry":{"type":"LineString","coordinates":[[8.55391,47.10159],[8.55322,47.10145],[8.55214,47.1008],[8.55153,47.10068],[8.55041,47.10111],[8.54964,47.1011],[8.5478,47.10144],[8.54728,47.10118],[8.54656,47.10116],[8.54543,47.10176],[8.54514,47.10224],[8.54443,47.10232],[8.54397,47.10283],[8.54354,47.1046],[8.54316,47.10481],[8.54307,47.10514],[8.5424,47.10533],[8.54245,47.10662],[8.54198,47.10758],[8.54205,47.10797],[8.54053,47.10847],[8.54031,47.10869],[8.53942,47.10877],[8.53904,47.10942],[8.53823,47.10973],[8.5364,47.10955],[8.53397,47.10875],[8.53263,47.10904],[8.53261,47.10935],[8.5313,47.11065],[8.52957,47.11193],[8.52834,47.11258],[8.52788,47.11333],[8.52809,47.1135],[8.52771,47.11511],[8.52701,47.11561],[8.52594,47.11565],[8.52545,47.11584],[8.52538,47.1172],[8.52464,47.11767],[8.52363,47.11944],[8.52367,47.11976],[8.52293,47.12014],[8.52228,47.12095],[8.52223,47.12135],[8.52196,47.1212],[8.52156,47.12244],[8.5218,47.12277],[8.52127,47.124],[8.52094,47.12428],[8.51978,47.12467],[8.51933,47.12399],[8.51855,47.12382],[8.51889,47.12241],[8.5193,47.12187],[8.51908,47.12143],[8.51868,47.12136],[8.51792,47.12169],[8.5158,47.12153],[8.51425,47.12066],[8.51231,47.11903],[8.51165,47.11897],[8.5113,47.11844],[8.51054,47.11805],[8.51035,47.1175],[8.50935,47.11719],[8.50886,47.11683],[8.50765,47.1166],[8.50602,47.11575],[8.50494,47.11557],[8.50244,47.11572],[8.5006,47.11475]]}},{"type":"Feature","properties":{"id":"binzmuehlebach-zg","c":"ZG","p":"pacht","q":"derived","k":"river"},"geometry":{"type":"MultiLineString","coordinates":[[[8.42315,47.14092],[8.42232,47.14075],[8.42127,47.14086],[8.41871,47.14044],[8.41667,47.14088],[8.41554,47.14142],[8.41581,47.14206],[8.41561,47.14267],[8.41613,47.14504],[8.41599,47.14582],[8.41545,47.14638]],[[8.41836,47.12362],[8.41823,47.12403],[8.41876,47.12522],[8.41912,47.12573],[8.4195,47.12585],[8.41934,47.12617],[8.41951,47.12646],[8.42034,47.12702],[8.42146,47.12742],[8.42136,47.12771],[8.4217,47.12797],[8.42188,47.12874],[8.42241,47.12944],[8.42231,47.13001],[8.42206,47.13019],[8.42199,47.13156],[8.42117,47.13247],[8.42192,47.13321],[8.42161,47.13431],[8.42328,47.13551],[8.42393,47.13562],[8.42642,47.13677],[8.42736,47.13677],[8.42847,47.13803],[8.42521,47.14114],[8.42516,47.14161],[8.42445,47.14146]]]}},{"type":"Feature","properties":{"id":"sarbach-zg","c":"ZG","p":"pacht","q":"derived","k":"river"},"geometry":{"type":"LineString","coordinates":[[8.59985,47.18586],[8.59836,47.18731],[8.5977,47.18769],[8.59641,47.18779],[8.59483,47.18857],[8.59296,47.18901],[8.59212,47.18966],[8.59125,47.18982],[8.59094,47.19104],[8.59119,47.19547],[8.58873,47.19659],[8.58706,47.19794],[8.58672,47.19891],[8.58686,47.20012],[8.58601,47.20112],[8.58545,47.2014],[8.58366,47.20159],[8.58306,47.20203],[8.58315,47.20313],[8.58356,47.20366],[8.58458,47.20405],[8.58512,47.2046],[8.58584,47.2055],[8.58615,47.20643],[8.58615,47.2078],[8.58656,47.20856],[8.58488,47.21048]]}},{"type":"Feature","properties":{"id":"nettenbach-zg","c":"ZG","p":"pacht","q":"derived","k":"river"},"geometry":{"type":"MultiLineString","coordinates":[[[8.65804,47.15167],[8.65973,47.15174],[8.66005,47.15254],[8.65954,47.15359],[8.66188,47.15512],[8.66048,47.1579],[8.65949,47.15858],[8.65492,47.15995],[8.65381,47.16071],[8.65364,47.16153],[8.65325,47.16176],[8.65302,47.16225],[8.65212,47.16265],[8.6516,47.16324],[8.65086,47.16331],[8.65004,47.1638],[8.6497,47.16537],[8.64912,47.16621],[8.64799,47.16689],[8.64702,47.16825],[8.64474,47.16934]],[[8.65131,47.15229],[8.65279,47.15191],[8.65462,47.15186],[8.65489,47.15171],[8.65556,47.15188],[8.65756,47.1515]]]}},{"type":"Feature","properties":{"id":"hoellbach-zg","c":"ZG","p":"pacht","q":"derived","k":"river"},"geometry":{"type":"MultiLineString","coordinates":[[[8.568,47.18036],[8.56791,47.18105],[8.56832,47.18184],[8.56824,47.18252],[8.56784,47.18299],[8.56924,47.18445],[8.56836,47.18648],[8.56756,47.18691],[8.56719,47.18748],[8.5666,47.18754],[8.56513,47.18839],[8.56133,47.18923],[8.56019,47.18932],[8.55936,47.1897],[8.55885,47.19002],[8.55932,47.1907],[8.55844,47.19178]],[[8.62103,47.15711],[8.62074,47.15781],[8.61927,47.15794],[8.61855,47.15827],[8.61679,47.16027],[8.61553,47.16094],[8.61469,47.1634],[8.61243,47.16324],[8.61061,47.1637],[8.61008,47.16335],[8.60764,47.16311],[8.60251,47.1647],[8.6021,47.16513],[8.59594,47.16508],[8.59486,47.16541],[8.59359,47.16624],[8.59274,47.16643],[8.59131,47.16609],[8.5877,47.16603],[8.58516,47.16682],[8.58357,47.16692],[8.58257,47.16752],[8.58007,47.16798],[8.57921,47.16886],[8.57704,47.16978],[8.57644,47.1705],[8.57637,47.17101],[8.57738,47.17206],[8.57905,47.17265],[8.58004,47.17343],[8.58017,47.17542],[8.57978,47.17578],[8.57815,47.17625],[8.57716,47.17739],[8.57486,47.17716],[8.57277,47.17731],[8.57044,47.17681],[8.56894,47.17713],[8.56798,47.17998]]]}},{"type":"Feature","properties":{"id":"raemselbach-zg","c":"ZG","p":"pacht","q":"derived","k":"river"},"geometry":{"type":"LineString","coordinates":[[8.53496,47.11537],[8.53516,47.11672],[8.53455,47.11755],[8.53431,47.11841],[8.5345,47.11906],[8.53504,47.11965],[8.53455,47.12045],[8.535,47.12087],[8.53617,47.12141],[8.53629,47.12175],[8.53708,47.12204],[8.53759,47.12216],[8.53801,47.12201],[8.54021,47.1228],[8.54159,47.12274],[8.54261,47.12307],[8.54287,47.12292],[8.54399,47.12297],[8.54445,47.12283],[8.5468,47.12318],[8.54798,47.1231],[8.54875,47.12317],[8.54957,47.12355],[8.54998,47.12388],[8.5498,47.12427],[8.55033,47.12466],[8.54997,47.12525],[8.55009,47.12553],[8.55041,47.12557],[8.55015,47.12597],[8.55121,47.12723],[8.5528,47.12828],[8.5541,47.1284],[8.55473,47.1287],[8.55497,47.12922],[8.55562,47.12942],[8.5559,47.13002],[8.55662,47.13036],[8.55618,47.13098],[8.5568,47.13138],[8.55695,47.13191],[8.55799,47.13211],[8.55918,47.13342],[8.55974,47.13349],[8.56004,47.13388],[8.56117,47.13421],[8.56159,47.13471],[8.56227,47.13479],[8.56243,47.13613],[8.56323,47.13728],[8.56362,47.13747],[8.56255,47.13822],[8.56182,47.13963],[8.56171,47.14003],[8.56199,47.14097],[8.56165,47.14241],[8.56217,47.14322],[8.56306,47.14367],[8.56331,47.14403],[8.56561,47.14524],[8.56586,47.14525],[8.5661,47.14488],[8.56656,47.14504]]}},{"type":"Feature","properties":{"id":"reuss-zg","c":"ZG","p":"pacht","q":"derived","k":"river"},"geometry":{"type":"MultiLineString","coordinates":[[[8.40045,47.20876],[8.40099,47.21302]],[[8.40258,47.17671],[8.40215,47.1772],[8.40171,47.1785],[8.40025,47.18388],[8.40046,47.18652],[8.40099,47.18841],[8.40178,47.19001],[8.40455,47.19319],[8.40526,47.19417],[8.4054,47.19491],[8.40531,47.19607],[8.40276,47.20014],[8.40218,47.20153]],[[8.41224,47.14059],[8.41413,47.1427],[8.41495,47.14528],[8.41502,47.14638],[8.41458,47.14821],[8.41203,47.15289],[8.41186,47.15374],[8.41204,47.15463],[8.41269,47.15561],[8.415,47.15791],[8.41535,47.15872],[8.41535,47.16201]],[[8.41525,47.1644],[8.41452,47.16673]]]}},{"type":"Feature","properties":{"id":"sihl-zg","c":"ZG","p":"pacht","q":"derived","k":"river"},"geometry":{"type":"MultiLineString","coordinates":[[[8.58847,47.2126],[8.58732,47.21232],[8.58666,47.21154],[8.58543,47.2108],[8.58338,47.21046],[8.58241,47.21079],[8.58208,47.21138],[8.582,47.21271],[8.58103,47.21403],[8.58093,47.21458],[8.58145,47.21536],[8.58321,47.21664],[8.58343,47.2173]],[[8.60752,47.20478],[8.6064,47.2052],[8.60572,47.20519],[8.60525,47.20498],[8.6035,47.20324],[8.60166,47.20267],[8.60016,47.20161],[8.59953,47.20142],[8.599,47.20142],[8.59849,47.20172],[8.59799,47.20271],[8.59702,47.20343],[8.5964,47.20464]],[[8.62123,47.18716],[8.6205,47.18817],[8.62092,47.19036],[8.61914,47.1911],[8.61791,47.19197]],[[8.62581,47.18192],[8.62231,47.18596]],[[8.62545,47.17248],[8.62444,47.17288],[8.62388,47.17358],[8.6238,47.17425],[8.62462,47.17533],[8.62506,47.17655],[8.627,47.17801],[8.62809,47.17924],[8.62787,47.17984],[8.62613,47.18065],[8.6259,47.18145]],[[8.65249,47.17105],[8.64991,47.17031]]]}},{"type":"Feature","properties":{"id":"biber-zg","c":"ZG","p":"pacht","q":"derived","k":"river"},"geometry":{"type":"MultiLineString","coordinates":[[[8.67181,47.11587],[8.67167,47.11611],[8.67128,47.11596],[8.6714,47.11636],[8.67097,47.11678],[8.67098,47.11693],[8.67197,47.11695],[8.67142,47.11721],[8.67165,47.11732],[8.67121,47.11785],[8.67168,47.11816],[8.67116,47.1183],[8.67091,47.11808],[8.67042,47.11828],[8.67119,47.11845],[8.67072,47.11916],[8.67126,47.11913],[8.67143,47.11897],[8.6719,47.11905],[8.6719,47.1193],[8.6723,47.11928],[8.672,47.11969],[8.67211,47.11993]],[[8.67595,47.12208],[8.67636,47.12208],[8.67639,47.12249],[8.67698,47.12225],[8.67721,47.12247],[8.67733,47.12229],[8.67773,47.12235],[8.6768,47.12307],[8.67757,47.12311],[8.6773,47.12391],[8.67823,47.12452],[8.6787,47.12462],[8.67938,47.12426],[8.67999,47.12476],[8.68166,47.12496],[8.68178,47.12515],[8.68148,47.12547],[8.68234,47.12584],[8.68229,47.12631],[8.68255,47.12648],[8.68227,47.12673],[8.68243,47.12702]],[[8.68443,47.13923],[8.68419,47.14052],[8.68468,47.14174],[8.68569,47.14237],[8.68836,47.14596],[8.68982,47.14686],[8.69063,47.14786],[8.69229,47.148],[8.69286,47.1483],[8.69343,47.14895],[8.69547,47.14969]],[[8.6844,47.13301],[8.68486,47.13335]],[[8.68547,47.13429],[8.68618,47.13486],[8.68743,47.13452]]]}},{"type":"Feature","properties":{"id":"lorze-zg","c":"ZG","p":"pacht","q":"derived","k":"river"},"geometry":{"type":"MultiLineString","coordinates":[[[8.41667,47.23495],[8.41675,47.2353],[8.41623,47.23601],[8.41638,47.23718],[8.4152,47.2384],[8.41426,47.23894]],[[8.41648,47.24118],[8.41576,47.24229],[8.41462,47.24266]],[[8.42505,47.21507],[8.42533,47.21643],[8.42631,47.21718],[8.42618,47.21827],[8.4265,47.21859],[8.42553,47.21894],[8.42352,47.22063],[8.42094,47.22182],[8.42085,47.22205],[8.42137,47.22247],[8.42173,47.22331]],[[8.4261,47.20804],[8.42544,47.20781],[8.42446,47.2091],[8.4224,47.20998],[8.42209,47.21062],[8.42216,47.21166],[8.42154,47.21268],[8.42217,47.2139],[8.42389,47.21475],[8.42505,47.21507]],[[8.4259,47.20864],[8.42608,47.209],[8.42583,47.20964],[8.4246,47.21067],[8.42462,47.2118],[8.425,47.21273],[8.42505,47.21507]],[[8.4261,47.20804],[8.426,47.2081]],[[8.46178,47.17966],[8.4599,47.18131],[8.45951,47.18246],[8.45821,47.18331],[8.45778,47.18383],[8.45635,47.18661],[8.45401,47.18837],[8.45309,47.18986],[8.45281,47.19222],[8.45145,47.19386],[8.45065,47.19432],[8.44872,47.19479],[8.44617,47.19629],[8.44525,47.19636],[8.44381,47.19591],[8.44305,47.19606],[8.44055,47.19842],[8.43997,47.20017],[8.43897,47.20119],[8.43719,47.20196],[8.43479,47.20234],[8.4305,47.20372],[8.42986,47.2054],[8.42889,47.20644],[8.43041,47.20714],[8.43051,47.20755],[8.43009,47.20809],[8.42949,47.20842],[8.42829,47.20847],[8.42657,47.20835],[8.4261,47.20804]],[[8.58847,47.13681],[8.58744,47.13663],[8.58574,47.13716],[8.58476,47.13672],[8.58408,47.13665],[8.57537,47.13794],[8.57182,47.14051],[8.57156,47.14169],[8.57082,47.14206],[8.5704,47.14266],[8.5697,47.14292],[8.56925,47.14289],[8.56898,47.14331],[8.56792,47.14375],[8.56759,47.14418],[8.567,47.14439],[8.56656,47.14504],[8.56719,47.14605],[8.56691,47.14697],[8.56547,47.14769],[8.56391,47.14801],[8.5636,47.1483],[8.56369,47.15005],[8.56311,47.15133],[8.56189,47.1526],[8.56324,47.1531],[8.56387,47.15384],[8.56031,47.15477],[8.5608,47.15557],[8.56041,47.15881],[8.56076,47.15938],[8.56141,47.15984],[8.56144,47.1601],[8.56078,47.16201],[8.55983,47.16264],[8.55951,47.1631],[8.56026,47.1648],[8.55999,47.16531],[8.55912,47.16597],[8.55946,47.16799],[8.56021,47.1687],[8.56032,47.16958],[8.56078,47.17024],[8.56043,47.172],[8.55971,47.17302],[8.56067,47.17347],[8.56078,47.17399],[8.56014,47.17497],[8.55986,47.17598],[8.55886,47.17638],[8.55866,47.17826],[8.55742,47.17862],[8.55549,47.17878],[8.55577,47.17976],[8.55477,47.18093],[8.55443,47.18183],[8.55507,47.18234],[8.55523,47.18297],[8.55656,47.18426],[8.55688,47.18594],[8.55747,47.18645],[8.55706,47.18764],[8.55808,47.1891],[8.55844,47.19179],[8.5591,47.19293],[8.55888,47.19353],[8.5581,47.19404],[8.5576,47.19467],[8.55826,47.19628],[8.5582,47.19662],[8.55758,47.197],[8.55668,47.19721],[8.55402,47.19738],[8.55126,47.1973],[8.55018,47.1967],[8.54895,47.19485],[8.54839,47.19447],[8.54635,47.19399],[8.54225,47.19394],[8.54087,47.19439],[8.53932,47.19622],[8.53737,47.19973],[8.53738,47.20165],[8.53629,47.20276],[8.53356,47.20393],[8.531,47.20387],[8.53005,47.20436],[8.528,47.20453],[8.52709,47.20419],[8.52438,47.20411],[8.52265,47.20331],[8.51792,47.19963],[8.51604,47.19845],[8.51238,47.19507],[8.51101,47.19338],[8.50887,47.18989],[8.50499,47.18566],[8.50236,47.18169],[8.50133,47.17948],[8.4982,47.17752],[8.49765,47.17697]]]}},{"type":"Feature","properties":{"id":"hueribach-zg","c":"ZG","p":"pacht","q":"derived","k":"river"},"geometry":{"type":"LineString","coordinates":[[8.60296,47.09108],[8.6025,47.0917],[8.60252,47.09217],[8.60293,47.0926],[8.60227,47.09419],[8.60225,47.09692],[8.6025,47.09782],[8.60206,47.0992],[8.601,47.10023],[8.5996,47.10085],[8.59814,47.10224],[8.59731,47.10258],[8.59573,47.1029],[8.59458,47.10272],[8.58991,47.1035],[8.58753,47.10344],[8.58674,47.10319],[8.58542,47.10328],[8.58424,47.10401],[8.58299,47.10431],[8.58218,47.10428],[8.58055,47.10477],[8.57848,47.10594],[8.57717,47.10588],[8.57631,47.10672],[8.57582,47.10687],[8.57548,47.10732],[8.57499,47.10757],[8.57538,47.10824],[8.57537,47.10876],[8.57599,47.10949],[8.57518,47.11026],[8.57563,47.11128],[8.57503,47.11169],[8.57388,47.1118],[8.57391,47.11245],[8.57353,47.113],[8.57383,47.11361],[8.57513,47.11474],[8.5744,47.11532],[8.57506,47.11659],[8.57453,47.11779],[8.57504,47.11835],[8.57509,47.11897],[8.57615,47.1198],[8.57593,47.12107],[8.5761,47.12195],[8.5769,47.12263],[8.57684,47.12335],[8.57802,47.12373],[8.57794,47.12449],[8.57923,47.12635],[8.58019,47.12686],[8.57968,47.12778],[8.57994,47.12866],[8.5814,47.12885],[8.58212,47.12873],[8.5831,47.12947],[8.58404,47.12916],[8.58555,47.1296],[8.58607,47.12937],[8.58682,47.12857],[8.58769,47.12831],[8.58847,47.12852],[8.58924,47.12826],[8.59003,47.12834],[8.59116,47.12797],[8.59207,47.12789],[8.59305,47.12807],[8.59396,47.12779],[8.59619,47.12755]]}}]}