{"type":"FeatureCollection","meta":{"checked":"2026-10-06","sources":{"be":{"label":"Kanton Bern · ANGFISCH Schongebiete (OGD)","url":"https://www.geo.apps.be.ch/de/geodaten/suche-nach-geodaten.html?view=sheet&preview=search_list&geoproduct=ANGFISCH"},"tg":{"label":"Kanton Thurgau · Fischereiverbote (WFS)","url":"https://ows.geo.tg.ch/geofy_access_proxy/fischereiverbote"},"wzvv":{"label":"BAFU · Wasser- und Zugvogelreservate (WZVV, geo.admin.ch)","url":"https://map.geo.admin.ch/?layers=ch.bafu.bundesinventare-vogelreservate"}}},"features":[{"type":"Feature","properties":{"k":"fish","c":"BE","n":"Gürbe (8)","nf":"Gürbe (8)","d":"Von den Quellen bis zur Forstsägebrücke in Wattenwil","df":"De ses sources jusqu’au pont de la Forstsäge à Wattenwil","u":"https://geofiles.be.ch/geoportal/pub/zusatzdaten/ANGFISCH/Schongebiete_8.pdf","s":"be","id":0},"geometry":{"type":"Polygon","coordinates":[[[7.51772,46.75773],[7.51821,46.75798],[7.51998,46.75607],[7.51977,46.75517],[7.51891,46.75407],[7.5185,46.75309],[7.51749,46.75192],[7.51489,46.74918],[7.5143,46.74836],[7.51329,46.74764],[7.5117,46.74699],[7.51036,46.74619],[7.50861,46.7449],[7.50481,46.74352],[7.50136,46.74273],[7.50019,46.74278],[7.49863,46.74259],[7.4964,46.74212],[7.49384,46.74123],[7.48917,46.7403],[7.48702,46.73893],[7.48626,46.73837],[7.48608,46.73801],[7.48376,46.73635],[7.48232,46.73592],[7.48073,46.73565],[7.47956,46.73485],[7.4772,46.73358],[7.47652,46.73334],[7.47543,46.73322],[7.47487,46.73282],[7.47415,46.73211],[7.47396,46.73166],[7.47277,46.73063],[7.47148,46.72995],[7.47157,46.72951],[7.47021,46.72862],[7.46835,46.72767],[7.46574,46.72604],[7.46445,46.72595],[7.46199,46.72447],[7.46081,46.7236],[7.46056,46.72281],[7.45966,46.72164],[7.45847,46.72088],[7.45794,46.71985],[7.45807,46.7192],[7.45704,46.71816],[7.4552,46.71714],[7.45528,46.71611],[7.45959,46.71373],[7.45393,46.71155],[7.45397,46.7127],[7.4544,46.71445],[7.45441,46.71628],[7.45422,46.7169],[7.45446,46.71742],[7.45559,46.71778],[7.45613,46.71812],[7.45742,46.71932],[7.45742,46.72083],[7.45953,46.72204],[7.46003,46.72281],[7.46022,46.72341],[7.46083,46.72424],[7.46378,46.72611],[7.46571,46.72677],[7.46964,46.72876],[7.47103,46.73032],[7.47157,46.7308],[7.47282,46.73141],[7.47358,46.73256],[7.47487,46.73346],[7.47625,46.73372],[7.47791,46.73456],[7.48034,46.73611],[7.48192,46.73638],[7.48437,46.73741],[7.48537,46.73813],[7.48586,46.7388],[7.48852,46.74054],[7.4891,46.74078],[7.49333,46.74158],[7.50667,46.74537],[7.50994,46.74745],[7.51266,46.74855],[7.51417,46.74991],[7.5151,46.75053],[7.51813,46.75396],[7.51851,46.75513],[7.51828,46.75713],[7.51772,46.75773]]]}},{"type":"Feature","properties":{"k":"fish","c":"BE","n":"Aare (4g)","nf":"Aar (4g)","d":"Bei Bern vom oberen Eingang des Marzilibades bis 5 m unterhalb der Dalmazibrücke (Marzilibrücke)","df":"Berne: de l'entrée en amont de la piscine du Marzili jusqu'à 5 mètres en aval du pont Dalmazi (pont du Marzili)","u":"https://geofiles.be.ch/geoportal/pub/zusatzdaten/ANGFISCH/Schongebiete_4g.pdf","s":"be","id":1},"geometry":{"type":"Polygon","coordinates":[[[7.44527,46.94445],[7.44556,46.94468],[7.4462,46.94447],[7.44496,46.93913],[7.4443,46.93919],[7.44545,46.9442],[7.44527,46.94445]]]}},{"type":"Feature","properties":{"k":"fish","c":"BE","n":"Aare (4h)","nf":"Aar (4h)","d":"Bei Bern rechtsufrig bis zur Flussmitte je 100 m ober- und unterhalb des Fischpasses Schwellenmätteli","df":"Berne: sur la rive droite jusqu'au milieu de la rivière, 100 mètres en amont et en aval de l'échelle à poissons du Schwellenmätteli","u":"https://geofiles.be.ch/geoportal/pub/zusatzdaten/ANGFISCH/Schongebiete_4h.pdf","s":"be","id":2},"geometry":{"type":"Polygon","coordinates":[[[7.44826,46.94574],[7.45109,46.94582],[7.45117,46.94487],[7.44998,46.94513],[7.44953,46.9456],[7.44826,46.94557],[7.44826,46.94574]]]}},{"type":"Feature","properties":{"k":"fish","c":"BE","n":"Aare (4k)","nf":"Aar (4k)","d":"Bei Hagneck von der Strassenbrücke in Hagneck bis zu den Markierungstafeln bei den beiden Einmündungen in den Bielersee","df":"Hagneck: du pont routier à Hagneck jusqu'aux panneaux près des deux embouchures dans le lac de Bienne","u":"https://geofiles.be.ch/geoportal/pub/zusatzdaten/ANGFISCH/Schongebiete_4k.pdf","s":"be","id":3},"geometry":{"type":"Polygon","coordinates":[[[7.17553,47.06202],[7.17798,47.06009],[7.17869,47.05968],[7.17861,47.06148],[7.17806,47.06271],[7.17742,47.06521],[7.1791,47.06474],[7.17889,47.06428],[7.17965,47.0626],[7.17964,47.06213],[7.17919,47.06189],[7.17911,47.06128],[7.17921,47.05905],[7.18066,47.05782],[7.18231,47.0568],[7.18229,47.05666],[7.18266,47.0566],[7.18279,47.0564],[7.18419,47.05557],[7.18378,47.05524],[7.18334,47.05539],[7.18071,47.05708],[7.17893,47.05849],[7.17823,47.05878],[7.17861,47.05869],[7.17843,47.05882],[7.17763,47.05911],[7.17655,47.05993],[7.17661,47.05968],[7.17615,47.06012],[7.17502,47.06052],[7.17553,47.06202]]]}},{"type":"Feature","properties":{"k":"fish","c":"BE","n":"Twannbach/Bielersee (3)","nf":"Ruisseau de Douanne/Lac de Bienne (3)","d":"Im Bielersee und im Twannbach von der Einbahnbrücke bis in den See, einschliesslich dem durch Markierungstafeln begrenzten Umkreis","df":"Lac de Bienne et ruisseau de Douanne: du pont de chemin de fer jusqu'au lac, y compris les alentours marqués par des panneaux","u":"https://geofiles.be.ch/geoportal/pub/zusatzdaten/ANGFISCH/Schongebiete_3.pdf","s":"be","id":4},"geometry":{"type":"MultiPolygon","coordinates":[[[[7.15303,47.09229],[7.15272,47.09263],[7.15316,47.09233],[7.15303,47.09229]]],[[[7.1533,47.09209],[7.15401,47.09169],[7.15428,47.09144],[7.15402,47.09139],[7.15384,47.09152],[7.1533,47.09209]]]]}},{"type":"Feature","properties":{"k":"fish","c":"BE","n":"Aare (4l)","nf":"Aar (4l)","d":"Bei Port-Brügg im Ober- und Unterwasserkanal des Kraftwerkes sowie vom oberen bis unteren Ende der Schleusenmauern","df":"Port-Brügg: dans le canal en amont et en aval de l'usine électrique et d'un bout à l'autre des murs d'écluse","u":"https://geofiles.be.ch/geoportal/pub/zusatzdaten/ANGFISCH/Schongebiete_4l.pdf","s":"be","id":5},"geometry":{"type":"Polygon","coordinates":[[[7.25751,47.1181],[7.25635,47.11842],[7.25681,47.1193],[7.2566,47.11936],[7.25773,47.11931],[7.2585,47.11912],[7.25885,47.11884],[7.25798,47.11901],[7.25751,47.1181]]]}},{"type":"Feature","properties":{"k":"fish","c":"BE","n":"Schüss (7b)","nf":"Suze (7b)","d":"In Biel bei der Schwanenkolonie vom Rechen oberhalb der Brücke der Spitalstrasse an aufwärts auf einer Länge von 320 m bis zur Überdeckung der Bielschüss beim \"Rüschli\"","df":"Bienne: depuis la grille de retenue près de la colonie des Cygnes en remontant du pont de la Rue de l’Hôpital sur une distance de 320 m jusqu’au tronçon couvert de la Suze de Bienne au niveau du Rüschli","u":"https://geofiles.be.ch/geoportal/pub/zusatzdaten/ANGFISCH/Schongebiete_7b.pdf","s":"be","id":6},"geometry":{"type":"Polygon","coordinates":[[[7.24178,47.1386],[7.24165,47.1386],[7.24199,47.13927],[7.24335,47.13983],[7.24342,47.13976],[7.24205,47.13921],[7.24178,47.1386]]]}},{"type":"Feature","properties":{"k":"fish","c":"BE","n":"Schüss (7a)","nf":"Suze (7a)","d":"In Péry von der Strassenbrücke im Süden des Industriegeländes der Ciments Vigier SA 400 m aufwärts bis zur Strassenbrücke im Norden dieses Industriegeländes","df":"Péry: depuis le pont routier au sud de l’aire industrielle de Ciments Vigier SA sur 400 m en remontant jusqu’au pont routier au nord de cette même aire ","u":"https://geofiles.be.ch/geoportal/pub/zusatzdaten/ANGFISCH/Schongebiete_7a.pdf","s":"be","id":7},"geometry":{"type":"MultiPolygon","coordinates":[[[[7.24818,47.18407],[7.24819,47.18407],[7.24819,47.18407],[7.24818,47.18407]]],[[[7.24819,47.18407],[7.24803,47.18412],[7.2492,47.18551],[7.25008,47.18755],[7.25026,47.18754],[7.24939,47.18551],[7.24819,47.18407]]]]}},{"type":"Feature","properties":{"k":"fish","c":"BE","n":"Aare (4m)","nf":"Aar (4m)","d":"Im Häftli im Verbindungskanal zwischen Nidau-Büren-Kanal und oberem Ende des Häftli","df":"Häftli: dans le canal reliant le canal de Nidau-Büren à l'extrémité supérieure du Häftli","u":"https://geofiles.be.ch/geoportal/pub/zusatzdaten/ANGFISCH/Schongebiete_4m.pdf","s":"be","id":8},"geometry":{"type":"Polygon","coordinates":[[[7.33443,47.14236],[7.33428,47.14264],[7.3344,47.14267],[7.33456,47.1424],[7.33443,47.14236]]]}},{"type":"Feature","properties":{"k":"fish","c":"BE","n":"Aare (4i)","nf":"Aar (4i)","d":"Bei Bern je 100 m ober- und unterhalb des Engehaldenstauwehrs, einschliesslich des Staubassins des Elektrizitätswerkes Felsenau","df":"Berne: 100 mètres en amont et en aval du barrage de l'Engehalde, y compris le bassin de retenue de l'usine électrique de Felsenau","u":"https://geofiles.be.ch/geoportal/pub/zusatzdaten/ANGFISCH/Schongebiete_4i.pdf","s":"be","id":9},"geometry":{"type":"MultiPolygon","coordinates":[[[[7.43982,46.96849],[7.43918,46.9686],[7.43939,46.96887],[7.43959,46.96877],[7.43982,46.96849]]],[[[7.44592,46.9662],[7.44467,46.96457],[7.4439,46.96487],[7.44531,46.96643],[7.44592,46.9662]]]]}},{"type":"Feature","properties":{"k":"fish","c":"BE","n":"Aare (4o)","nf":"Aar (4o)","d":"Bei Bannwil entlang des rechten Inselufers Vogelraupfi auf einer Breiten von 50 Metern, wobei das Fischen vom linken Aareufer aus erlaubt ist","df":"Vers Bannwil tout le long de la berge doite de l'île Vogelraupfi sur une largeur de 50 mètres, pêche de la berge gauche de l'Aar néanmoins autorisée","u":"https://geofiles.be.ch/geoportal/pub/zusatzdaten/ANGFISCH/Schongebiete_4o.pdf","s":"be","id":10},"geometry":{"type":"Polygon","coordinates":[[[7.71945,47.22679],[7.71765,47.22676],[7.71728,47.22688],[7.7171,47.22709],[7.71722,47.22722],[7.71761,47.22704],[7.71912,47.227],[7.72096,47.22777],[7.72014,47.22709],[7.71945,47.22679]]]}},{"type":"Feature","properties":{"k":"fish","c":"BE","n":"Aare (4n)","nf":"Aar (4n)","d":"Bei Bannwil 100 m oberhalb und linksufrig 100 m unterhalb des Kraftwerkes Bannwil","df":"Bannwil: 100 mètres en amont et, sur la rive gauche, 100 mètres en aval de l'usine électrique de Bannwil","u":"https://geofiles.be.ch/geoportal/pub/zusatzdaten/ANGFISCH/Schongebiete_4n.pdf","s":"be","id":11},"geometry":{"type":"Polygon","coordinates":[[[7.73147,47.22853],[7.73191,47.22891],[7.73249,47.23018],[7.73307,47.23008],[7.73268,47.22919],[7.73317,47.22908],[7.73276,47.22798],[7.73262,47.22786],[7.73147,47.22853]]]}},{"type":"Feature","properties":{"k":"fish","c":"BE","n":"Aare (4p)","nf":"Aar (4p)","d":"Bei Wynau (einschliesslich Werkkanal und Stillgewässer) 200 m ober- und 100 m unterhalb der Schleusen des Elektrizitätswerkes Wynau","df":"Wynau (y compris le canal industriel et l’eau dormante): 200 mètres en amont et 100 mètres en aval des écluses de l'usine électrique de Wynau","u":"https://geofiles.be.ch/geoportal/pub/zusatzdaten/ANGFISCH/Schongebiete_4p.pdf","s":"be","id":12},"geometry":{"type":"Polygon","coordinates":[[[7.78542,47.25642],[7.78583,47.25615],[7.78664,47.25689],[7.78735,47.2566],[7.78691,47.25621],[7.78696,47.256],[7.78677,47.25605],[7.78652,47.25593],[7.78625,47.25613],[7.78581,47.25584],[7.78609,47.25566],[7.78588,47.25545],[7.78621,47.25516],[7.78571,47.25445],[7.78474,47.25435],[7.78306,47.25513],[7.78308,47.25524],[7.78351,47.25585],[7.78465,47.25672],[7.78506,47.25643],[7.78421,47.25593],[7.78422,47.25571],[7.78542,47.25642]]]}},{"type":"Feature","properties":{"k":"fish","c":"BE","n":"Aare (4f)","nf":"Aar (4f)","d":"In Thun Steffisburg auf einer Strecke von 50 m oberhalb des Stauwehres des Elektrizitätswerkes Thun bis zur Regiebrücke (Strassenbrücke)","df":"Thoune-Steffisburg: sur les 50 mètres en amont du barrage de l'usine électrique de Thoune jusqu'au pont de la régie (pont routier)","u":"https://geofiles.be.ch/geoportal/pub/zusatzdaten/ANGFISCH/Schongebiete_4f.pdf","s":"be","id":13},"geometry":{"type":"Polygon","coordinates":[[[7.62225,46.7615],[7.61873,46.76169],[7.61865,46.762],[7.62015,46.76214],[7.62226,46.76213],[7.62225,46.7615]]]}},{"type":"Feature","properties":{"k":"fish","c":"BE","n":"Aare (4e)","nf":"Aar (4e)","d":"In Thun von der südwestlichen Schadauecke und der Bächimattpromenade bis zu den Mühleschleusen (ohne Schiffahrtskanal)","df":"Thoune: de l'angle sud-ouest de la Schadau et de la promenade de Bächimatt jusqu'aux écluses du moulin (sauf le canal de navigation)","u":"https://geofiles.be.ch/geoportal/pub/zusatzdaten/ANGFISCH/Schongebiete_4e.pdf","s":"be","id":14},"geometry":{"type":"Polygon","coordinates":[[[7.63153,46.7578],[7.63257,46.75723],[7.63392,46.75541],[7.63574,46.75439],[7.63655,46.75294],[7.6369,46.75171],[7.63687,46.75086],[7.63642,46.74953],[7.63667,46.74953],[7.63666,46.74919],[7.63636,46.7492],[7.63688,46.74838],[7.63726,46.74819],[7.63793,46.74814],[7.63847,46.74784],[7.63964,46.74592],[7.6405,46.74504],[7.64132,46.74452],[7.6362,46.74477],[7.63687,46.74504],[7.63854,46.74619],[7.6378,46.74691],[7.63561,46.74837],[7.63455,46.74837],[7.63425,46.74858],[7.63483,46.74875],[7.63499,46.74851],[7.63553,46.7485],[7.63565,46.74862],[7.63498,46.74972],[7.63515,46.74985],[7.63464,46.75041],[7.63528,46.75081],[7.63513,46.75114],[7.63539,46.75141],[7.63532,46.75171],[7.63502,46.75232],[7.63483,46.75241],[7.63462,46.75152],[7.63405,46.75238],[7.63246,46.75668],[7.6327,46.75657],[7.63165,46.75744],[7.63109,46.75773],[7.63012,46.75787],[7.63014,46.75805],[7.62966,46.75831],[7.62973,46.75838],[7.63031,46.75808],[7.63153,46.7578]],[[7.63395,46.75334],[7.63406,46.75317],[7.63434,46.7532],[7.6339,46.75422],[7.63338,46.75477],[7.63408,46.75342],[7.63395,46.75334]],[[7.63441,46.75318],[7.63393,46.75306],[7.63428,46.75237],[7.63478,46.7525],[7.63468,46.7527],[7.63484,46.75276],[7.63469,46.75304],[7.6345,46.75301],[7.63441,46.75318]]]}},{"type":"Feature","properties":{"k":"fish","c":"BE","n":"Thunersee (2e)","nf":"lac de Thoune (2e)","d":"Bei der Kandereinmündung im Umkreis von 200 m in der Zeit vom 1. September bis zum 31. Dezember, wobei die Trüschenfischerei ganzjährig zulässig bleibt","df":"200 mètres autour de l'embouchure de la Kander entre le 1er septembre et le 31 décembre, la pêche de la lotte étant permise toute l’année","u":"https://geofiles.be.ch/geoportal/pub/zusatzdaten/ANGFISCH/Schongebiete_2e.pdf","s":"be","id":15},"geometry":{"type":"Polygon","coordinates":[[[7.64046,46.72001],[7.64098,46.7205],[7.64192,46.72089],[7.64302,46.72099],[7.64389,46.72082],[7.64479,46.72035],[7.64524,46.71981],[7.64539,46.71904],[7.64516,46.71844],[7.6448,46.71804],[7.64411,46.71764],[7.64366,46.71832],[7.64317,46.71852],[7.64273,46.7193],[7.64143,46.71991],[7.64107,46.71987],[7.64046,46.72001]]]}},{"type":"Feature","properties":{"k":"fish","c":"BE","n":"Thunersee (2d)","nf":"lac de Thoune (2d)","d":"Beim Gwattlischenmoos von der Ostecke des Bonstettenwäldchens bis zum Ende des Naturschutzreservates","df":"Gwattlischenmoos: du coin est du bois de Bonstetten jusqu'à l'extrémité de la réserve naturelle","u":"https://geofiles.be.ch/geoportal/pub/zusatzdaten/ANGFISCH/Schongebiete_2d.pdf","s":"be","id":16},"geometry":{"type":"Polygon","coordinates":[[[7.62803,46.72386],[7.6292,46.72377],[7.62934,46.72317],[7.6302,46.72184],[7.63133,46.72097],[7.63151,46.72043],[7.62894,46.71828],[7.62789,46.71874],[7.62778,46.71893],[7.62675,46.71961],[7.62664,46.72014],[7.62714,46.7204],[7.62708,46.72071],[7.62735,46.72146],[7.62733,46.7217],[7.62671,46.72207],[7.62692,46.7223],[7.62814,46.72252],[7.62897,46.72244],[7.62848,46.72373],[7.62803,46.72386]]]}},{"type":"Feature","properties":{"k":"fish","c":"BE","n":"Kander (9a)","nf":"Kander  (9a)","d":"Ab dem Wehr im Bereich „Auetli“/“Sack“ (auf der Gemeindegrenze Aeschi-Wimmis) bis zur Einmündung in den Thunersee in der Zeit vom 1. bis zum 30. September.","df":"Depuis le barrage dans la zone « Auetli » / « Sack » (sur la frontière communale Aeschi-Wimmis) jusqu’à l’embouchure dans le lac de Thoune entre le 1er et le 30 septembre.","u":"https://geofiles.be.ch/geoportal/pub/zusatzdaten/ANGFISCH/Schongebiete_9a.pdf","s":"be","id":17},"geometry":{"type":"Polygon","coordinates":[[[7.64035,46.72005],[7.64107,46.71987],[7.64143,46.71991],[7.64273,46.7193],[7.64317,46.71852],[7.64366,46.71832],[7.64411,46.71764],[7.64456,46.71745],[7.6447,46.71716],[7.64409,46.7166],[7.64406,46.71622],[7.64346,46.71614],[7.64216,46.71642],[7.64077,46.71647],[7.63873,46.71632],[7.63734,46.71548],[7.63466,46.71193],[7.6327,46.7089],[7.63462,46.70829],[7.63518,46.70369],[7.63508,46.70167],[7.63379,46.69944],[7.63347,46.69729],[7.63341,46.69466],[7.63245,46.69351],[7.63323,46.69209],[7.63422,46.69057],[7.63602,46.68912],[7.63747,46.68972],[7.63829,46.69068],[7.63972,46.69054],[7.64164,46.68971],[7.64412,46.6889],[7.6447,46.68775],[7.64612,46.68758],[7.64808,46.68712],[7.64926,46.68713],[7.6515,46.68679],[7.65373,46.68599],[7.65714,46.68501],[7.6587,46.6842],[7.66047,46.68284],[7.66076,46.68167],[7.66188,46.68068],[7.66274,46.68026],[7.66381,46.6794],[7.6653,46.6759],[7.66644,46.67549],[7.66745,46.67433],[7.66801,46.67213],[7.67059,46.66896],[7.67173,46.6681],[7.67145,46.66718],[7.67206,46.66633],[7.67463,46.66374],[7.67542,46.66263],[7.67415,46.66222],[7.67282,46.6637],[7.67045,46.66562],[7.66999,46.6677],[7.66831,46.67025],[7.66719,46.67122],[7.66661,46.67301],[7.66507,46.67477],[7.66251,46.67945],[7.66018,46.68084],[7.6597,46.6821],[7.65924,46.68277],[7.65718,46.68377],[7.65227,46.68534],[7.65005,46.68547],[7.64824,46.68631],[7.64643,46.68678],[7.64371,46.68687],[7.64325,46.68845],[7.64164,46.68874],[7.63904,46.6897],[7.63842,46.68891],[7.63724,46.68871],[7.63585,46.68818],[7.63506,46.68853],[7.63419,46.68957],[7.63312,46.69045],[7.633,46.69099],[7.63052,46.69227],[7.63046,46.69487],[7.63012,46.69808],[7.63186,46.70076],[7.63295,46.70282],[7.63242,46.70406],[7.63293,46.70677],[7.63117,46.70797],[7.63023,46.70896],[7.63094,46.70982],[7.63244,46.71054],[7.63253,46.71092],[7.6334,46.71217],[7.63453,46.71337],[7.63624,46.71614],[7.63793,46.71697],[7.63944,46.71745],[7.64036,46.71976],[7.64035,46.72005]]]}},{"type":"Feature","properties":{"k":"fish","c":"BE","n":"Simme (10a)","nf":"Simme (10a)","d":"Vom Wehr Port bei Wimmis bis zur Einmündung in die Kander in der Zeit vom 1. bis zum 30. September.","df":"Du barrage de Port près de Wimmis jusqu’à l’embouchure dans la Kander entre le 1er et le 30 septembre.","u":"https://geofiles.be.ch/geoportal/pub/zusatzdaten/ANGFISCH/Schongebiete_10a.pdf","s":"be","id":18},"geometry":{"type":"Polygon","coordinates":[[[7.63263,46.69122],[7.633,46.69099],[7.6332,46.69021],[7.63464,46.68881],[7.63457,46.68842],[7.63372,46.68768],[7.634,46.6857],[7.63369,46.68255],[7.63392,46.68064],[7.63364,46.67834],[7.63307,46.67665],[7.63174,46.6758],[7.62732,46.6745],[7.62645,46.67393],[7.62604,46.67455],[7.62679,46.6752],[7.62967,46.67596],[7.63171,46.67718],[7.63241,46.67915],[7.63261,46.68457],[7.63281,46.68631],[7.63272,46.68782],[7.63365,46.68875],[7.63264,46.68966],[7.63247,46.69003],[7.63234,46.69086],[7.63264,46.691],[7.63263,46.69122]]]}},{"type":"Feature","properties":{"k":"fish","c":"BE","n":"Thunersee (2c)","nf":"lac de Thoune (2c)","d":"Bei der Einmündung des Werkkanals des Elektrizitätswerkes Spiez im Umkreis von 200 m in der Zeit vom 1. September bis zum 31. Dezember","df":"200 mètres autour de l'embouchure du canal industriel de l'usine électrique de Spiez entre le 1er septembre et le 31 décembre","u":"https://geofiles.be.ch/geoportal/pub/zusatzdaten/ANGFISCH/Schongebiete_2c.pdf","s":"be","id":19},"geometry":{"type":"Polygon","coordinates":[[[7.66286,46.69776],[7.66351,46.69822],[7.66434,46.6985],[7.66527,46.69855],[7.66635,46.69831],[7.66704,46.69791],[7.66749,46.69736],[7.66764,46.69675],[7.66739,46.69598],[7.66693,46.69612],[7.66664,46.6966],[7.66615,46.69685],[7.66604,46.69668],[7.66583,46.69664],[7.66527,46.69692],[7.66508,46.69674],[7.66496,46.69678],[7.66492,46.697],[7.66437,46.69682],[7.66399,46.69692],[7.66286,46.69776]]]}},{"type":"Feature","properties":{"k":"fish","c":"BE","n":"Thunersee (2b)","nf":"lac de Thoune (2b)","d":"Bei der Weissenau vom Ende des rechtsufrigen Aaredamms entlang des Schiffahrtverbots bis zur Sturmwarnung Neuhaus","df":"Au lieu-dit Weissenau, de la fin de la digue en berge droite de l'Aar tout le long de l'interdiction de navigation jusqu'au signal de tempête Neuhaus","u":"https://geofiles.be.ch/geoportal/pub/zusatzdaten/ANGFISCH/Schongebiete_2b.pdf","s":"be","id":20},"geometry":{"type":"Polygon","coordinates":[[[7.82706,46.67176],[7.82762,46.67135],[7.82958,46.67217],[7.83044,46.67229],[7.83107,46.67227],[7.83187,46.67208],[7.83198,46.67197],[7.8312,46.6719],[7.83112,46.67171],[7.8315,46.67154],[7.83104,46.67096],[7.83093,46.67059],[7.831,46.66952],[7.82997,46.66889],[7.82925,46.66899],[7.82872,46.66815],[7.82743,46.66755],[7.82092,46.67258],[7.81818,46.67564],[7.81692,46.67755],[7.81719,46.67763],[7.81742,46.6774],[7.81769,46.67672],[7.8185,46.67609],[7.81874,46.67532],[7.81885,46.67536],[7.81903,46.67508],[7.8206,46.67493],[7.82102,46.67456],[7.82147,46.67377],[7.82244,46.67316],[7.82384,46.67284],[7.82534,46.67217],[7.82706,46.67176]]]}},{"type":"Feature","properties":{"k":"fish","c":"BE","n":"Thunersee (2a)","nf":"lac de Thoune (2a)","d":"Bei der Aare- und Schiffahrtkanaleinmündung jeweils im Umkreis von 200 m in der Zeit vom 1. September bis zum 31. Dezember","df":"200 mètres autour de l'embouchure de l'Aar et du canal de navigation, entre le 1er septembre et le 31 décembre","u":"https://geofiles.be.ch/geoportal/pub/zusatzdaten/ANGFISCH/Schongebiete_2a.pdf","s":"be","id":21},"geometry":{"type":"Polygon","coordinates":[[[7.82746,46.66697],[7.83001,46.66806],[7.83035,46.66745],[7.82679,46.66593],[7.827,46.66585],[7.82749,46.66462],[7.8268,46.6637],[7.82593,46.66389],[7.82506,46.66438],[7.82454,46.66524],[7.82462,46.66601],[7.82504,46.66657],[7.82483,46.66732],[7.8251,46.66807],[7.82563,46.66857],[7.82636,46.66891],[7.82723,46.66907],[7.82815,46.66901],[7.82899,46.66872],[7.82893,46.66851],[7.82872,46.66815],[7.82743,46.66755],[7.82746,46.66697]]]}},{"type":"Feature","properties":{"k":"fish","c":"BE","n":"Aare  (4b)","nf":"Aar (4b)","d":"Bei Interlaken-Unterseen im Bereich des Gewerbekanals der Tiefbau AG vom Elektrizitätswerk der Hoch- und Tiefbau AG bis zum Einlauf in die Kleine Aare","df":"Interlaken-Unterseen: dans le secteur du canal industriel de Tiefbau AG de l'usine électrique de la Hoch-und Tiefbau AG, jusqu'à l'embouchure dans la Petite Aar","u":"https://geofiles.be.ch/geoportal/pub/zusatzdaten/ANGFISCH/Schongebiete_4b.pdf","s":"be","id":22},"geometry":{"type":"MultiPolygon","coordinates":[[[[7.8492,46.68387],[7.84904,46.68384],[7.84986,46.68508],[7.8498,46.68474],[7.8492,46.68387]]],[[[7.85054,46.68667],[7.85015,46.68586],[7.85004,46.68588],[7.85033,46.68667],[7.85054,46.68667]]]]}},{"type":"Feature","properties":{"k":"fish","c":"BE","n":"Aare (4c)","nf":"Aar (4c)","d":"Bei Interlaken-Unterseen in der Aare von 60 m oberhalb bis 100 m unterhalb des Nadelwehres des Elektrizitätswerks Interlaken","df":"Interlaken-Unterseen: dans l'Aar de 60 m en amont jusqu'à 100 m en aval du barrage à aiguilles de l'usine électrique d'Interlaken ","u":"https://geofiles.be.ch/geoportal/pub/zusatzdaten/ANGFISCH/Schongebiete_4c.pdf","s":"be","id":23},"geometry":{"type":"Polygon","coordinates":[[[7.84599,46.681],[7.84633,46.68154],[7.84689,46.68204],[7.8477,46.68219],[7.84797,46.68185],[7.8471,46.68156],[7.84639,46.68077],[7.84599,46.681]]]}},{"type":"Feature","properties":{"k":"fish","c":"BE","n":"Aare (4a)","nf":"Aar (4a)","d":"Bei Interlaken-Unterseen in der Kleinen Aare vom Elekrizitätswerk der Mühlen AG bis zum Einlauf in die Grosse Aare","df":"Interlaken-Unterseen: dans la Petite Aar de l'usine électrique de Mühlen AG jusqu'à l'embouchure dans la Grande Aar","u":"https://geofiles.be.ch/geoportal/pub/zusatzdaten/ANGFISCH/Schongebiete_4a.pdf","s":"be","id":24},"geometry":{"type":"Polygon","coordinates":[[[7.8477,46.68219],[7.84694,46.68207],[7.84833,46.68304],[7.84904,46.68384],[7.84967,46.68398],[7.85018,46.68434],[7.85045,46.68476],[7.85063,46.68553],[7.85059,46.6867],[7.85077,46.6867],[7.85078,46.68652],[7.8508,46.6866],[7.85096,46.68656],[7.85076,46.685],[7.85048,46.68445],[7.85005,46.68403],[7.84901,46.68357],[7.84832,46.68268],[7.8477,46.68219]]]}},{"type":"Feature","properties":{"k":"fish","c":"BE","n":"Aare (4d)","nf":"Aar (4d)","d":"Bei Interlaken-Unterseen im Schifffahrtskanal vom oberen Ende des Kanals 120 m abwärts bis auf die Höhe des einzelnen rechtsufrigen Schifffahrtspfostens","df":"Interlaken-Unterseen: dans le canal de navigation depuis son extrémité amont durant 120 m en aval, jusqu’au pieu d’amarrage isolé pour la navigation sur la rive droite","u":"https://geofiles.be.ch/geoportal/pub/zusatzdaten/ANGFISCH/Schongebiete_4d.pdf","s":"be","id":25},"geometry":{"type":"Polygon","coordinates":[[[7.85054,46.68303],[7.85085,46.683],[7.85065,46.68196],[7.85011,46.68203],[7.85054,46.68303]]]}},{"type":"Feature","properties":{"k":"fish","c":"BE","n":"Brienzersee (1b)","nf":"Lac de Brienz (1b)","d":"Bei der Lütschineneinmündung im Umkreis von 200 m mit Ausnahme der Angelfischerei vom Ufer aus in der Zeit vom 1. September bis zum 31. Dezember, wobei die Trüschenfischerei ganzjährig zulässig bleibt","df":"200 mètres autour de l'embouchure de la Lütschine, à l’exception de la pêche à la ligne à partir de la rive entre le 1er septembre et le 31 décembre, la pêche de la lotte restant autorisée toute l'année","u":"https://geofiles.be.ch/geoportal/pub/zusatzdaten/ANGFISCH/Schongebiete_1b.pdf","s":"be","id":26},"geometry":{"type":"Polygon","coordinates":[[[7.89544,46.69102],[7.89571,46.69176],[7.89624,46.69225],[7.89698,46.6926],[7.89807,46.69275],[7.89919,46.69258],[7.89994,46.69223],[7.90047,46.69172],[7.90072,46.69097],[7.90049,46.69022],[7.89997,46.6897],[7.89902,46.68928],[7.89812,46.68916],[7.89789,46.68916],[7.89818,46.68955],[7.89803,46.68975],[7.89708,46.6895],[7.89751,46.69007],[7.89777,46.69016],[7.89813,46.69003],[7.89811,46.69081],[7.89768,46.69163],[7.89777,46.69141],[7.89756,46.69134],[7.89674,46.69187],[7.89696,46.69159],[7.89675,46.69096],[7.89589,46.69076],[7.89544,46.69102]]]}},{"type":"Feature","properties":{"k":"fish","c":"BE","n":"Brienzersee  (1a)","nf":"Lac de Brienz (1a)","d":"Bei der Aareeinmündung im Umkreis von 200 m in der Zeit vom 1. September bis zum 31. Dezember, wobei die Trüschenfischerei ganzjährig zulässig bleibt","df":"200 mètres autour de l'embouchure de l'Aar entre le 1er septembre et le 31 décembre, la pêche de la lotte néanmoins autorisée toute l'année","u":"https://geofiles.be.ch/geoportal/pub/zusatzdaten/ANGFISCH/Schongebiete_1a.pdf","s":"be","id":27},"geometry":{"type":"Polygon","coordinates":[[[8.04894,46.74081],[8.04804,46.74071],[8.04694,46.74088],[8.0462,46.74125],[8.0456,46.74191],[8.04546,46.74268],[8.0457,46.74328],[8.0464,46.74389],[8.04719,46.7442],[8.04852,46.74428],[8.04972,46.7439],[8.04942,46.74307],[8.04923,46.74307],[8.04908,46.74367],[8.04855,46.74346],[8.04801,46.74351],[8.0477,46.74334],[8.04769,46.7432],[8.048,46.74287],[8.0475,46.74266],[8.04804,46.74263],[8.04807,46.74241],[8.04769,46.74231],[8.04785,46.74213],[8.04864,46.74196],[8.04894,46.74081]]]}},{"type":"Feature","properties":{"k":"fish","c":"TG","n":"Felchenschongebiet Untersee","d":"Gemäss Unterseefischereiordnung Fang von Felchen mit der Angel 1. April - 30. Juni verboten (1. April – 30. Juni)","u":"https://jfv.tg.ch/","s":"tg","id":28},"geometry":{"type":"Polygon","coordinates":[[[9.0773,47.67065],[9.07833,47.67099],[9.07878,47.6714],[9.07949,47.67164],[9.07955,47.67157],[9.0802,47.67172],[9.08026,47.67197],[9.08052,47.67196],[9.08092,47.67234],[9.0812,47.67225],[9.08141,47.67254],[9.08165,47.67254],[9.08123,47.6727],[9.0816,47.67333],[9.08141,47.67342],[9.0816,47.67356],[9.08147,47.67373],[9.08164,47.67389],[9.08192,47.67383],[9.08232,47.67425],[9.08281,47.67452],[9.08288,47.67439],[9.08378,47.67452],[9.08386,47.67429],[9.08487,47.67439],[9.08533,47.67523],[9.08555,47.67529],[9.08528,47.67404],[9.08658,47.67383],[9.08665,47.6737],[9.08699,47.6737],[9.08699,47.67357],[9.08925,47.67345],[9.08978,47.67296],[9.08975,47.67254],[9.08984,47.67265],[9.09121,47.67126],[9.09136,47.66995],[9.09205,47.66927],[9.09222,47.6689],[9.09517,47.6666],[9.09625,47.66607],[9.09789,47.66594],[9.09884,47.66629],[9.10027,47.66651],[9.10059,47.66639],[9.10055,47.6662],[9.10074,47.66609],[9.10133,47.66609],[9.10146,47.66598],[9.10342,47.66568],[9.1037,47.66557],[9.10373,47.66532],[9.10597,47.66538],[9.10814,47.66581],[9.11003,47.66598],[9.11032,47.66581],[9.11045,47.66591],[9.11073,47.66586],[9.11082,47.66557],[9.11138,47.66555],[9.1115,47.66545],[9.11171,47.66563],[9.11286,47.66551],[9.11321,47.66566],[9.11352,47.66557],[9.11435,47.6656],[9.11464,47.66541],[9.1152,47.66534],[9.11669,47.66547],[9.11652,47.66553],[9.11643,47.66655],[9.11587,47.66668],[9.11546,47.66699],[9.11514,47.6677],[9.11379,47.66834],[9.10848,47.6693],[9.10698,47.66911],[9.10328,47.66948],[9.10151,47.67002],[9.10624,47.67474],[9.12786,47.66768],[9.12695,47.67284],[9.12571,47.67469],[9.12395,47.67611],[9.12064,47.67756],[9.11902,47.67863],[9.11427,47.68499],[9.11316,47.68581],[9.11093,47.68646],[9.11014,47.68635],[9.11,47.68677],[9.10967,47.68695],[9.10851,47.68687],[9.10797,47.68669],[9.1055,47.68671],[9.10392,47.68655],[9.10029,47.68599],[9.09983,47.68626],[9.09914,47.68635],[9.09859,47.68606],[9.09733,47.68595],[9.09649,47.68641],[9.09448,47.6871],[9.0922,47.68672],[9.09069,47.686],[9.08873,47.68551],[9.08828,47.68523],[9.08737,47.68504],[9.08642,47.68519],[9.0857,47.6851],[9.08525,47.68488],[9.08523,47.68456],[9.08349,47.68384],[9.08392,47.68376],[9.08232,47.68354],[9.08155,47.68316],[9.08094,47.68362],[9.0806,47.68409],[9.07732,47.68448],[9.0773,47.67065]]]}},{"type":"Feature","properties":{"k":"fish","c":"TG","n":"Seeforellenschongebiet Steinachmuendung","d":"Fang aller Fischarten 1.Nov - 31. Januar verboten (1. November – 31. Januar)","u":"https://jfv.tg.ch/","s":"tg","id":29},"geometry":{"type":"Polygon","coordinates":[[[9.44519,47.50577],[9.44951,47.50802],[9.45,47.50757],[9.45173,47.50354],[9.45241,47.50316],[9.44952,47.50137],[9.44925,47.50162],[9.44951,47.50171],[9.44944,47.50215],[9.44849,47.50292],[9.44826,47.50295],[9.44827,47.50308],[9.44784,47.50311],[9.44742,47.50364],[9.44723,47.50363],[9.44678,47.50407],[9.44665,47.50466],[9.4468,47.50517],[9.44581,47.50582],[9.44519,47.50577]]]}},{"type":"Feature","properties":{"k":"fish","c":"TG","n":"Seeforellenschongebiet Goldachmuendung","d":"Fang aller Fischarten 1.Nov - 31. Januar verboten (1. November – 31. Januar)","u":"https://jfv.tg.ch/","s":"tg","id":30},"geometry":{"type":"Polygon","coordinates":[[[9.47289,47.49137],[9.4751,47.4939],[9.47671,47.49279],[9.47948,47.49043],[9.47971,47.4901],[9.47983,47.48919],[9.48019,47.48834],[9.48016,47.48739],[9.48033,47.48699],[9.47686,47.48676],[9.47693,47.48724],[9.47714,47.48733],[9.4769,47.48877],[9.47717,47.48891],[9.47706,47.48898],[9.47721,47.48906],[9.47738,47.48963],[9.47696,47.48994],[9.47431,47.49069],[9.47289,47.49137]]]}},{"type":"Feature","properties":{"k":"fish","c":"TG","n":"Seeforellenschongebiet Guettingen","d":"Fang aller Fischarten 1.Nov - 31. Januar verboten (1. November – 31. Januar)","u":"https://jfv.tg.ch/","s":"tg","id":31},"geometry":{"type":"MultiPolygon","coordinates":[[[[9.29732,47.61479],[9.30534,47.61082],[9.31548,47.60441],[9.31261,47.60175],[9.31112,47.60269],[9.30817,47.60414],[9.30723,47.60531],[9.30595,47.60609],[9.30561,47.60657],[9.3056,47.60686],[9.30501,47.60689],[9.30471,47.60715],[9.3049,47.60732],[9.30463,47.60772],[9.30407,47.60801],[9.30391,47.60793],[9.30354,47.60821],[9.30335,47.60812],[9.303,47.6082],[9.30209,47.60901],[9.30118,47.60905],[9.30037,47.60968],[9.30008,47.6103],[9.29954,47.61058],[9.29807,47.61095],[9.298,47.6112],[9.29711,47.61152],[9.29698,47.61213],[9.29643,47.61261],[9.2963,47.6125],[9.2966,47.61236],[9.2969,47.61197],[9.29658,47.61146],[9.29572,47.6119],[9.29613,47.61231],[9.29566,47.61254],[9.29508,47.61201],[9.29458,47.61229],[9.29732,47.61479]]],[[[9.29732,47.61479],[9.29731,47.61479],[9.29734,47.61481],[9.29732,47.61479]]]]}},{"type":"Feature","properties":{"k":"fish","c":"TG","n":"Seeforellenschongebiet Luxburgerbucht","d":"Fang aller Fischarten 1.Nov - 31. Januar verboten (1. November – 31. Januar)","u":"https://jfv.tg.ch/","s":"tg","id":32},"geometry":{"type":"Polygon","coordinates":[[[9.38469,47.56189],[9.39175,47.54733],[9.38735,47.54614],[9.38651,47.54701],[9.38622,47.54791],[9.38648,47.54909],[9.38681,47.54917],[9.38683,47.55032],[9.38655,47.55056],[9.38525,47.54987],[9.38401,47.55087],[9.38381,47.55144],[9.38399,47.55163],[9.38375,47.55184],[9.38328,47.55187],[9.38286,47.5524],[9.38213,47.55259],[9.38178,47.55254],[9.38151,47.55292],[9.38121,47.55309],[9.38085,47.55311],[9.38051,47.55338],[9.38016,47.55394],[9.38018,47.55459],[9.38048,47.55492],[9.3808,47.55497],[9.38051,47.55552],[9.38071,47.55562],[9.38058,47.55616],[9.38088,47.55669],[9.38079,47.55687],[9.38095,47.55693],[9.38094,47.5576],[9.38135,47.55927],[9.38199,47.55945],[9.38163,47.55991],[9.38187,47.55994],[9.38217,47.56024],[9.38256,47.56144],[9.38362,47.56146],[9.38469,47.56189]]]}},{"type":"Feature","properties":{"k":"wzvv","n":"Ermatinger Becken (TG)","u":"https://api3.geo.admin.ch/featureattachments/ch.bafu.bundesinventare-vogelreservate/objectsheets/2023revision/nr1.pdf","s":"wzvv","id":33},"geometry":{"type":"Polygon","coordinates":[[[9.15784,47.66576],[9.16005,47.66348],[9.15991,47.66315],[9.14301,47.66019],[9.13466,47.65992],[9.1338,47.65964],[9.12587,47.66065],[9.11954,47.66245],[9.11187,47.66325],[9.10707,47.66283],[9.10471,47.66314],[9.10088,47.66487],[9.09912,47.66514],[9.09867,47.66718],[9.09769,47.6669],[9.09649,47.66709],[9.094,47.66879],[9.09287,47.67014],[9.09242,47.67185],[9.08971,47.67454],[9.08548,47.67557],[9.0857,47.67969],[9.09154,47.67982],[9.09767,47.67856],[9.1059,47.6754],[9.11394,47.67048],[9.1176,47.66884],[9.1217,47.66777],[9.13281,47.66602],[9.13905,47.66419],[9.14053,47.6642],[9.14303,47.665],[9.14713,47.667],[9.1495,47.66768],[9.15078,47.66764],[9.15784,47.66576]]]}},{"type":"Feature","properties":{"k":"wzvv","n":"Col de Bretolet (VS)","u":"https://api3.geo.admin.ch/featureattachments/ch.bafu.bundesinventare-vogelreservate/objectsheets/2023revision/nr101.pdf","s":"wzvv","id":34},"geometry":{"type":"Polygon","coordinates":[[[6.80823,46.15898],[6.80951,46.15902],[6.81074,46.15836],[6.80983,46.15803],[6.81073,46.15691],[6.81193,46.15653],[6.81322,46.15539],[6.81312,46.15503],[6.81485,46.15486],[6.81501,46.15446],[6.81439,46.15368],[6.81061,46.15244],[6.81056,46.152],[6.80904,46.15102],[6.80911,46.15043],[6.81119,46.15045],[6.81478,46.14953],[6.81611,46.14812],[6.81544,46.1474],[6.816,46.14708],[6.81739,46.14711],[6.81963,46.14799],[6.82039,46.14706],[6.82124,46.14694],[6.82104,46.14482],[6.82017,46.14438],[6.82022,46.14362],[6.82076,46.14301],[6.8227,46.14233],[6.82377,46.14107],[6.82377,46.1403],[6.82138,46.1386],[6.82114,46.13628],[6.82194,46.13437],[6.8231,46.13424],[6.82459,46.13255],[6.82426,46.13162],[6.81888,46.13115],[6.81669,46.12972],[6.81528,46.12926],[6.81362,46.13051],[6.81289,46.13195],[6.8111,46.13232],[6.81047,46.13405],[6.80982,46.13415],[6.80721,46.13648],[6.80502,46.1357],[6.80404,46.13606],[6.80179,46.13537],[6.79809,46.13611],[6.79729,46.13813],[6.79631,46.13912],[6.7963,46.1422],[6.79502,46.14406],[6.79455,46.14763],[6.79034,46.15355],[6.79023,46.15518],[6.79194,46.15792],[6.79155,46.15868],[6.79257,46.15981],[6.79169,46.16306],[6.7949,46.16588],[6.80046,46.16244],[6.80396,46.16153],[6.80483,46.16081],[6.80627,46.16055],[6.80749,46.15978],[6.8091,46.15973],[6.80821,46.1593],[6.80823,46.15898]]]}},{"type":"Feature","properties":{"k":"wzvv","n":"Witi (BE,SO)","u":"https://api3.geo.admin.ch/featureattachments/ch.bafu.bundesinventare-vogelreservate/objectsheets/2023revision/nr102.pdf","s":"wzvv","id":35},"geometry":{"type":"Polygon","coordinates":[[[7.42017,47.18243],[7.42411,47.18147],[7.42508,47.18228],[7.42778,47.18088],[7.42995,47.18082],[7.43082,47.17718],[7.41815,47.17463],[7.41894,47.17409],[7.40704,47.16847],[7.40542,47.17118],[7.40393,47.17088],[7.40698,47.16603],[7.40082,47.16571],[7.39385,47.1645],[7.39619,47.1624],[7.39246,47.16098],[7.39138,47.16111],[7.38736,47.16014],[7.38716,47.15967],[7.38489,47.15998],[7.38314,47.1607],[7.38175,47.16355],[7.38214,47.16523],[7.38027,47.16885],[7.38745,47.1709],[7.38445,47.17633],[7.38562,47.1767],[7.3865,47.17543],[7.39612,47.17874],[7.39693,47.17768],[7.40109,47.17883],[7.40152,47.17741],[7.40346,47.17783],[7.40901,47.18],[7.41025,47.17922],[7.42017,47.18243]],[[7.41275,47.17648],[7.41405,47.17475],[7.41634,47.17569],[7.41422,47.17705],[7.41275,47.17648]]]}},{"type":"Feature","properties":{"k":"wzvv","n":"Alter Rhein: Thal (SG)","u":"https://api3.geo.admin.ch/featureattachments/ch.bafu.bundesinventare-vogelreservate/objectsheets/2023revision/nr103.pdf","s":"wzvv","id":36},"geometry":{"type":"Polygon","coordinates":[[[9.56183,47.50456],[9.5616,47.49724],[9.56368,47.49401],[9.56596,47.49226],[9.58073,47.48405],[9.583,47.48179],[9.58561,47.47765],[9.58524,47.47754],[9.5829,47.4794],[9.58255,47.48031],[9.57756,47.48456],[9.57006,47.48822],[9.57106,47.48924],[9.5679,47.49094],[9.56702,47.49085],[9.56355,47.49323],[9.5622,47.49508],[9.56086,47.49788],[9.56114,47.49825],[9.55834,47.50015],[9.5562,47.50103],[9.55535,47.50107],[9.55499,47.50045],[9.55728,47.49911],[9.55662,47.49844],[9.55819,47.49734],[9.55878,47.49772],[9.56003,47.49691],[9.56063,47.4973],[9.56163,47.4952],[9.56052,47.49452],[9.56002,47.49324],[9.55916,47.49276],[9.55452,47.49251],[9.55061,47.49185],[9.55026,47.49246],[9.54958,47.49211],[9.54939,47.49266],[9.54792,47.49106],[9.54603,47.49108],[9.54511,47.48899],[9.54409,47.48805],[9.54436,47.48725],[9.54374,47.48593],[9.54419,47.48573],[9.54322,47.48491],[9.54313,47.48402],[9.54244,47.48387],[9.54183,47.48425],[9.54045,47.48371],[9.53257,47.4899],[9.53974,47.49054],[9.55397,47.50229],[9.56183,47.50456]]]}},{"type":"Feature","properties":{"k":"wzvv","n":"Rorschacher Bucht / Arbon (SG)","u":"https://api3.geo.admin.ch/featureattachments/ch.bafu.bundesinventare-vogelreservate/objectsheets/2023revision/nr104.pdf","s":"wzvv","id":37},"geometry":{"type":"MultiPolygon","coordinates":[[[[9.52144,47.48937],[9.52601,47.48932],[9.5326,47.48988],[9.54051,47.48372],[9.54039,47.48281],[9.53822,47.48173],[9.53793,47.48208],[9.53339,47.48121],[9.53267,47.48155],[9.53199,47.48286],[9.53143,47.48268],[9.53237,47.48125],[9.5305,47.48028],[9.52936,47.48163],[9.52942,47.48112],[9.52799,47.48079],[9.52717,47.48014],[9.52533,47.48078],[9.5241,47.48027],[9.51757,47.47966],[9.51732,47.48005],[9.51507,47.47955],[9.50579,47.47929],[9.50267,47.47861],[9.49913,47.47843],[9.49853,47.47805],[9.49446,47.47902],[9.49472,47.47949],[9.49326,47.47926],[9.49194,47.47978],[9.48695,47.47983],[9.48521,47.48013],[9.48531,47.48044],[9.48299,47.48116],[9.4818,47.48115],[9.47927,47.48278],[9.47874,47.48422],[9.47675,47.48617],[9.4773,47.48967],[9.49137,47.49565],[9.49481,47.49337],[9.5005,47.49143],[9.52144,47.48937]]],[[[9.44942,47.50129],[9.44953,47.50181],[9.44879,47.50247],[9.44694,47.50273],[9.44677,47.50525],[9.44583,47.50576],[9.4431,47.50538],[9.44221,47.50488],[9.44032,47.50513],[9.43856,47.5049],[9.43577,47.50651],[9.45401,47.51426],[9.46041,47.50891],[9.44942,47.50129]]]]}},{"type":"Feature","properties":{"k":"wzvv","n":"Zürich-Obersee: Guntliweid bis Bätzimatt (SZ)","u":"https://api3.geo.admin.ch/featureattachments/ch.bafu.bundesinventare-vogelreservate/objectsheets/2023revision/nr105.pdf","s":"wzvv","id":38},"geometry":{"type":"Polygon","coordinates":[[[8.95181,47.2155],[8.9471,47.21429],[8.94121,47.21361],[8.93932,47.21372],[8.93493,47.21289],[8.93173,47.21187],[8.92784,47.21133],[8.92203,47.20947],[8.9124,47.20743],[8.91003,47.20735],[8.90943,47.20816],[8.92579,47.21201],[8.9302,47.21427],[8.93245,47.21588],[8.9374,47.21471],[8.93977,47.21462],[8.94104,47.21531],[8.94208,47.21826],[8.95216,47.21689],[8.95181,47.2155]]]}},{"type":"Feature","properties":{"k":"wzvv","n":"Reuss: Bremgarten - Zufikon bis Brücke von Rottenschwil (AG)","u":"https://api3.geo.admin.ch/featureattachments/ch.bafu.bundesinventare-vogelreservate/objectsheets/2023revision/nr106.pdf","s":"wzvv","id":39},"geometry":{"type":"Polygon","coordinates":[[[8.37202,47.31943],[8.37078,47.31919],[8.37054,47.32031],[8.36985,47.32028],[8.36969,47.31968],[8.36922,47.32058],[8.36873,47.32062],[8.36834,47.32054],[8.36909,47.31928],[8.3669,47.31903],[8.36606,47.31989],[8.36515,47.31898],[8.36287,47.31838],[8.3616,47.31919],[8.36098,47.32123],[8.35912,47.32345],[8.35797,47.32316],[8.35688,47.32379],[8.35577,47.32628],[8.35611,47.32688],[8.35512,47.32708],[8.35511,47.32918],[8.35204,47.32972],[8.35013,47.33243],[8.34479,47.3357],[8.33957,47.33725],[8.33641,47.339],[8.33549,47.34115],[8.33592,47.34312],[8.337,47.34444],[8.33819,47.34498],[8.33916,47.3448],[8.34119,47.34233],[8.34223,47.342],[8.34467,47.34266],[8.34501,47.34351],[8.34654,47.34346],[8.34694,47.3428],[8.34651,47.34185],[8.34302,47.34033],[8.33994,47.34067],[8.33805,47.34312],[8.33754,47.34241],[8.33759,47.34097],[8.33865,47.33942],[8.34089,47.3384],[8.3417,47.33838],[8.34222,47.33776],[8.34515,47.3369],[8.34785,47.33519],[8.34902,47.33524],[8.34908,47.33458],[8.35263,47.33312],[8.35332,47.33303],[8.3555,47.33372],[8.3579,47.33251],[8.36081,47.33382],[8.36244,47.33577],[8.36469,47.33513],[8.3693,47.3326],[8.37144,47.33086],[8.37175,47.33165],[8.37258,47.33212],[8.3726,47.33287],[8.3736,47.33332],[8.37914,47.3274],[8.37702,47.32658],[8.37883,47.32454],[8.37701,47.32384],[8.3772,47.32307],[8.37673,47.32254],[8.37819,47.32108],[8.3777,47.32101],[8.37778,47.32022],[8.37916,47.31989],[8.37824,47.31898],[8.37209,47.31916],[8.37202,47.31943]],[[8.36284,47.32805],[8.35957,47.32387],[8.36089,47.32219],[8.36246,47.32232],[8.36313,47.32318],[8.36593,47.32388],[8.37059,47.32415],[8.36794,47.32473],[8.36284,47.32805]]]}},{"type":"Feature","properties":{"k":"wzvv","n":"Kanderdelta bis Hilterfingen (BE)","u":"https://api3.geo.admin.ch/featureattachments/ch.bafu.bundesinventare-vogelreservate/objectsheets/2023revision/nr108.pdf","s":"wzvv","id":40},"geometry":{"type":"Polygon","coordinates":[[[7.63563,46.75446],[7.63694,46.75166],[7.63643,46.74896],[7.63693,46.74824],[7.63849,46.7477],[7.64025,46.74514],[7.64277,46.74387],[7.64273,46.74351],[7.64299,46.74376],[7.6444,46.74312],[7.6456,46.74191],[7.6494,46.74244],[7.65103,46.74161],[7.65303,46.73955],[7.65396,46.73741],[7.65629,46.73687],[7.65739,46.73519],[7.64412,46.71618],[7.64304,46.71797],[7.64021,46.7181],[7.63946,46.71727],[7.63658,46.71608],[7.6353,46.71433],[7.63177,46.71586],[7.62408,46.72038],[7.62316,46.72234],[7.62357,46.72348],[7.62537,46.72549],[7.6285,46.72431],[7.62899,46.72505],[7.62867,46.72555],[7.62958,46.72547],[7.62891,46.72673],[7.63062,46.7281],[7.62923,46.72976],[7.62918,46.73056],[7.62853,46.73072],[7.62859,46.73117],[7.62905,46.73083],[7.62921,46.73159],[7.63013,46.73241],[7.63027,46.73397],[7.63253,46.73427],[7.63007,46.73433],[7.63011,46.73463],[7.63135,46.7344],[7.6321,46.73454],[7.63037,46.73472],[7.63083,46.73535],[7.63164,46.73517],[7.63204,46.7355],[7.63018,46.73647],[7.63182,46.73665],[7.63185,46.73784],[7.6325,46.7382],[7.63248,46.73881],[7.63369,46.74034],[7.63138,46.7407],[7.63039,46.74004],[7.62845,46.73989],[7.62852,46.74077],[7.63094,46.74102],[7.63131,46.74079],[7.6314,46.74139],[7.6318,46.74115],[7.63184,46.74144],[7.63258,46.74146],[7.63225,46.74119],[7.63275,46.74121],[7.63334,46.74166],[7.63079,46.74166],[7.6301,46.74211],[7.62896,46.74214],[7.62955,46.74238],[7.63158,46.74211],[7.63475,46.74479],[7.63551,46.74506],[7.63639,46.74474],[7.63853,46.74618],[7.63556,46.74832],[7.63428,46.7484],[7.63478,46.7487],[7.63559,46.74851],[7.63477,46.75039],[7.63079,46.75453],[7.63188,46.7543],[7.63401,46.75209],[7.63383,46.75262],[7.63423,46.75238],[7.63474,46.7527],[7.63435,46.75312],[7.63385,46.75268],[7.63287,46.75516],[7.6337,46.75551],[7.63563,46.75446]]]}},{"type":"Feature","properties":{"k":"wzvv","n":"Wohlensee (Halenbrücke bis Wohleibrücke) (BE)","u":"https://api3.geo.admin.ch/featureattachments/ch.bafu.bundesinventare-vogelreservate/objectsheets/2023revision/nr109.pdf","s":"wzvv","id":41},"geometry":{"type":"Polygon","coordinates":[[[7.41828,46.97157],[7.41849,46.97091],[7.41487,46.97046],[7.40902,46.96848],[7.40585,46.96821],[7.40042,46.96866],[7.39734,46.96769],[7.39506,46.96628],[7.3837,46.96587],[7.38142,46.96497],[7.37996,46.96297],[7.37962,46.96162],[7.3779,46.96007],[7.37554,46.95947],[7.37361,46.95944],[7.37039,46.9606],[7.36821,46.96363],[7.36573,46.96562],[7.36465,46.96595],[7.36312,46.96582],[7.36178,46.96512],[7.35906,46.96459],[7.35899,46.96666],[7.36457,46.96783],[7.36946,46.96747],[7.37069,46.96706],[7.3716,46.96613],[7.37134,46.96415],[7.3707,46.96335],[7.37097,46.9621],[7.37297,46.96074],[7.3753,46.96053],[7.37775,46.96165],[7.37991,46.96546],[7.38233,46.96653],[7.38645,46.9672],[7.39295,46.96731],[7.39995,46.96965],[7.40737,46.96901],[7.41075,46.96967],[7.41519,46.9712],[7.41828,46.97157]]]}},{"type":"Feature","properties":{"k":"wzvv","n":"Rive droite du Petit-Lac (GE, VD)","u":"https://api3.geo.admin.ch/featureattachments/ch.bafu.bundesinventare-vogelreservate/objectsheets/2023revision/nr11.pdf","s":"wzvv","id":42},"geometry":{"type":"Polygon","coordinates":[[[6.15705,46.21003],[6.15515,46.21013],[6.15305,46.21105],[6.15273,46.21388],[6.15151,46.21749],[6.15366,46.22127],[6.15177,46.22285],[6.15126,46.22421],[6.14902,46.22652],[6.14974,46.22797],[6.15018,46.23146],[6.15066,46.23149],[6.14999,46.23229],[6.15087,46.23333],[6.15027,46.23587],[6.15099,46.23918],[6.15308,46.24297],[6.15256,46.24436],[6.15392,46.24587],[6.15149,46.24814],[6.15185,46.24846],[6.15152,46.2512],[6.15383,46.25348],[6.15472,46.25304],[6.15432,46.25348],[6.15616,46.25537],[6.1581,46.25922],[6.16088,46.26123],[6.16201,46.26297],[6.16394,46.2636],[6.16572,46.26349],[6.16633,46.26401],[6.16631,46.26341],[6.16596,46.26346],[6.16617,46.26246],[6.16639,46.26269],[6.16842,46.26903],[6.16818,46.26936],[6.16863,46.26937],[6.17011,46.2715],[6.16965,46.2719],[6.17026,46.27186],[6.17082,46.27279],[6.16999,46.27204],[6.17033,46.27341],[6.17091,46.27351],[6.1709,46.27472],[6.1714,46.27471],[6.16614,46.28232],[6.16576,46.29179],[6.16709,46.29514],[6.16956,46.29797],[6.17341,46.30014],[6.17713,46.30118],[6.17836,46.30233],[6.17796,46.3028],[6.18017,46.3047],[6.18192,46.30461],[6.19372,46.30071],[6.18124,46.2899],[6.17707,46.28912],[6.17684,46.28777],[6.1749,46.28601],[6.17261,46.28141],[6.1753,46.27776],[6.17659,46.27477],[6.17572,46.27161],[6.17327,46.26777],[6.17129,46.26151],[6.1702,46.26019],[6.16884,46.25937],[6.16716,46.25893],[6.16492,46.25898],[6.16262,46.25742],[6.15926,46.25129],[6.15674,46.24965],[6.15868,46.24738],[6.15911,46.24593],[6.15816,46.2437],[6.15809,46.24204],[6.15616,46.23814],[6.15564,46.23561],[6.15607,46.23336],[6.15578,46.23092],[6.15469,46.22694],[6.15825,46.22298],[6.15883,46.2215],[6.15859,46.21971],[6.15701,46.2169],[6.15819,46.21277],[6.15705,46.21003]]]}},{"type":"Feature","properties":{"k":"wzvv","n":"Stausee Niederried (BE)","u":"https://api3.geo.admin.ch/featureattachments/ch.bafu.bundesinventare-vogelreservate/objectsheets/2023revision/nr110.pdf","s":"wzvv","id":43},"geometry":{"type":"Polygon","coordinates":[[[7.23947,47.00359],[7.24027,47.00281],[7.24084,47.00289],[7.24042,47.00249],[7.24097,47.00142],[7.24744,46.99553],[7.25383,46.98766],[7.2589,46.98553],[7.25831,46.9849],[7.25222,46.98697],[7.25136,46.98907],[7.24942,46.99119],[7.24263,46.9932],[7.24186,46.99425],[7.24082,46.99437],[7.23941,46.99547],[7.23866,46.99676],[7.23804,47.00042],[7.23859,47.00145],[7.23904,47.00073],[7.23956,47.00084],[7.23877,47.00284],[7.23947,47.00359]]]}},{"type":"Feature","properties":{"k":"wzvv","n":"Hagneckdelta und St. Petersinsel (BE)","u":"https://api3.geo.admin.ch/featureattachments/ch.bafu.bundesinventare-vogelreservate/objectsheets/2023revision/nr111.pdf","s":"wzvv","id":44},"geometry":{"type":"MultiPolygon","coordinates":[[[[7.18471,47.07246],[7.19072,47.06896],[7.18838,47.06579],[7.184,47.06247],[7.18305,47.0629],[7.18148,47.06109],[7.17873,47.06126],[7.17866,47.05972],[7.17848,47.05993],[7.17745,47.05925],[7.17842,47.05861],[7.17454,47.05558],[7.17069,47.05352],[7.16643,47.05742],[7.1658,47.05862],[7.17,47.06348],[7.1709,47.06554],[7.17256,47.06734],[7.17533,47.06955],[7.17656,47.07003],[7.182,47.07025],[7.18471,47.07246]]],[[[7.10739,47.04451],[7.10038,47.04721],[7.09546,47.05235],[7.09926,47.05334],[7.11506,47.06093],[7.12415,47.06476],[7.12616,47.06644],[7.12878,47.0699],[7.13247,47.07266],[7.13579,47.07722],[7.13863,47.07911],[7.15366,47.08218],[7.15609,47.08254],[7.15746,47.08214],[7.15823,47.07921],[7.15811,47.0778],[7.15611,47.07396],[7.15422,47.07199],[7.14097,47.06302],[7.1367,47.05843],[7.12318,47.05187],[7.11469,47.04879],[7.10912,47.04628],[7.10739,47.04451]]]]}},{"type":"Feature","properties":{"k":"wzvv","n":"Häftli bei Büren (BE)","u":"https://api3.geo.admin.ch/featureattachments/ch.bafu.bundesinventare-vogelreservate/objectsheets/2023revision/nr112.pdf","s":"wzvv","id":45},"geometry":{"type":"Polygon","coordinates":[[[7.35373,47.15953],[7.36053,47.15996],[7.36052,47.1589],[7.35655,47.15891],[7.35193,47.15782],[7.35277,47.15658],[7.35774,47.15352],[7.35787,47.15294],[7.35681,47.15143],[7.35574,47.15101],[7.3539,47.15104],[7.34571,47.15197],[7.34249,47.15132],[7.33995,47.15002],[7.33828,47.14785],[7.33874,47.1467],[7.34209,47.14414],[7.34519,47.14421],[7.34634,47.14309],[7.33835,47.14319],[7.33325,47.14217],[7.3306,47.14429],[7.33063,47.14513],[7.33143,47.14556],[7.33351,47.14534],[7.33493,47.14613],[7.33562,47.14954],[7.33746,47.15159],[7.3406,47.15277],[7.34681,47.15322],[7.35216,47.15255],[7.35549,47.15256],[7.35605,47.15324],[7.35345,47.15438],[7.35149,47.15586],[7.35009,47.15748],[7.35016,47.1582],[7.35373,47.15953]]]}},{"type":"Feature","properties":{"k":"wzvv","n":"Aare bei Solothurn und Naturschutzreservat Aare Flumenthal (SO)","u":"https://api3.geo.admin.ch/featureattachments/ch.bafu.bundesinventare-vogelreservate/objectsheets/2023revision/nr113.pdf","s":"wzvv","id":46},"geometry":{"type":"MultiPolygon","coordinates":[[[[7.55009,47.20728],[7.54923,47.20671],[7.54745,47.20637],[7.54206,47.20636],[7.5358,47.20534],[7.53486,47.20487],[7.53265,47.20123],[7.52954,47.19849],[7.52318,47.19621],[7.51948,47.19544],[7.51071,47.196],[7.51053,47.19698],[7.5192,47.19659],[7.5257,47.19795],[7.53088,47.20097],[7.53444,47.20551],[7.54163,47.20728],[7.54842,47.20755],[7.54972,47.20854],[7.5517,47.21197],[7.55299,47.21187],[7.55009,47.20728]]],[[[7.57344,47.22013],[7.57286,47.22009],[7.57185,47.21841],[7.57039,47.21838],[7.56858,47.21701],[7.56545,47.21666],[7.55991,47.21691],[7.55989,47.21764],[7.56364,47.21784],[7.56579,47.2175],[7.56767,47.21781],[7.5685,47.21863],[7.5708,47.21972],[7.57585,47.2248],[7.58973,47.22924],[7.59025,47.22843],[7.57747,47.22421],[7.57543,47.22256],[7.57344,47.22013]]]]}},{"type":"Feature","properties":{"k":"wzvv","n":"Plaine de l’Orbe – Chavornay (VD)","u":"https://api3.geo.admin.ch/featureattachments/ch.bafu.bundesinventare-vogelreservate/objectsheets/2023revision/nr114.pdf","s":"wzvv","id":47},"geometry":{"type":"Polygon","coordinates":[[[6.57359,46.73946],[6.56822,46.73207],[6.57135,46.73173],[6.57212,46.73115],[6.57041,46.72844],[6.5697,46.72524],[6.57057,46.72239],[6.57232,46.72011],[6.56932,46.71363],[6.56787,46.71229],[6.56582,46.71295],[6.56507,46.71142],[6.56005,46.71312],[6.55199,46.71882],[6.55897,46.73006],[6.55454,46.73069],[6.56173,46.7345],[6.56249,46.73574],[6.56615,46.73344],[6.56764,46.73533],[6.56077,46.7427],[6.55346,46.74946],[6.55823,46.75264],[6.58072,46.74481],[6.58184,46.74402],[6.57944,46.74316],[6.57359,46.73946]]]}},{"type":"Feature","properties":{"k":"wzvv","n":"Salavaux (VD)","u":"https://api3.geo.admin.ch/featureattachments/ch.bafu.bundesinventare-vogelreservate/objectsheets/2023revision/nr115.pdf","s":"wzvv","id":48},"geometry":{"type":"Polygon","coordinates":[[[7.05735,46.90414],[7.05641,46.90242],[7.05421,46.90243],[7.04961,46.90121],[7.04017,46.90334],[7.02951,46.91218],[7.02313,46.91663],[7.0225,46.91846],[7.02343,46.91924],[7.03317,46.92407],[7.03515,46.92471],[7.05802,46.906],[7.05718,46.90504],[7.05735,46.90414]]]}},{"type":"Feature","properties":{"k":"wzvv","n":"Pointe de Promenthoux (VD)","u":"https://api3.geo.admin.ch/featureattachments/ch.bafu.bundesinventare-vogelreservate/objectsheets/2023revision/nr117.pdf","s":"wzvv","id":49},"geometry":{"type":"Polygon","coordinates":[[[6.29504,46.42491],[6.29542,46.42514],[6.29697,46.42448],[6.30712,46.4172],[6.30526,46.41607],[6.30479,46.41287],[6.30324,46.40963],[6.29999,46.40525],[6.29719,46.40282],[6.29752,46.39881],[6.29632,46.39445],[6.29497,46.39215],[6.29354,46.39069],[6.28947,46.38823],[6.28509,46.38367],[6.28148,46.38156],[6.27919,46.38079],[6.2742,46.38013],[6.26521,46.381],[6.26146,46.3818],[6.26057,46.37938],[6.25921,46.37744],[6.24602,46.38453],[6.24698,46.38704],[6.26763,46.40355],[6.26948,46.40682],[6.28715,46.42202],[6.29205,46.42522],[6.29549,46.42669],[6.29569,46.42636],[6.29473,46.42554],[6.29504,46.42491]]]}},{"type":"Feature","properties":{"k":"wzvv","n":"Rive gauche du Petit-Lac (GE)","u":"https://api3.geo.admin.ch/featureattachments/ch.bafu.bundesinventare-vogelreservate/objectsheets/2023revision/nr118.pdf","s":"wzvv","id":50},"geometry":{"type":"Polygon","coordinates":[[[6.19391,46.24221],[6.19313,46.23811],[6.19232,46.23765],[6.19248,46.23653],[6.19159,46.23559],[6.19033,46.23274],[6.18618,46.22831],[6.18235,46.22499],[6.18267,46.22486],[6.175,46.2148],[6.17135,46.21407],[6.17312,46.21229],[6.17089,46.21127],[6.16581,46.21638],[6.16802,46.21793],[6.17075,46.21874],[6.17668,46.22717],[6.18498,46.23543],[6.18696,46.24015],[6.18508,46.24531],[6.18558,46.24807],[6.18715,46.25075],[6.18658,46.25357],[6.18777,46.25602],[6.18801,46.25902],[6.19126,46.26412],[6.19334,46.26644],[6.19655,46.26827],[6.20108,46.26932],[6.20628,46.26973],[6.20744,46.27043],[6.20919,46.27303],[6.21351,46.27669],[6.2155,46.28057],[6.2191,46.28376],[6.22343,46.2887],[6.22994,46.29165],[6.23188,46.29494],[6.23571,46.29908],[6.23423,46.30369],[6.23532,46.30649],[6.24186,46.30422],[6.2411,46.30432],[6.24072,46.30376],[6.24136,46.30305],[6.24262,46.2987],[6.24219,46.29772],[6.23756,46.29277],[6.23691,46.2909],[6.23527,46.28879],[6.22846,46.28586],[6.22786,46.28529],[6.22479,46.28157],[6.22117,46.27838],[6.21931,46.27456],[6.21658,46.2717],[6.21428,46.27023],[6.2137,46.26883],[6.21218,46.26724],[6.20943,46.26541],[6.20043,46.2646],[6.19781,46.26308],[6.19538,46.25871],[6.19414,46.25755],[6.19415,46.25676],[6.19475,46.25774],[6.19468,46.25634],[6.19448,46.25686],[6.1945,46.25571],[6.19298,46.25286],[6.19395,46.2513],[6.19389,46.25028],[6.19235,46.24768],[6.19237,46.24676],[6.1917,46.24659],[6.19216,46.24638],[6.19165,46.24612],[6.19156,46.24538],[6.19197,46.24423],[6.19358,46.24356],[6.19391,46.24221]]]}},{"type":"Feature","properties":{"k":"wzvv","n":"Bolle di Magadino (TI)","u":"https://api3.geo.admin.ch/featureattachments/ch.bafu.bundesinventare-vogelreservate/objectsheets/2023revision/nr119.pdf","s":"wzvv","id":51},"geometry":{"type":"Polygon","coordinates":[[[8.87215,46.16828],[8.88437,46.16808],[8.88534,46.16779],[8.88584,46.1669],[8.88588,46.16451],[8.89013,46.15604],[8.88945,46.15436],[8.88468,46.15114],[8.87734,46.14957],[8.87178,46.14916],[8.86508,46.14972],[8.85922,46.14873],[8.85556,46.14919],[8.85416,46.14715],[8.84916,46.14593],[8.84712,46.14503],[8.84485,46.14461],[8.84127,46.14479],[8.84015,46.17885],[8.84127,46.17749],[8.84149,46.17552],[8.84315,46.17404],[8.85096,46.17511],[8.85671,46.17344],[8.8643,46.16982],[8.86857,46.16869],[8.87215,46.16828]]]}},{"type":"Feature","properties":{"k":"wzvv","n":"Pfäffikersee (ZH)","u":"https://api3.geo.admin.ch/featureattachments/ch.bafu.bundesinventare-vogelreservate/objectsheets/2023revision/nr120.pdf","s":"wzvv","id":52},"geometry":{"type":"Polygon","coordinates":[[[8.79799,47.34897],[8.79994,47.34253],[8.80348,47.34322],[8.80583,47.33984],[8.80607,47.33708],[8.80391,47.33676],[8.80319,47.33726],[8.79537,47.33379],[8.79281,47.33356],[8.78935,47.33397],[8.78807,47.33362],[8.78721,47.3338],[8.78206,47.33209],[8.78064,47.33351],[8.77858,47.33444],[8.77808,47.33625],[8.77631,47.33689],[8.77573,47.33783],[8.77555,47.33973],[8.77477,47.34134],[8.77455,47.34623],[8.7661,47.35854],[8.76733,47.3608],[8.76713,47.36294],[8.77301,47.36541],[8.77321,47.36517],[8.77744,47.36512],[8.77798,47.36439],[8.78094,47.36432],[8.7821,47.36357],[8.7826,47.36373],[8.78618,47.35847],[8.78689,47.3587],[8.78864,47.35687],[8.78782,47.35657],[8.78878,47.35502],[8.79032,47.35539],[8.79084,47.35431],[8.7927,47.35341],[8.79344,47.35465],[8.79391,47.35465],[8.7959,47.35241],[8.7972,47.35217],[8.79708,47.35168],[8.79762,47.3514],[8.79845,47.35169],[8.79961,47.3513],[8.80015,47.35177],[8.80085,47.35051],[8.80026,47.35041],[8.79978,47.3495],[8.79799,47.34897]]]}},{"type":"Feature","properties":{"k":"wzvv","n":"Greifensee (ZH)","u":"https://api3.geo.admin.ch/featureattachments/ch.bafu.bundesinventare-vogelreservate/objectsheets/2023revision/nr121.pdf","s":"wzvv","id":53},"geometry":{"type":"Polygon","coordinates":[[[8.70426,47.31933],[8.70227,47.32042],[8.69974,47.31852],[8.69735,47.31885],[8.69782,47.31938],[8.69753,47.32088],[8.69283,47.321],[8.69001,47.32259],[8.68916,47.32715],[8.68747,47.32975],[8.68441,47.33284],[8.68518,47.33303],[8.68278,47.33552],[8.68186,47.33778],[8.67863,47.3403],[8.67778,47.34266],[8.67563,47.34502],[8.67557,47.34567],[8.6707,47.3465],[8.66826,47.34751],[8.66539,47.35049],[8.66385,47.35304],[8.66389,47.35384],[8.66116,47.35428],[8.66013,47.35485],[8.65379,47.36073],[8.65243,47.36301],[8.65251,47.36578],[8.65303,47.36674],[8.65222,47.36754],[8.65315,47.36826],[8.6544,47.36819],[8.65312,47.37087],[8.65467,47.37205],[8.65616,47.37231],[8.65539,47.37258],[8.65575,47.37279],[8.65662,47.3725],[8.66123,47.37362],[8.66296,47.3732],[8.6675,47.37012],[8.66816,47.37026],[8.66818,47.36942],[8.66901,47.36925],[8.67104,47.36713],[8.67467,47.36473],[8.67502,47.36409],[8.67547,47.36417],[8.67542,47.36365],[8.68064,47.36249],[8.68181,47.36125],[8.68096,47.36046],[8.68207,47.36069],[8.68431,47.35931],[8.68463,47.35886],[8.68413,47.35834],[8.68464,47.3583],[8.68565,47.35633],[8.68927,47.35252],[8.68957,47.35165],[8.68883,47.35121],[8.6896,47.35057],[8.69049,47.35072],[8.6897,47.35007],[8.69019,47.34874],[8.68973,47.34513],[8.69161,47.34078],[8.69558,47.33774],[8.69806,47.33734],[8.70234,47.33523],[8.70759,47.33358],[8.70817,47.33082],[8.7107,47.32974],[8.71,47.32725],[8.70927,47.32592],[8.70648,47.32374],[8.70832,47.32254],[8.70426,47.31933]]]}},{"type":"Feature","properties":{"k":"wzvv","n":"Neeracher Ried (ZH)","u":"https://api3.geo.admin.ch/featureattachments/ch.bafu.bundesinventare-vogelreservate/objectsheets/2023revision/nr122.pdf","s":"wzvv","id":54},"geometry":{"type":"Polygon","coordinates":[[[8.49105,47.50032],[8.49238,47.49943],[8.48873,47.49876],[8.48351,47.49576],[8.47776,47.49352],[8.47659,47.49379],[8.47333,47.49353],[8.47312,47.49485],[8.47537,47.49775],[8.47659,47.49891],[8.47812,47.49944],[8.47725,47.50012],[8.47947,47.5072],[8.47926,47.50897],[8.47819,47.51084],[8.47911,47.51425],[8.48315,47.5177],[8.48708,47.51941],[8.4893,47.51737],[8.48763,47.51518],[8.48919,47.51477],[8.48994,47.51292],[8.49057,47.51289],[8.4902,47.51127],[8.48906,47.50951],[8.49241,47.50112],[8.49105,47.50032]]]}},{"type":"Feature","properties":{"k":"wzvv","n":"Wauwilermoos (LU)","u":"https://api3.geo.admin.ch/featureattachments/ch.bafu.bundesinventare-vogelreservate/objectsheets/2023revision/nr123.pdf","s":"wzvv","id":55},"geometry":{"type":"Polygon","coordinates":[[[8.02195,47.17927],[8.02171,47.1784],[8.0281,47.17839],[8.02834,47.17389],[8.03003,47.174],[8.03413,47.17549],[8.04021,47.17304],[8.04176,47.17208],[8.04158,47.17055],[8.04211,47.17008],[8.04066,47.1691],[8.04263,47.16836],[8.04207,47.16626],[8.03447,47.15906],[8.02706,47.15711],[8.02311,47.15781],[8.02206,47.15661],[8.01578,47.1601],[8.00733,47.1621],[8.00667,47.16351],[8.00704,47.16443],[8.00408,47.16667],[8.00466,47.17097],[8.00564,47.17309],[8.00939,47.17307],[8.01193,47.17757],[8.01187,47.18072],[8.01709,47.1807],[8.02195,47.17927]]]}},{"type":"Feature","properties":{"k":"wzvv","n":"Lac de Pérolles (FR)","u":"https://api3.geo.admin.ch/featureattachments/ch.bafu.bundesinventare-vogelreservate/objectsheets/2023revision/nr124.pdf","s":"wzvv","id":56},"geometry":{"type":"Polygon","coordinates":[[[7.16688,46.79985],[7.16818,46.79966],[7.16935,46.79824],[7.16949,46.79703],[7.16775,46.79549],[7.16936,46.79427],[7.169,46.79257],[7.16982,46.79123],[7.16823,46.79066],[7.16693,46.79112],[7.16611,46.79028],[7.1664,46.7896],[7.16512,46.78972],[7.16445,46.78938],[7.16535,46.78879],[7.16647,46.78695],[7.16489,46.78698],[7.16516,46.78576],[7.16414,46.78441],[7.16298,46.78373],[7.16061,46.78318],[7.15748,46.78388],[7.1552,46.78649],[7.15476,46.78761],[7.15571,46.78837],[7.15478,46.79023],[7.15388,46.78884],[7.15417,46.78786],[7.15263,46.78736],[7.14987,46.78781],[7.14746,46.79026],[7.14642,46.79027],[7.14602,46.78926],[7.14459,46.78905],[7.14434,46.79035],[7.14681,46.79138],[7.15214,46.78926],[7.15216,46.79082],[7.15335,46.79168],[7.15437,46.7917],[7.15584,46.79117],[7.15665,46.78913],[7.1587,46.79026],[7.15875,46.7899],[7.15765,46.78934],[7.1576,46.78875],[7.15839,46.78812],[7.15982,46.7881],[7.15824,46.78787],[7.15892,46.78739],[7.1578,46.78651],[7.15915,46.78533],[7.16064,46.78532],[7.16148,46.78606],[7.16226,46.78917],[7.16071,46.78972],[7.16142,46.79199],[7.16236,46.79219],[7.16077,46.79423],[7.16021,46.79409],[7.16031,46.79607],[7.16151,46.79703],[7.16558,46.79836],[7.16688,46.79985]]]}},{"type":"Feature","properties":{"k":"wzvv","n":"Lac de la Gruyère à Broc (FR)","u":"https://api3.geo.admin.ch/featureattachments/ch.bafu.bundesinventare-vogelreservate/objectsheets/2023revision/nr125.pdf","s":"wzvv","id":57},"geometry":{"type":"Polygon","coordinates":[[[7.10761,46.61375],[7.11,46.6133],[7.11033,46.61238],[7.10961,46.61019],[7.1071,46.61019],[7.10588,46.60942],[7.10526,46.60967],[7.10464,46.60904],[7.10188,46.60956],[7.10005,46.61173],[7.09778,46.61256],[7.09514,46.61428],[7.09607,46.61559],[7.09587,46.61772],[7.10553,46.62083],[7.10565,46.61551],[7.10761,46.61375]]]}},{"type":"Feature","properties":{"k":"wzvv","n":"Chablais (Lac de Morat) (FR)","u":"https://api3.geo.admin.ch/featureattachments/ch.bafu.bundesinventare-vogelreservate/objectsheets/2023revision/nr126.pdf","s":"wzvv","id":58},"geometry":{"type":"Polygon","coordinates":[[[7.12637,46.96154],[7.12843,46.95992],[7.12963,46.96048],[7.12981,46.96018],[7.12878,46.95964],[7.12943,46.95913],[7.13228,46.96044],[7.13211,46.96074],[7.13295,46.96049],[7.13297,46.96004],[7.1362,46.95779],[7.13733,46.95629],[7.13921,46.95485],[7.14,46.95512],[7.14381,46.95069],[7.14173,46.94999],[7.14257,46.94763],[7.14069,46.94493],[7.13415,46.94447],[7.13431,46.94338],[7.13192,46.9417],[7.13211,46.9411],[7.12908,46.93989],[7.11882,46.95535],[7.11931,46.95748],[7.11873,46.95907],[7.12248,46.96091],[7.12326,46.96007],[7.12637,46.96154]]]}},{"type":"Feature","properties":{"k":"wzvv","n":"Benkner-, Burger- und Kaltbrunner-Riet (SG)","u":"https://api3.geo.admin.ch/featureattachments/ch.bafu.bundesinventare-vogelreservate/objectsheets/2023revision/nr127.pdf","s":"wzvv","id":59},"geometry":{"type":"MultiPolygon","coordinates":[[[[8.97579,47.20506],[8.97567,47.20955],[8.97907,47.20425],[8.97579,47.20506]]],[[[8.98886,47.20876],[8.98777,47.2043],[8.98101,47.20489],[8.97695,47.21118],[8.9773,47.21171],[8.97663,47.21275],[8.97568,47.21316],[8.97487,47.2144],[8.98201,47.21722],[8.98114,47.21901],[8.98609,47.21896],[8.98885,47.21834],[8.99682,47.21259],[8.98975,47.20855],[8.98886,47.20876]]]]}},{"type":"Feature","properties":{"k":"wzvv","n":"Stein am Rhein (SH,TG)","u":"https://api3.geo.admin.ch/featureattachments/ch.bafu.bundesinventare-vogelreservate/objectsheets/2023revision/nr2.pdf","s":"wzvv","id":60},"geometry":{"type":"Polygon","coordinates":[[[8.89469,47.64361],[8.89211,47.64349],[8.8784,47.64644],[8.87601,47.64765],[8.86944,47.64894],[8.86705,47.64975],[8.86092,47.65411],[8.86288,47.65498],[8.86004,47.65714],[8.85644,47.65833],[8.85294,47.66022],[8.85077,47.66043],[8.84798,47.66205],[8.84444,47.66221],[8.84249,47.66336],[8.84095,47.66353],[8.83571,47.67059],[8.83372,47.67188],[8.83194,47.67244],[8.82951,47.67415],[8.82608,47.67461],[8.81637,47.67723],[8.81526,47.67722],[8.8129,47.67626],[8.80905,47.67598],[8.80274,47.67743],[8.79932,47.67563],[8.79824,47.67673],[8.80127,47.67907],[8.80119,47.68119],[8.80462,47.68142],[8.80623,47.68094],[8.80766,47.68126],[8.80768,47.68078],[8.80924,47.67983],[8.81305,47.67977],[8.8128,47.67906],[8.81716,47.67875],[8.8278,47.67682],[8.82937,47.67556],[8.83596,47.67383],[8.84162,47.67071],[8.84211,47.66772],[8.84372,47.66617],[8.84551,47.66575],[8.84528,47.66479],[8.8538,47.66256],[8.85571,47.66145],[8.85663,47.66047],[8.85645,47.66016],[8.8581,47.65914],[8.86013,47.65839],[8.86338,47.65859],[8.86643,47.65828],[8.86774,47.65776],[8.86934,47.6581],[8.87023,47.65769],[8.87545,47.65707],[8.8754,47.65495],[8.87976,47.65494],[8.88545,47.65318],[8.89083,47.64958],[8.89506,47.64814],[8.89469,47.64361]]]}},{"type":"Feature","properties":{"k":"wzvv","n":"Klingnauerstausee (AG)","u":"https://api3.geo.admin.ch/featureattachments/ch.bafu.bundesinventare-vogelreservate/objectsheets/2023revision/nr3.pdf","s":"wzvv","id":61},"geometry":{"type":"MultiPolygon","coordinates":[[[[8.22785,47.57798],[8.22519,47.57803],[8.22168,47.58297],[8.2213,47.58427],[8.22127,47.58459],[8.22561,47.58618],[8.2274,47.58645],[8.2266,47.58859],[8.22442,47.5892],[8.22348,47.58998],[8.22295,47.58958],[8.21985,47.59111],[8.21782,47.59124],[8.21913,47.58794],[8.2186,47.58813],[8.21812,47.5877],[8.21853,47.58719],[8.21797,47.58703],[8.21345,47.5898],[8.21327,47.59189],[8.2147,47.59449],[8.21719,47.59754],[8.21898,47.59877],[8.2223,47.60558],[8.22513,47.6041],[8.22738,47.60371],[8.22736,47.60288],[8.22612,47.60309],[8.22491,47.59904],[8.22644,47.59661],[8.22774,47.5961],[8.22777,47.59663],[8.23378,47.59439],[8.23712,47.59302],[8.23884,47.59189],[8.24181,47.58665],[8.24081,47.58601],[8.24216,47.58425],[8.24037,47.58319],[8.25321,47.57373],[8.25154,47.57308],[8.24793,47.57446],[8.2449,47.57338],[8.24578,47.57232],[8.2453,47.57204],[8.24223,47.57526],[8.23932,47.57633],[8.23765,47.57582],[8.23723,47.57641],[8.23818,47.57684],[8.23662,47.57787],[8.23561,47.57754],[8.23536,47.57784],[8.23368,47.5774],[8.23356,47.57763],[8.23002,47.57675],[8.22785,47.57798]]],[[[8.22603,47.60444],[8.22478,47.60513],[8.22477,47.60555],[8.2269,47.60478],[8.22686,47.60442],[8.22603,47.60444]]]]}},{"type":"Feature","properties":{"k":"wzvv","n":"Fanel jusqu'à Chablais de Cudrefin, Pointe de Marin (BE,FR,VD,NE)","u":"https://api3.geo.admin.ch/featureattachments/ch.bafu.bundesinventare-vogelreservate/objectsheets/2023revision/nr4.pdf","s":"wzvv","id":62},"geometry":{"type":"MultiPolygon","coordinates":[[[[7.02899,46.97921],[7.02755,46.98114],[7.02876,46.98142],[7.02898,46.98206],[7.01509,46.99816],[7.02525,47.00662],[7.02674,47.00796],[7.02663,47.00834],[7.02741,47.00836],[7.02957,47.00995],[7.03146,47.0124],[7.03257,47.01222],[7.03424,47.01642],[7.03431,47.02029],[7.03779,47.02006],[7.0585,47.01068],[7.05976,47.00733],[7.06512,47.00051],[7.06781,46.99115],[7.08366,46.99506],[7.08558,46.99387],[7.0894,46.99499],[7.09104,46.99378],[7.08981,46.99179],[7.09413,46.99064],[7.08754,46.97646],[7.08339,46.97539],[7.07687,46.97133],[7.07116,46.96914],[7.07005,46.96885],[7.06796,46.96897],[7.06418,46.97065],[7.06016,46.97366],[7.056,46.97543],[7.05373,46.97369],[7.04399,46.96879],[7.03117,46.9615],[7.02797,46.96475],[7.02899,46.97921]],[[7.03289,47.00127],[7.03729,47.00322],[7.03729,47.00322],[7.03289,47.00127]]],[[[6.99408,47.00766],[6.99678,47.00545],[6.99667,47.00488],[6.99863,47.0054],[7.00006,47.0049],[7.0,47.0045],[7.00249,47.00458],[7.00233,47.00408],[7.00267,47.00451],[7.00288,47.00453],[7.00263,47.00433],[7.0039,47.00318],[7.00637,47.00233],[7.01136,47.00284],[7.01245,47.00152],[7.00688,47.00008],[7.00347,46.99991],[6.99932,47.0005],[6.99418,47.00253],[6.99125,47.00459],[6.9891,47.00683],[6.99334,47.0086],[6.99426,47.00835],[6.99408,47.00766]]]]}},{"type":"Feature","properties":{"k":"wzvv","n":"Chevroux jusqu'à Portalban (FR, VD)","u":"https://api3.geo.admin.ch/featureattachments/ch.bafu.bundesinventare-vogelreservate/objectsheets/2023revision/nr5.pdf","s":"wzvv","id":63},"geometry":{"type":"Polygon","coordinates":[[[6.92942,46.90485],[6.92785,46.9035],[6.92807,46.90298],[6.92516,46.90037],[6.90646,46.89213],[6.90601,46.89259],[6.90464,46.89205],[6.9015,46.89554],[6.90135,46.89628],[6.90073,46.89644],[6.90105,46.89725],[6.89835,46.90052],[6.91875,46.90776],[6.94632,46.92305],[6.95345,46.91864],[6.95203,46.91778],[6.95166,46.91673],[6.95058,46.91572],[6.95089,46.91542],[6.94326,46.91061],[6.93656,46.90757],[6.93453,46.90735],[6.92942,46.90485]]]}},{"type":"Feature","properties":{"k":"wzvv","n":"Yvonand jusqu'à Cheyres (FR, VD)","u":"https://api3.geo.admin.ch/featureattachments/ch.bafu.bundesinventare-vogelreservate/objectsheets/2023revision/nr6.pdf","s":"wzvv","id":64},"geometry":{"type":"Polygon","coordinates":[[[6.7733,46.812],[6.76838,46.80808],[6.77102,46.80649],[6.76511,46.80298],[6.76221,46.8007],[6.75781,46.79851],[6.75717,46.7996],[6.75114,46.8003],[6.7411,46.80326],[6.74171,46.80393],[6.74106,46.80451],[6.73997,46.80456],[6.74018,46.80606],[6.73893,46.80632],[6.73789,46.80761],[6.77965,46.81839],[6.78073,46.8177],[6.781,46.81607],[6.78207,46.81541],[6.78285,46.8158],[6.7826,46.815],[6.77749,46.81217],[6.77619,46.81204],[6.77538,46.8128],[6.7733,46.812]]]}},{"type":"Feature","properties":{"k":"wzvv","n":"Grandson jusqu'à Champ-Pittet (VD)","u":"https://api3.geo.admin.ch/featureattachments/ch.bafu.bundesinventare-vogelreservate/objectsheets/2023revision/nr7.pdf","s":"wzvv","id":65},"geometry":{"type":"Polygon","coordinates":[[[6.66661,46.79021],[6.70091,46.80298],[6.7045,46.79913],[6.70136,46.79846],[6.69553,46.79645],[6.68603,46.79185],[6.67533,46.78879],[6.66684,46.7855],[6.65678,46.78041],[6.65551,46.78176],[6.655,46.7832],[6.65715,46.78392],[6.65664,46.78477],[6.65782,46.7851],[6.65563,46.78671],[6.65411,46.78716],[6.64771,46.78748],[6.64473,46.78946],[6.64527,46.78977],[6.64484,46.79013],[6.6437,46.78958],[6.64305,46.78977],[6.63993,46.78803],[6.63815,46.79015],[6.63724,46.78925],[6.63573,46.79131],[6.63508,46.79109],[6.63277,46.79387],[6.63209,46.79557],[6.6325,46.79956],[6.63069,46.80037],[6.63186,46.80165],[6.63273,46.80169],[6.63347,46.80224],[6.63499,46.80139],[6.63645,46.80261],[6.6365,46.80366],[6.64286,46.80596],[6.64768,46.80843],[6.64704,46.80887],[6.6485,46.80979],[6.66661,46.79021]]]}},{"type":"Feature","properties":{"k":"wzvv","n":"Les Grangettes (VD,VS)","u":"https://api3.geo.admin.ch/featureattachments/ch.bafu.bundesinventare-vogelreservate/objectsheets/2023revision/nr8.pdf","s":"wzvv","id":66},"geometry":{"type":"Polygon","coordinates":[[[6.81067,46.47038],[6.8152,46.46971],[6.81558,46.47],[6.81764,46.47001],[6.81949,46.46956],[6.81992,46.46978],[6.82093,46.46929],[6.82153,46.46822],[6.82254,46.4682],[6.82296,46.46784],[6.82791,46.46823],[6.8279,46.4685],[6.83146,46.46807],[6.83317,46.46704],[6.83268,46.46645],[6.83483,46.46406],[6.83541,46.4606],[6.84081,46.45874],[6.84142,46.45912],[6.84214,46.45899],[6.8426,46.45853],[6.84987,46.45746],[6.8499,46.45696],[6.85022,46.45737],[6.85166,46.45718],[6.85242,46.4566],[6.85391,46.45323],[6.8549,46.45222],[6.85546,46.45234],[6.85686,46.45172],[6.8573,46.45057],[6.85817,46.45056],[6.85957,46.44734],[6.86007,46.44707],[6.86152,46.44785],[6.86522,46.44861],[6.86666,46.44832],[6.86672,46.44799],[6.86828,46.44831],[6.86957,46.44762],[6.86965,46.44823],[6.87178,46.4479],[6.87314,46.44809],[6.875,46.44688],[6.87683,46.44642],[6.87792,46.44521],[6.87864,46.44513],[6.87923,46.44389],[6.87892,46.44297],[6.88186,46.44172],[6.88222,46.44114],[6.88245,46.44173],[6.88429,46.44193],[6.88491,46.44234],[6.88589,46.44203],[6.88583,46.44154],[6.89024,46.43895],[6.89125,46.43952],[6.89278,46.4393],[6.89914,46.4405],[6.90139,46.44056],[6.9077,46.43683],[6.90928,46.43515],[6.90966,46.43354],[6.90893,46.43058],[6.91227,46.42875],[6.91412,46.42906],[6.91603,46.42997],[6.91818,46.42959],[6.92012,46.42841],[6.92205,46.42563],[6.92264,46.42588],[6.92249,46.42547],[6.9236,46.42424],[6.92331,46.42116],[6.9273,46.41816],[6.92772,46.41511],[6.92701,46.41445],[6.92717,46.41407],[6.92828,46.41388],[6.92979,46.41237],[6.93096,46.40943],[6.93055,46.40723],[6.92847,46.4044],[6.92505,46.40227],[6.92548,46.4005],[6.92491,46.3987],[6.92321,46.39709],[6.91977,46.39609],[6.92112,46.39454],[6.91948,46.39375],[6.91663,46.39341],[6.91314,46.39466],[6.91039,46.39393],[6.9078,46.39264],[6.90582,46.39098],[6.9033,46.39152],[6.8904,46.38844],[6.88444,46.38907],[6.88129,46.38903],[6.87963,46.38783],[6.87522,46.38761],[6.87163,46.38528],[6.87222,46.38469],[6.87103,46.38415],[6.8728,46.38202],[6.87555,46.38024],[6.87458,46.38017],[6.87353,46.37913],[6.86925,46.37674],[6.87266,46.37471],[6.87569,46.37195],[6.87595,46.37154],[6.87494,46.37087],[6.87279,46.37084],[6.872,46.37177],[6.86972,46.37241],[6.86794,46.37156],[6.86313,46.37333],[6.85788,46.37786],[6.85733,46.37973],[6.8554,46.38035],[6.85468,46.38265],[6.85304,46.38511],[6.85091,46.38672],[6.84874,46.38744],[6.84462,46.38735],[6.83653,46.38436],[6.83544,46.38437],[6.83346,46.38373],[6.83324,46.38339],[6.8312,46.38342],[6.83071,46.38374],[6.8277,46.38294],[6.82598,46.38326],[6.82452,46.38296],[6.82349,46.38341],[6.82355,46.38483],[6.82266,46.38449],[6.82001,46.38515],[6.81873,46.38498],[6.81677,46.38594],[6.81532,46.38609],[6.81428,46.38718],[6.80511,46.38951],[6.80441,46.39263],[6.80403,46.39273],[6.80562,46.39362],[6.80525,46.394],[6.82113,46.42717],[6.80896,46.46889],[6.81067,46.47038]]]}},{"type":"Feature","properties":{"k":"wzvv","n":"Rhône-Verbois (GE)","u":"https://api3.geo.admin.ch/featureattachments/ch.bafu.bundesinventare-vogelreservate/objectsheets/2023revision/nr9.pdf","s":"wzvv","id":67},"geometry":{"type":"Polygon","coordinates":[[[6.00959,46.17957],[6.01325,46.1804],[6.0152,46.18169],[6.01807,46.18825],[6.02459,46.19404],[6.025,46.19548],[6.02286,46.19552],[6.02133,46.19662],[6.02274,46.19925],[6.01827,46.1997],[6.01859,46.20136],[6.02008,46.20251],[6.02357,46.20116],[6.02863,46.20026],[6.03507,46.20127],[6.03792,46.19973],[6.03993,46.20053],[6.04069,46.19982],[6.04303,46.20033],[6.0434,46.20097],[6.04449,46.20042],[6.04577,46.19759],[6.04571,46.1964],[6.05371,46.19458],[6.05582,46.19448],[6.05526,46.19533],[6.05649,46.19591],[6.05861,46.19497],[6.06144,46.19449],[6.06172,46.19505],[6.0633,46.19467],[6.06506,46.19549],[6.06926,46.20174],[6.06834,46.20209],[6.06775,46.20179],[6.06762,46.20212],[6.06546,46.20194],[6.06384,46.20238],[6.06482,46.20406],[6.0664,46.20514],[6.06715,46.20631],[6.06778,46.20615],[6.06799,46.20651],[6.06911,46.20648],[6.06964,46.20682],[6.07085,46.20629],[6.07103,46.20664],[6.07202,46.20644],[6.07248,46.20614],[6.0722,46.20528],[6.07259,46.20473],[6.07411,46.20444],[6.07594,46.20537],[6.076,46.20378],[6.07886,46.20324],[6.08194,46.20573],[6.08371,46.20825],[6.08363,46.20864],[6.08253,46.20866],[6.08227,46.20914],[6.08556,46.21243],[6.08833,46.21391],[6.09052,46.21454],[6.0914,46.21406],[6.09881,46.21649],[6.10003,46.21555],[6.09675,46.21489],[6.09857,46.2137],[6.10031,46.2144],[6.10085,46.21428],[6.10212,46.2118],[6.10226,46.20996],[6.09739,46.20813],[6.09739,46.20717],[6.0943,46.20508],[6.09215,46.2029],[6.0913,46.20061],[6.09179,46.20023],[6.09218,46.20052],[6.09464,46.2006],[6.09595,46.20182],[6.09895,46.20338],[6.10027,46.20308],[6.09835,46.20272],[6.09809,46.20183],[6.09715,46.20203],[6.09678,46.20128],[6.09593,46.20114],[6.09369,46.19964],[6.09171,46.19972],[6.09194,46.19821],[6.08832,46.19695],[6.08775,46.19599],[6.08881,46.1944],[6.09081,46.19355],[6.09167,46.19381],[6.09253,46.19328],[6.09509,46.19315],[6.09441,46.19397],[6.09605,46.1932],[6.09778,46.19427],[6.09864,46.194],[6.09839,46.19461],[6.09946,46.19433],[6.10177,46.19703],[6.10108,46.19741],[6.10164,46.19803],[6.10203,46.19792],[6.10355,46.20036],[6.10792,46.2034],[6.11013,46.20394],[6.11986,46.20382],[6.11801,46.20303],[6.11998,46.20222],[6.12101,46.20235],[6.12114,46.20173],[6.12689,46.20344],[6.13356,46.20373],[6.13656,46.20554],[6.14143,46.20534],[6.14789,46.20689],[6.14979,46.20851],[6.15091,46.20862],[6.15305,46.21105],[6.15515,46.21013],[6.15705,46.21003],[6.15598,46.20819],[6.15606,46.20744],[6.15791,46.2057],[6.1533,46.20348],[6.14657,46.205],[6.1419,46.20427],[6.13567,46.20418],[6.13212,46.20277],[6.12502,46.20222],[6.12199,46.20135],[6.12119,46.20062],[6.12112,46.19856],[6.12071,46.19938],[6.11913,46.19928],[6.11789,46.19986],[6.11528,46.19962],[6.11502,46.20057],[6.11259,46.20006],[6.11129,46.20068],[6.11071,46.20053],[6.11128,46.19769],[6.10618,46.19671],[6.10449,46.19532],[6.10262,46.1947],[6.10153,46.19329],[6.10024,46.19252],[6.09987,46.19139],[6.09825,46.19064],[6.09868,46.18821],[6.09943,46.18737],[6.09701,46.18701],[6.09618,46.18868],[6.09433,46.18819],[6.09452,46.18788],[6.09382,46.18771],[6.09275,46.19054],[6.09051,46.19143],[6.09001,46.19099],[6.08905,46.19189],[6.08697,46.19127],[6.08411,46.18882],[6.08371,46.1896],[6.08467,46.19566],[6.08645,46.1987],[6.0877,46.19886],[6.08742,46.20065],[6.08657,46.20121],[6.08218,46.1984],[6.07758,46.19865],[6.07585,46.2003],[6.07532,46.20011],[6.07471,46.19948],[6.07495,46.19899],[6.07411,46.1988],[6.0756,46.19728],[6.07364,46.19581],[6.0698,46.19403],[6.07092,46.19249],[6.07208,46.19224],[6.07151,46.19147],[6.07211,46.19102],[6.07263,46.19132],[6.0729,46.19076],[6.0723,46.19038],[6.07189,46.19059],[6.07186,46.18995],[6.07287,46.18928],[6.06846,46.18698],[6.06572,46.1879],[6.06286,46.18633],[6.06141,46.18607],[6.05983,46.18631],[6.05796,46.18763],[6.05748,46.18832],[6.05916,46.18898],[6.05855,46.18975],[6.05869,46.19037],[6.05726,46.19146],[6.05513,46.19117],[6.05102,46.19189],[6.04923,46.19185],[6.04143,46.1946],[6.03968,46.19454],[6.03713,46.19629],[6.03465,46.19742],[6.0332,46.1967],[6.03239,46.19718],[6.03118,46.19619],[6.03121,46.19357],[6.0334,46.19311],[6.03344,46.19165],[6.03588,46.19094],[6.0364,46.19052],[6.03611,46.19028],[6.03715,46.19003],[6.03967,46.18779],[6.04265,46.18793],[6.04157,46.18486],[6.04236,46.18433],[6.03338,46.177],[6.02721,46.17557],[6.02614,46.17677],[6.02511,46.17558],[6.02396,46.17578],[6.02379,46.17538],[6.02338,46.17558],[6.02388,46.17593],[6.02224,46.17652],[6.01723,46.17502],[6.01417,46.173],[6.01635,46.17206],[6.01918,46.16927],[6.02049,46.16649],[6.02039,46.1653],[6.01908,46.16488],[6.0193,46.1659],[6.01808,46.16817],[6.01745,46.16814],[6.01684,46.16919],[6.01101,46.17146],[6.00974,46.17455],[6.01043,46.17489],[6.01006,46.17523],[6.00491,46.17388],[6.00397,46.1742],[6.00345,46.17507],[6.00139,46.17476],[5.99756,46.17592],[5.99368,46.17666],[5.99259,46.17653],[5.99176,46.17617],[5.99103,46.17512],[5.99145,46.1717],[5.99088,46.1697],[5.98956,46.16918],[5.98856,46.16804],[5.987,46.16771],[5.98595,46.16818],[5.98487,46.16975],[5.98408,46.17264],[5.98379,46.17239],[5.98386,46.17067],[5.98263,46.16964],[5.98211,46.16735],[5.98049,46.16481],[5.978,46.16219],[5.9777,46.16072],[5.97683,46.15999],[5.97722,46.15977],[5.9765,46.15891],[5.97694,46.15832],[5.97552,46.15756],[5.97198,46.15289],[5.97109,46.15294],[5.96958,46.15082],[5.96834,46.15007],[5.968,46.14817],[5.96712,46.14721],[5.9687,46.14707],[5.97003,46.14645],[5.97073,46.14481],[5.97257,46.14297],[5.97508,46.14224],[5.98035,46.1434],[5.98201,46.14322],[5.984,46.14492],[5.98464,46.14607],[5.98584,46.14679],[5.9885,46.1452],[5.9908,46.1444],[5.99107,46.14527],[5.99185,46.14484],[5.99224,46.14585],[5.99357,46.1462],[5.99913,46.1455],[6.0013,46.14466],[6.00427,46.14443],[6.00836,46.14355],[6.01266,46.14351],[6.01366,46.14383],[6.01367,46.14459],[6.01874,46.14354],[6.02199,46.14359],[6.02229,46.14346],[6.0218,46.14275],[6.0252,46.1413],[6.02899,46.14063],[6.03003,46.14115],[6.03234,46.14027],[6.03437,46.13899],[6.0363,46.137],[6.03539,46.13433],[6.03428,46.13605],[6.03459,46.13675],[6.03343,46.13662],[6.03367,46.13793],[6.03248,46.13792],[6.03301,46.13871],[6.0314,46.13803],[6.03159,46.13945],[6.03048,46.13907],[6.02985,46.13921],[6.02983,46.13961],[6.02904,46.13938],[6.02823,46.13974],[6.02845,46.14044],[6.02729,46.14003],[6.0239,46.14038],[6.02253,46.14166],[6.02123,46.14111],[6.02015,46.14206],[6.01924,46.14195],[6.01718,46.14284],[6.01553,46.14278],[6.01501,46.14308],[6.01433,46.14236],[6.01363,46.14253],[6.01308,46.1421],[6.0096,46.14209],[6.00855,46.14282],[6.00674,46.14213],[6.00571,46.14234],[6.00323,46.14178],[6.0021,46.14228],[6.00121,46.14219],[5.99987,46.14314],[5.99714,46.14285],[5.9964,46.14378],[5.99502,46.14404],[5.99462,46.14364],[5.9941,46.14457],[5.99035,46.1433],[5.98886,46.14382],[5.98858,46.1433],[5.9879,46.14329],[5.98699,46.14257],[5.98548,46.14341],[5.98385,46.14316],[5.98245,46.14229],[5.98234,46.14154],[5.98293,46.14132],[5.9827,46.14062],[5.98191,46.14067],[5.98101,46.13942],[5.97996,46.13974],[5.97843,46.139],[5.97759,46.13949],[5.97744,46.13884],[5.97545,46.13906],[5.97419,46.1409],[5.97293,46.14125],[5.97227,46.14048],[5.96965,46.14262],[5.96786,46.14342],[5.96828,46.14568],[5.96791,46.14609],[5.96669,46.14626],[5.96547,46.14542],[5.96539,46.14161],[5.96731,46.13866],[5.96838,46.13813],[5.96682,46.13776],[5.96585,46.13614],[5.96471,46.13561],[5.96195,46.13286],[5.96043,46.13124],[5.96109,46.13061],[5.95738,46.12855],[5.95685,46.12876],[5.95645,46.1318],[5.9559,46.13236],[5.95823,46.13394],[5.96492,46.13644],[5.96626,46.13789],[5.96632,46.13908],[5.96434,46.14204],[5.9643,46.14477],[5.96522,46.14645],[5.9668,46.148],[5.9689,46.15191],[5.97316,46.15618],[5.97648,46.16208],[5.98005,46.1662],[5.98092,46.17115],[5.98202,46.17331],[5.98325,46.1738],[5.98477,46.17337],[5.98596,46.17233],[5.98655,46.17086],[5.98752,46.17058],[5.9887,46.1716],[5.98998,46.17545],[5.99173,46.17684],[5.99132,46.17729],[5.9917,46.17742],[5.99697,46.17712],[6.00477,46.17572],[6.00857,46.17686],[6.00741,46.17937],[6.00636,46.17932],[6.00751,46.18195],[6.00771,46.18393],[6.00645,46.18386],[6.00547,46.18618],[6.00288,46.18758],[6.00037,46.19079],[6.00077,46.19182],[6.00015,46.1926],[5.99991,46.19649],[5.99948,46.19674],[5.99767,46.19646],[5.99835,46.19692],[5.99804,46.19769],[5.99628,46.19791],[5.99744,46.19822],[5.99708,46.20009],[5.99509,46.20107],[5.99348,46.20134],[5.99328,46.2022],[5.98765,46.20196],[5.98586,46.201],[5.98386,46.20093],[5.98356,46.20059],[5.98228,46.20082],[5.98143,46.19984],[5.97925,46.19969],[5.97718,46.19722],[5.97488,46.19675],[5.97497,46.19626],[5.97272,46.19437],[5.97298,46.19383],[5.96373,46.19701],[5.96385,46.19743],[5.96564,46.19953],[5.96759,46.20028],[5.96821,46.20002],[5.96875,46.20063],[5.96916,46.20053],[5.96925,46.20122],[5.96977,46.20104],[5.97052,46.20173],[5.97153,46.20159],[5.97215,46.20218],[5.97274,46.20219],[5.97254,46.2024],[5.97339,46.20253],[5.97281,46.20362],[5.97066,46.20446],[5.97082,46.20492],[5.96976,46.206],[5.97092,46.20634],[5.97157,46.20608],[5.97276,46.20711],[5.97427,46.20603],[5.97598,46.20606],[5.97601,46.20467],[5.97764,46.20397],[5.98004,46.20431],[5.984,46.20281],[5.98614,46.203],[5.98825,46.20494],[5.98963,46.2048],[5.99052,46.20625],[5.98941,46.20679],[5.98859,46.20829],[5.98515,46.20847],[5.98266,46.20761],[5.98194,46.20674],[5.98194,46.20762],[5.98056,46.20772],[5.98075,46.20849],[5.98357,46.20986],[5.987,46.20983],[5.99231,46.21212],[5.9909,46.21341],[5.99147,46.21546],[5.99278,46.21522],[5.99355,46.2179],[5.99019,46.22172],[5.99292,46.22296],[5.99428,46.22243],[5.99757,46.22227],[5.99915,46.22159],[6.00017,46.22007],[6.00166,46.22059],[6.00351,46.22278],[6.00487,46.22345],[6.00719,46.22388],[6.00662,46.22661],[6.00821,46.22644],[6.01055,46.228],[6.01248,46.22671],[6.01405,46.22662],[6.01683,46.22379],[6.01542,46.22284],[6.01403,46.22277],[6.01305,46.22188],[6.01305,46.22144],[6.01502,46.22074],[6.01371,46.21943],[6.01058,46.22079],[6.00953,46.21953],[6.0102,46.21854],[6.01099,46.21838],[6.00919,46.21822],[6.00832,46.21718],[6.00903,46.2166],[6.00829,46.21574],[6.00674,46.21591],[6.00635,46.21494],[6.00509,46.2148],[6.00363,46.21372],[6.0037,46.21274],[6.0054,46.2134],[6.00798,46.20973],[6.00243,46.20736],[6.00009,46.20718],[6.00056,46.20596],[6.00317,46.2038],[6.00557,46.19879],[6.00624,46.19823],[6.00612,46.19649],[6.00697,46.1943],[6.00786,46.19357],[6.00941,46.19047],[6.01049,46.18979],[6.01002,46.18909],[6.01201,46.18783],[6.0127,46.18685],[6.01294,46.184],[6.01257,46.18282],[6.00922,46.18051],[6.00959,46.17957]]]}}]}